 2023  2 7  056  1.5 L  38.137  38.370 20.2  PhN  9 0.0 3.7L                   1
 Action:ARG 23-03-27 17:02 OP:OBSP STATUS:               ID:20230207005601     I
 STAT SP IPHASW D HRMM SECON CODA AMPLIT PERI AZIMU VELO AIN AR TRES W  DIS CAZ7
 ATAB HZ EP   3A   014  9.25                                                    
 ATAB HE ES   1A   014 16.26                                                    
 ATAB HE  IAML A   014 16.26       479.7 1.00                                   
 GAZ  HZ IP   0A   014 17.33                                                    
 GAZ  HE ES   2A   014 30.11                                                    
 GAZ  HE  IAML A   014 30.11        38.3 1.00                                   
 GZT  HZ EP   2A   014 10.51                                                    
 HANM HZ EP   2A   014 15.79                                                    
 HASA HZ IP   0A   014 29.30                                                    
 KUZU HZ EP   1A   014 24.18                                                    
 MGND HZ IP   0A   014  9.80                                                    
 MGND HE ES   3A   014 17.24                                                    
 MGND HE  IAML A   014 17.24        97.9 1.00                                   
 NARI HZ EP   3A   014 13.37                                                    
 NARI HE IS   1A   014 23.08                                                    
 NARI HE  IAML A   014 23.08        85.6 1.00                                   
 NZIP HZ IP   1A   014 16.72                                                    
 NZIP HE ES   3A   014 28.54                                                    
 NZIP HE  IAML A   014 28.54       109.9 1.00                                   
                                                                                

 2023  2 7  057 19.7 L  37.926  37.440  0.0  PhN 16 0.0 3.2L                   1
 Action:ARG 23-03-27 17:02 OP:OBSP STATUS:               ID:20230207005719     I
 STAT SP IPHASW D HRMM SECON CODA AMPLIT PERI AZIMU VELO AIN AR TRES W  DIS CAZ7
 ANDN HZ IP   0A   014 42.21                                                    
 ANDN HE IS   0A   014 49.75                                                    
 ANDN HE  IAML A   014 49.75       352.2 1.00                                   
 ATAB HZ EP   2A   014 52.01                                                    
 ATAB HE ES   1A   015  5.01                                                    
 ATAB HE  IAML A   015  5.01       625.5 1.00                                   
 CEYT HE ES   2A   015  9.60                                                    
 CEYT HE  IAML A   015  9.60        27.1 1.00                                   
 GAZ  HE IS   1A   014 43.23                                                    
 GAZ  HE  IAML A   014 43.23        73.7 1.00                                   
 GZT  HE ES   1A   014 46.98                                                    
 GZT  HE  IAML A   014 46.98       520.4 1.00                                   
 HANM HE ES   2A   015 19.73                                                    
 HANM HE  IAML A   015 19.73        63.4 1.00                                   
 HASA HE ES   2A   015  1.46                                                    
 HASA HE  IAML A   015  1.46       158.1 1.00                                   
 KAHM HZ IP   0A   014 33.93                                                    
 KAHM HE IS   0A   014 35.51                                                    
 KAHM HE  IAML A   014 35.51      4466.9 1.00                                   
 KMRS HZ IP   0A   014 34.50                                                    
 KMRS HE IS   0A   014 36.42                                                    
 KMRS HE  IAML A   014 36.42       408.4 1.00                                   
 KUZU HE IS   1A   014 54.92                                                    
 KUZU HE  IAML A   014 54.92      1079.6 1.00                                   
 MGND HZ IP   0A   014 38.64                                                    
 MGND HE IS   1A   014 43.24                                                    
 MGND HE  IAML A   014 43.24       188.1 1.00                                   
 NAR  HZ IP   1A   014 35.06                                                    
 NAR  HE ES   3A   014 37.98                                                    
 NAR  HE  IAML A   014 37.98      3244.2 1.00                                   
 NARI HE ES   3A   015 19.07                                                    
 NARI HE  IAML A   015 19.07        51.6 1.00                                   
 NZIP HE IS   1A   014 54.31                                                    
 NZIP HE  IAML A   014 54.31        74.6 1.00                                   
 RHAN HZ IP   0A   014 56.51                                                    
 RHAN HE IS   1A   015 12.70                                                    
 RHAN HE  IAML A   015 12.70       188.8 1.00                                   
 SANL HE ES   3A   015 23.49                                                    
 SANL HE  IAML A   015 23.49       113.7 1.00                                   
                                                                                

 2023  2 7  058 48.2 L  37.396  36.848 15.9  PhN 22 0.0 3.1L                   1
 Action:ARG 23-03-27 17:02 OP:OBSP STATUS:               ID:20230207005848     I
 STAT SP IPHASW D HRMM SECON CODA AMPLIT PERI AZIMU VELO AIN AR TRES W  DIS CAZ7
 ANDN HZ IP   0A   015 29.33                                                    
 ANDN HE IS   0A   015 35.57                                                    
 ANDN HE  IAML A   015 35.57     11626.0 1.00                                   
 ATAB HZ IP   1A   015 43.34                                                    
 CEYT HZ IP   0A   015 37.50                                                    
 CUGURHZ IP   1A   015 47.96                                                    
 ELBS HZ EP   2A   015 41.75                                                    
 GAZ  HZ EP   1A   015 27.08                                                    
 GAZ  HE IS   1A   015 32.31                                                    
 GAZ  HE  IAML A   015 32.31      1630.6 1.00                                   
 GZT  HZ IP   1A   015 31.91                                                    
 HANM HE ES   3A   016 14.19                                                    
 HANM HE  IAML A   016 14.19       434.7 1.00                                   
 HASA HZ IP   0A   015 32.02                                                    
 HASA HE ES   2A   015 41.33                                                    
 HASA HE  IAML A   015 41.33      1942.6 1.00                                   
 HEKM HZ EP   2A   015 54.89                                                    
 HEKM HE ES   3A   016 21.17                                                    
 HEKM HE  IAML A   016 21.17       945.4 1.00                                   
 KAHM HZ IP   0A   015 25.39                                                    
 KAHM HE IS   0A   015 29.20                                                    
 KAHM HE  IAML A   015 29.20      9614.6 1.00                                   
 KMRS HZ IP   0A   015 24.63                                                    
 KMRS HE ES   1A   015 28.17                                                    
 KMRS HE  IAML A   015 28.17      1640.4 1.00                                   
 KUZU HZ IP   0A   015 31.50                                                    
 KUZU HE ES   2A   015 39.60                                                    
 KUZU HE  IAML A   015 39.60     11344.4 1.00                                   
 MAYA HE ES   3A   016 13.45                                                    
 MAYA HE  IAML A   016 13.45       378.3 1.00                                   
 MGND HZ EP   2A   015 30.47                                                    
 NAR  HZ IP   1A   015 26.19                                                    
 NAR  HE ES   1A   015 30.72                                                    
 NAR  HE  IAML A   015 30.72     16300.8 1.00                                   
 NARI HE ES   2A   016 14.06                                                    
 NARI HE  IAML A   016 14.06       214.6 1.00                                   
 NZIP HZ IP   0A   015 34.46                                                    
 RHAN HZ IP   0A   015 40.63                                                    
 SAIM HZ EP   2A   015 36.46                                                    
 SARI HZ EP   2A   015 42.07                                                    
 SARI HE ES   2A   015 58.99                                                    
 SARI HE  IAML A   015 58.99       497.3 1.00                                   
 URFA HZ IP   1A   015 51.32                                                    
 URFA HE ES   2A   016 14.45                                                    
 URFA HE  IAML A   016 14.45       480.8 1.00                                   
                                                                                

 2023  2 7  127 15.8 L  37.371  36.932  0.0  PhN 10 0.0 1.9L                   1
 Action:ARG 23-03-27 17:02 OP:OBSP STATUS:               ID:20230207012715     I
 STAT SP IPHASW D HRMM SECON CODA AMPLIT PERI AZIMU VELO AIN AR TRES W  DIS CAZ7
 GAZ  HZ IP   0A   017 52.45                                                    
 GAZ  HE ES   1A   017 56.72                                                    
 GAZ  HE  IAML A   017 56.72        53.2 1.00                                   
 HANM HZ IP   0A   018 15.93                                                    
 HASA HZ EP   2A   018  0.87                                                    
 KAHM HZ IP   0A   017 48.58                                                    
 KAHM HE IS   0A   017 50.93                                                    
 KAHM HE  IAML A   017 50.93      2092.1 1.00                                   
 KUZU HE ES   2A   018  7.60                                                    
 KUZU HE  IAML A   018  7.60       547.3 1.00                                   
 MGND HE ES   3A   017 58.95                                                    
 MGND HE  IAML A   017 58.95        99.5 1.00                                   
 NAR  HZ IP   0A   017 49.71                                                    
 NAR  HE IS   1A   017 52.29                                                    
 NAR  HE  IAML A   017 52.29      2557.0 1.00                                   
 NZIP HE ES   1A   018  8.44                                                    
 NZIP HE  IAML A   018  8.44        76.2 1.00                                   
 RHAN HZ IP   0A   018  9.47                                                    
 RHAN HE ES   1A   018 24.56                                                    
 RHAN HE  IAML A   018 24.56       166.6 1.00                                   
 URFA HE ES   2A   018 33.63                                                    
 URFA HE  IAML A   018 33.63        59.2 1.00                                   
                                                                                

 2023  2 7  127 21.2 L  38.151  37.809 22.1  PhN 19 0.0 3.7L                   1
 Action:ARG 23-03-27 17:02 OP:OBSP STATUS:               ID:20230207012721     I
 STAT SP IPHASW D HRMM SECON CODA AMPLIT PERI AZIMU VELO AIN AR TRES W  DIS CAZ7
 ANDN HE ES   3A   018 16.24                                                    
 ANDN HE  IAML A   018 16.24      2065.7 1.00                                   
 ATAB HE ES   3A   018 45.84                                                    
 ATAB HE  IAML A   018 45.84      1267.8 1.00                                   
 BNN  HZ IP   0A   018 13.96                                                    
 CEYT HZ EP   2A   018 21.89                                                    
 CUAYAHZ EP   2A   018 18.64                                                    
 CUGURHZ EP   2A   018 11.26                                                    
 CUGURHE ES   2A   018 23.98                                                    
 CUGURHE  IAML A   018 23.98      2206.6 1.00                                   
 DARE HE ES   3A   018 23.94                                                    
 DARE HE  IAML A   018 23.94       131.4 1.00                                   
 ELBS HZ IP   0A   018  5.35                                                    
 ELBS HE IS   0A   018 12.55                                                    
 ELBS HE  IAML A   018 12.55      2596.7 1.00                                   
 GAZ  HZ EP   2A   018 17.13                                                    
 GZT  HZ IP   1A   018 18.43                                                    
 HEKM HE ES   3A   018 39.94                                                    
 HEKM HE  IAML A   018 39.94       794.9 1.00                                   
 KAHM HZ IP   0A   018  9.86                                                    
 KAHM HE IS   1A   018 19.37                                                    
 KAHM HE  IAML A   018 19.37      1396.5 1.00                                   
 KMRS HZ IP   1A   018  9.45                                                    
 KMRS HE IS   0A   018 18.69                                                    
 KMRS HE  IAML A   018 18.69       464.9 1.00                                   
 KUZU HZ EP   2A   018 24.05                                                    
 NAR  HZ EP   1A   018 13.24                                                    
 NZIP HZ EP   1A   018 23.76                                                    
 NZIP HE ES   2A   018 42.40                                                    
 NZIP HE  IAML A   018 42.40       204.0 1.00                                   
 SANL HE ES   2A   019  4.93                                                    
 SANL HE  IAML A   019  4.93       310.5 1.00                                   
 SARI HZ IP   0A   018  2.95                                                    
 SARI HE IS   1A   018  7.96                                                    
 SARI HE  IAML A   018  7.96      2584.5 1.00                                   
 URFA HE IS   0A   018 59.36                                                    
 URFA HE  IAML A   018 59.36       160.2 1.00                                   
                                                                                

 2023  2 7  129 18.3 L  38.110  36.832 14.8  PhN  7 0.0 4.1L                   1
 Action:ARG 23-03-27 17:02 OP:OBSP STATUS:               ID:20230207012918     I
 STAT SP IPHASW D HRMM SECON CODA AMPLIT PERI AZIMU VELO AIN AR TRES W  DIS CAZ7
 DARE HZ EP   2A   019 44.33                                                    
 GZT  HE IS   0A   019 34.62                                                    
 GZT  HE  IAML A   019 34.62      1553.0 1.00                                   
 KAHM HZ EP   3A   019 26.25                                                    
 KMRS HZ EP   2A   019 25.81                                                    
 KMRS HE IS   0A   019 28.77                                                    
 KMRS HE  IAML A   019 28.77        60.2 1.00                                   
 MGND HZ EP   1A   019 26.17                                                    
 NZIP HZ EP   1A   019 33.64                                                    
 NZIP HE ES   1A   019 43.59                                                    
 NZIP HE  IAML A   019 43.59       178.9 1.00                                   
 RHAN HE IS   1A   020  6.13                                                    
 RHAN HE  IAML A   020  6.13       126.7 1.00                                   
                                                                                

 2023  2 7  129 49.4 L  37.189  36.920  0.0  PhN  9 0.0 4.1L                   1
 Action:ARG 23-03-27 17:02 OP:OBSP STATUS:               ID:20230207012949     I
 STAT SP IPHASW D HRMM SECON CODA AMPLIT PERI AZIMU VELO AIN AR TRES W  DIS CAZ7
 ATAB HE ES   2A   020 16.37                                                    
 ATAB HE  IAML A   020 16.37       983.5 1.00                                   
 CUAYAHZ EP   2A   020 17.12                                                    
 HANM HZ EP   2A   020 12.55                                                    
 HASA HE ES   2A   020 20.37                                                    
 HASA HE  IAML A   020 20.37      3470.6 1.00                                   
 HEKM HZ IP   0A   020 12.59                                                    
 NAR  HE ES   2A   019 54.96                                                    
 NAR  HE  IAML A   019 54.96       846.4 1.00                                   
 SANL HZ EP   1A   020 17.13                                                    
 SARI HZ IP   1A   020  4.01                                                    
 URFA HE ES   2A   020 31.74                                                    
 URFA HE  IAML A   020 31.74        97.2 1.00                                   
                                                                                

