 2023  2 7  421 42.7 L  37.395  36.950  8.7  PhN 23 0.0 2.5L                   1
 Action:ARG 23-03-27 17:02 OP:OBSP STATUS:               ID:20230207042142     I
 STAT SP IPHASW D HRMM SECON CODA AMPLIT PERI AZIMU VELO AIN AR TRES W  DIS CAZ7
 ATAB HZ IP   0A   055 49.24                                                    
 ATAB HE ES   2A   056  0.53                                                    
 ATAB HE  IAML A   056  0.53      5002.2 1.00                                   
 BNN  HZ EP   2A   056  2.70                                                    
 CUAYAHZ EP   3A   056  0.12                                                    
 CUGURHZ EP   2A   055 47.62                                                    
 CUGURHE ES   3A   055 59.64                                                    
 CUGURHE  IAML A   055 59.64     10766.8 1.00                                   
 CUKANHZ EP   3A   055 58.04                                                    
 CUKANHE ES   3A   056 17.26                                                    
 CUKANHE  IAML A   056 17.26       838.1 1.00                                   
 DARE HZ EP   2A   055 43.40                                                    
 DARE HE IS   1A   055 53.30                                                    
 DARE HE  IAML A   055 53.30       460.3 1.00                                   
 ELBS HZ IP   0A   055 42.13                                                    
 ELBS HE IS   1A   055 49.43                                                    
 ELBS HE  IAML A   055 49.43     19225.4 1.00                                   
 ELZG HZ EP   2A   055 56.16                                                    
 GZT  HZ EP   2A   055 46.23                                                    
 GZT  HE ES   2A   055 55.62                                                    
 GZT  HE  IAML A   055 55.62      1719.5 1.00                                   
 HANM HE ES   3A   056 11.16                                                    
 HANM HE  IAML A   056 11.16       855.4 1.00                                   
 HASA HE ES   2A   056 23.46                                                    
 HASA HE  IAML A   056 23.46      1086.1 1.00                                   
 HEKM HZ IP   1A   055 50.53                                                    
 HEKM HE ES   2A   056  5.32                                                    
 HEKM HE  IAML A   056  5.32      4260.2 1.00                                   
 KEMA HZ EP   3A   056  0.90                                                    
 KMRS HZ IP   1A   055 47.21                                                    
 KMRS HE ES   2A   055 57.40                                                    
 KMRS HE  IAML A   055 57.40       385.8 1.00                                   
 KUZU HE ES   2A   056 17.11                                                    
 KUZU HE  IAML A   056 17.11      5069.1 1.00                                   
 MAYA HE ES   3A   056  0.96                                                    
 MAYA HE  IAML A   056  0.96      4706.2 1.00                                   
 MGND HZ IP   1A   055 44.13                                                    
 MGND HE ES   2A   055 52.39                                                    
 MGND HE  IAML A   055 52.39       772.9 1.00                                   
 NAR  HE ES   3A   055 56.80                                                    
 NAR  HE  IAML A   055 56.80      1271.7 1.00                                   
 NARI HZ EP   2A   055 52.02                                                    
 NZIP HZ IP   1A   055 53.51                                                    
 SAIM HZ IP   1A   055 54.61                                                    
 SANL HE ES   3A   056 20.72                                                    
 SANL HE  IAML A   056 20.72      1512.5 1.00                                   
 SARI HE ES   2A   056  5.92                                                    
 SARI HE  IAML A   056  5.92       295.1 1.00                                   
                                                                                

 2023  2 7  422 37.6 L  37.992  37.439  9.0  PhN 10 0.0 2.9L                   1
 Action:ARG 23-03-27 17:02 OP:OBSP STATUS:               ID:20230207042237     I
 STAT SP IPHASW D HRMM SECON CODA AMPLIT PERI AZIMU VELO AIN AR TRES W  DIS CAZ7
 ANDN HE ES   2A   056 56.28                                                    
 ANDN HE  IAML A   056 56.28       746.6 1.00                                   
 ATAB HZ EP   2A   056 13.12                                                    
 ELZG HZ IP   0A   056 12.96                                                    
 ELZG HE IS   1A   056 21.85                                                    
 ELZG HE  IAML A   056 21.85      2523.0 1.00                                   
 GZT  HZ IP   0A   056 21.43                                                    
 GZT  HE ES   2A   056 35.57                                                    
 GZT  HE  IAML A   056 35.57      5070.4 1.00                                   
 KMRS HE ES   2A   056 44.89                                                    
 KMRS HE  IAML A   056 44.89       165.0 1.00                                   
 MAYA HZ IP   0A   056  6.26                                                    
 MAYA HE ES   1A   056 10.23                                                    
 MAYA HE  IAML A   056 10.23      4441.4 1.00                                   
 MGND HZ IP   0A   056 21.44                                                    
 NAR  HE ES   3A   056 41.06                                                    
 NAR  HE  IAML A   056 41.06      1419.8 1.00                                   
 NARI HZ IP   1A   056  8.35                                                    
 NZIP HE ES   2A   056 41.31                                                    
 NZIP HE  IAML A   056 41.31       265.2 1.00                                   
                                                                                

 2023  2 7  428 30.9 L  37.573  37.439  0.0  PhN 10 0.0 2.9L                   1
 Action:ARG 23-03-27 17:02 OP:OBSP STATUS:               ID:20230207042830     I
 STAT SP IPHASW D HRMM SECON CODA AMPLIT PERI AZIMU VELO AIN AR TRES W  DIS CAZ7
 ANDN HZ IP   0A   057 37.58                                                    
 GAZ  HZ IP   1A   057 34.05                                                    
 GZT  HZ EP   1A   057 31.11                                                    
 HANM HZ EP   3A   057 42.15                                                    
 HANM HE ES   2A   057 57.58                                                    
 HANM HE  IAML A   057 57.58       159.7 1.00                                   
 KMRS HZ IP   0A   057 29.70                                                    
 MGND HZ IP   1A   057 29.45                                                    
 MGND HE IS   1A   057 33.68                                                    
 MGND HE  IAML A   057 33.68       478.1 1.00                                   
 NAR  HZ IP   0A   057 30.68                                                    
 RHAN HE ES   2A   058 17.57                                                    
 RHAN HE  IAML A   058 17.57       129.1 1.00                                   
 SAIM HZ IP   1A   057 39.94                                                    
 SANL HE ES   3A   058  5.23                                                    
 SANL HE  IAML A   058  5.23       336.0 1.00                                   
                                                                                

 2023  2 7  437 31.4 L  37.978  37.646 18.2  PhN 13 0.0 3.5L                   1
 Action:ARG 23-03-27 17:02 OP:OBSP STATUS:               ID:20230207043731     I
 STAT SP IPHASW D HRMM SECON CODA AMPLIT PERI AZIMU VELO AIN AR TRES W  DIS CAZ7
 ANDN HZ EP   2A   058 57.43                                                    
 ANDN HE ES   1A   059  3.53                                                    
 ANDN HE  IAML A   059  3.53       185.7 1.00                                   
 ATAB HE ES   1A   059 27.33                                                    
 ATAB HE  IAML A   059 27.33       720.8 1.00                                   
 CUGURHE ES   3A   059 33.26                                                    
 CUGURHE  IAML A   059 33.26       297.5 1.00                                   
 ELBS HE ES   1A   059 20.90                                                    
 ELBS HE  IAML A   059 20.90       208.6 1.00                                   
 ELZG HZ EP   1A   059 24.97                                                    
 GZT  HZ EP   3A   059  0.54                                                    
 HASA HE ES   3A   059 10.95                                                    
 HASA HE  IAML A   059 10.95       184.7 1.00                                   
 KEMA HZ EP   2A   059 30.64                                                    
 KUZU HZ IP   0A   059  1.93                                                    
 MAYA HZ EP   1A   059 16.12                                                    
 NAR  HZ IP   0A   058 53.71                                                    
 NAR  HE ES   2A   058 57.73                                                    
 NAR  HE  IAML A   058 57.73      1054.3 1.00                                   
 NZIP HZ EP   2A   059  3.32                                                    
 NZIP HE ES   1A   059 14.46                                                    
 NZIP HE  IAML A   059 14.46        94.4 1.00                                   
 RHAN HE ES   1A   059 24.69                                                    
 RHAN HE  IAML A   059 24.69       156.7 1.00                                   
                                                                                

 2023  2 7  442  3.3 L  36.867  36.540 10.8  PhN  8 0.0 4.5L                   1
 Action:ARG 23-03-27 17:02 OP:OBSP STATUS:               ID:20230207044203     I
 STAT SP IPHASW D HRMM SECON CODA AMPLIT PERI AZIMU VELO AIN AR TRES W  DIS CAZ7
 ANDN HZ IP   0A   1 0 36.69                                                    
 ELZG HE ES   3A   1 1 17.25                                                    
 ELZG HE  IAML A   1 1 17.25       460.8 1.00                                   
 KEMA HZ EP   2A   1 0 58.22                                                    
 KUZU HZ EP   1A   1 0 41.33                                                    
 MGND HE ES   3A   1 0 34.21                                                    
 MGND HE  IAML A   1 0 34.21       383.5 1.00                                   
 NZIP HE ES   3A   1 0 49.79                                                    
 NZIP HE  IAML A   1 0 49.79       169.5 1.00                                   
 RHAN HZ EP   3A   1 0 52.95                                                    
 RHAN HE IS   0A   1 1 14.42                                                    
 RHAN HE  IAML A   1 1 14.42       206.3 1.00                                   
 SAIM HZ EP   3A   1 0 39.02                                                    
                                                                                

 2023  2 7  541 52.7 L  38.099  36.630 19.2  PhN 10 0.0 2.9L                   1
 Action:ARG 23-03-27 17:02 OP:OBSP STATUS:               ID:20230207054152     I
 STAT SP IPHASW D HRMM SECON CODA AMPLIT PERI AZIMU VELO AIN AR TRES W  DIS CAZ7
 ANDN HZ EP   2A   1 1 38.98                                                    
 ANDN HE ES   2A   1 1 46.16                                                    
 ANDN HE  IAML A   1 1 46.16       317.6 1.00                                   
 ATAB HZ IP   1A   1 1 48.50                                                    
 ATAB HE ES   1A   1 2  2.21                                                    
 ATAB HE  IAML A   1 2  2.21       469.6 1.00                                   
 GZT  HZ EP   2A   1 1 39.15                                                    
 GZT  HE ES   2A   1 1 43.49                                                    
 GZT  HE  IAML A   1 1 43.49       395.5 1.00                                   
 HANM HZ EP   3A   1 1 57.30                                                    
 HASA HZ EP   2A   1 1 44.99                                                    
 KUZU HE ES   1A   1 1 50.64                                                    
 KUZU HE  IAML A   1 1 50.64       456.1 1.00                                   
 MAYA HZ EP   2A   1 1 56.71                                                    
 MGND HE ES   2A   1 1 40.01                                                    
 MGND HE  IAML A   1 1 40.01       114.9 1.00                                   
 NAR  HZ IP   0A   1 1 31.43                                                    
 NAR  HE IS   1A   1 1 34.00                                                    
 NAR  HE  IAML A   1 1 34.00      1792.5 1.00                                   
 NZIP HZ IP   0A   1 1 42.87                                                    
 NZIP HE IS   1A   1 1 50.21                                                    
 NZIP HE  IAML A   1 1 50.21        95.4 1.00                                   
                                                                                

 2023  2 7  542 28.8 L  38.018  37.528 15.9  PhN  9 0.0 3.5L                   1
 Action:ARG 23-03-27 17:02 OP:OBSP STATUS:               ID:20230207054228     I
 STAT SP IPHASW D HRMM SECON CODA AMPLIT PERI AZIMU VELO AIN AR TRES W  DIS CAZ7
 ELZG HZ EP   1A   1 3 30.53                                                    
 GZT  HE ES   3A   1 3 12.65                                                    
 GZT  HE  IAML A   1 3 12.65       198.3 1.00                                   
 HASA HZ EP   2A   1 3 26.91                                                    
 HEKM HZ IP   0A   1 3 28.90                                                    
 KEMA HZ IP   1A   1 3 37.44                                                    
 KMRS HZ EP   1A   1 3 13.43                                                    
 MAYA HZ IP   0A   1 3 21.48                                                    
 NAR  HE IS   0A   1 3 15.29                                                    
 NAR  HE  IAML A   1 3 15.29       636.8 1.00                                   
 SARI HZ EP   2A   1 3 26.42                                                    
                                                                                

 2023  2 7  543 13.5 L  37.193  36.923  8.0  PhN  8 0.0 3.1L                   1
 Action:ARG 23-03-27 17:02 OP:OBSP STATUS:               ID:20230207054313     I
 STAT SP IPHASW D HRMM SECON CODA AMPLIT PERI AZIMU VELO AIN AR TRES W  DIS CAZ7
 ANDN HZ EP   3A   1 3 30.44                                                    
 ATAB HZ EP   1A   1 3 38.89                                                    
 ATAB HE ES   3A   1 3 51.95                                                    
 ATAB HE  IAML A   1 3 51.95       257.2 1.00                                   
 DARE HZ IP   1A   1 3 40.70                                                    
 GAZ  HZ EP   1A   1 3 27.45                                                    
 GAZ  HE IS   0A   1 3 32.15                                                    
 GAZ  HE  IAML A   1 3 32.15        33.3 1.00                                   
 KMRS HZ IP   0A   1 3 23.95                                                    
 KMRS HE IS   0A   1 3 26.89                                                    
 KMRS HE  IAML A   1 3 26.89        82.4 1.00                                   
 MGND HZ IP   0A   1 3 25.67                                                    
 MGND HE IS   0A   1 3 29.78                                                    
 MGND HE  IAML A   1 3 29.78       254.4 1.00                                   
 NAR  HZ IP   1A   1 3 23.55                                                    
 NAR  HE IS   1A   1 3 26.27                                                    
 NAR  HE  IAML A   1 3 26.27       825.9 1.00                                   
 NZIP HZ EP   1A   1 3 33.64                                                    
                                                                                

 2023  2 7  544 49.5 L  37.651  37.269  0.0  PhN  7 0.0 2.8L                   1
 Action:ARG 23-03-27 17:02 OP:OBSP STATUS:               ID:20230207054449     I
 STAT SP IPHASW D HRMM SECON CODA AMPLIT PERI AZIMU VELO AIN AR TRES W  DIS CAZ7
 ANDN HZ EP   1A   1 4 18.92                                                    
 ANDN HE ES   2A   1 4 28.40                                                    
 ANDN HE  IAML A   1 4 28.40       178.9 1.00                                   
 GAZ  HZ IP   0A   1 4 16.67                                                    
 HASA HZ EP   2A   1 4 26.62                                                    
 HASA HE ES   3A   1 4 39.49                                                    
 HASA HE  IAML A   1 4 39.49       108.6 1.00                                   
 KMRS HZ IP   0A   1 4 13.19                                                    
 KMRS HE IS   0A   1 4 15.34                                                    
 KMRS HE  IAML A   1 4 15.34       252.8 1.00                                   
 MAYA HE ES   2A   1 4 50.16                                                    
 MAYA HE  IAML A   1 4 50.16       118.4 1.00                                   
 NAR  HZ IP   0A   1 4 14.39                                                    
 NAR  HE ES   1A   1 4 16.72                                                    
 NAR  HE  IAML A   1 4 16.72       979.3 1.00                                   
 NZIP HE ES   1A   1 4 32.76                                                    
 NZIP HE  IAML A   1 4 32.76        63.6 1.00                                   
                                                                                

 2023  2 7  546 14.1 L  37.576  37.256 12.0  PhN  6 0.0 2.5L                   1
 Action:ARG 23-03-27 17:02 OP:OBSP STATUS:               ID:20230207054614     I
 STAT SP IPHASW D HRMM SECON CODA AMPLIT PERI AZIMU VELO AIN AR TRES W  DIS CAZ7
 GAZ  HZ EP   2A   1 5 39.63                                                    
 KMRS HZ EP   2A   1 5 39.63                                                    
 MAYA HZ IP   0A   1 5 58.55                                                    
 MGND HE ES   3A   1 5 42.67                                                    
 MGND HE  IAML A   1 5 42.67       193.6 1.00                                   
 NAR  HZ EP   2A   1 5 38.32                                                    
 NAR  HE ES   2A   1 5 41.88                                                    
 NAR  HE  IAML A   1 5 41.88      1150.5 1.00                                   
 NZIP HZ EP   3A   1 5 42.94                                                    
                                                                                

