 2023  2 7  3 2 55.3 L  37.279  37.092  0.0  PhN 10 0.0 4.2L                   1
 Action:ARG 23-03-27 17:02 OP:OBSP STATUS:               ID:20230207030255     I
 STAT SP IPHASW D HRMM SECON CODA AMPLIT PERI AZIMU VELO AIN AR TRES W  DIS CAZ7
 ANDN HZ IP   1A   045 45.31                                                    
 ANDN HE IS   1A   045 53.68                                                    
 ANDN HE  IAML A   045 53.68       389.3 1.00                                   
 ATAB HZ IP   0A   045 52.79                                                    
 ATAB HE ES   1A   046  5.55                                                    
 ATAB HE  IAML A   046  5.55       727.5 1.00                                   
 BNN  HZ EP   3A   046  5.66                                                    
 GZT  HZ IP   0A   045 41.12                                                    
 GZT  HE IS   1A   045 46.74                                                    
 GZT  HE  IAML A   045 46.74       578.5 1.00                                   
 KAHM HZ EP   2A   045 36.88                                                    
 KAHM HE IS   0A   045 39.78                                                    
 KAHM HE  IAML A   045 39.78      1990.8 1.00                                   
 KUZU HE IS   0A   045 53.02                                                    
 KUZU HE  IAML A   045 53.02       750.2 1.00                                   
 MGND HZ EP   1A   045 39.71                                                    
 MGND HE ES   1A   045 44.25                                                    
 MGND HE  IAML A   045 44.25       423.2 1.00                                   
 NAR  HZ IP   0A   045 35.62                                                    
 NAR  HE IS   1A   045 37.40                                                    
 NAR  HE  IAML A   045 37.40      5553.5 1.00                                   
 NZIP HZ IP   0A   045 44.59                                                    
 NZIP HE IS   0A   045 52.48                                                    
 NZIP HE  IAML A   045 52.48       123.5 1.00                                   
 SARI HZ EP   1A   045 55.72                                                    
                                                                                

 2023  2 7  3 4  1.1 L  38.204  37.880 16.8  PhN 11 0.0 3.6L                   1
 Action:ARG 23-03-27 17:02 OP:OBSP STATUS:               ID:20230207030401     I
 STAT SP IPHASW D HRMM SECON CODA AMPLIT PERI AZIMU VELO AIN AR TRES W  DIS CAZ7
 ATAB HZ EP   1A   046 34.65                                                    
 GAZ  HE ES   2A   046 23.92                                                    
 GAZ  HE  IAML A   046 23.92       148.2 1.00                                   
 GZT  HZ EP   3A   046 23.17                                                    
 HANM HE ES   3A   047  2.53                                                    
 HANM HE  IAML A   047  2.53       142.7 1.00                                   
 HASA HE ES   2A   046 42.93                                                    
 HASA HE  IAML A   046 42.93       272.5 1.00                                   
 KAHM HZ IP   0A   046 19.48                                                    
 KAHM HE IS   0A   046 22.14                                                    
 KAHM HE  IAML A   046 22.14      1235.0 1.00                                   
 KMRS HZ IP   0A   046 20.63                                                    
 KMRS HE IS   1A   046 23.53                                                    
 KMRS HE  IAML A   046 23.53       132.1 1.00                                   
 MAYA HE ES   3A   047  2.21                                                    
 MAYA HE  IAML A   047  2.21       471.4 1.00                                   
 MGND HZ IP   1A   046 21.56                                                    
 MGND HE IS   0A   046 25.65                                                    
 MGND HE  IAML A   046 25.65       338.9 1.00                                   
 NAR  HZ IP   0A   046 17.70                                                    
 NAR  HE IS   0A   046 19.12                                                    
 NAR  HE  IAML A   046 19.12     30905.0 1.00                                   
 SANL HE ES   3A   047  4.43                                                    
 SANL HE  IAML A   047  4.43       255.9 1.00                                   
                                                                                

 2023  2 7  3 5 35.7 L  38.025  37.522  0.5  PhN  7 0.0 3.4L                   1
 Action:ARG 23-03-27 17:02 OP:OBSP STATUS:               ID:20230207030535     I
 STAT SP IPHASW D HRMM SECON CODA AMPLIT PERI AZIMU VELO AIN AR TRES W  DIS CAZ7
 GAZ  HZ IP   1A   046 42.46                                                    
 GAZ  HE ES   1A   046 46.11                                                    
 GAZ  HE  IAML A   046 46.11        67.3 1.00                                   
 HANM HE ES   2A   047 19.51                                                    
 HANM HE  IAML A   047 19.51       257.9 1.00                                   
 HASA HZ IP   1A   046 52.97                                                    
 KAHM HE ES   1A   046 49.00                                                    
 KAHM HE  IAML A   046 49.00       455.9 1.00                                   
 KMRS HZ IP   1A   046 44.73                                                    
 NAR  HZ IP   0A   046 40.66                                                    
 NARI HZ EP   2A   047  1.81                                                    
                                                                                

 2023  2 7  3 7 27.2 L  37.424  37.058 31.0  PhN  8 0.0 3.1L                   1
 Action:ARG 23-03-27 17:02 OP:OBSP STATUS:               ID:20230207030727     I
 STAT SP IPHASW D HRMM SECON CODA AMPLIT PERI AZIMU VELO AIN AR TRES W  DIS CAZ7
 ANDN HE ES   2A   047 13.60                                                    
 ANDN HE  IAML A   047 13.60       324.9 1.00                                   
 CUKANHZ EP   3A   047 17.34                                                    
 DARE HZ EP   3A   047  4.56                                                    
 HANM HZ EP   2A   047  6.81                                                    
 KUZU HE ES   2A   047 14.21                                                    
 KUZU HE  IAML A   047 14.21      1108.8 1.00                                   
 SANL HZ EP   2A   047 11.05                                                    
 SANL HE ES   3A   047 27.31                                                    
 SANL HE  IAML A   047 27.31       674.2 1.00                                   
 SARI HZ IP   0A   047  6.75                                                    
 URFA HE ES   3A   047 23.24                                                    
 URFA HE  IAML A   047 23.24       308.0 1.00                                   
                                                                                

 2023  2 7  3 8 46.7 L  37.989  36.678  9.6  PhN  6 0.0 4.2L                   1
 Action:ARG 23-03-27 17:02 OP:OBSP STATUS:               ID:20230207030846     I
 STAT SP IPHASW D HRMM SECON CODA AMPLIT PERI AZIMU VELO AIN AR TRES W  DIS CAZ7
 CUAYAHZ EP   2A   047 20.24                                                    
 CUGURHZ EP   2A   047 10.34                                                    
 CUGURHE ES   2A   047 23.54                                                    
 CUGURHE  IAML A   047 23.54      1776.4 1.00                                   
 ELBS HZ EP   1A   047  3.11                                                    
 GZT  HZ IP   0A   047  0.09                                                    
 GZT  HE IS   0A   047  8.23                                                    
 GZT  HE  IAML A   047  8.23      3927.7 1.00                                   
 MGND HZ IP   0A   046 59.51                                                    
 NZIP HZ EP   2A   047  6.62                                                    
 NZIP HE ES   1A   047 19.06                                                    
 NZIP HE  IAML A   047 19.06       340.4 1.00                                   
                                                                                

 2023  2 7  342 12.5 L  37.444  37.168 12.7  PhN  9 0.0 3.4L                   1
 Action:ARG 23-03-27 17:02 OP:OBSP STATUS:               ID:20230207034212     I
 STAT SP IPHASW D HRMM SECON CODA AMPLIT PERI AZIMU VELO AIN AR TRES W  DIS CAZ7
 ANDN HE ES   3A   049 50.40                                                    
 ANDN HE  IAML A   049 50.40       223.7 1.00                                   
 CEYT HZ IP   0A   049 45.04                                                    
 GZT  HZ IP   1A   049 24.14                                                    
 GZT  HE IS   0A   049 28.59                                                    
 GZT  HE  IAML A   049 28.59       528.1 1.00                                   
 KMRS HE ES   3A   049 36.53                                                    
 KMRS HE  IAML A   049 36.53        29.5 1.00                                   
 MAYA HZ EP   2A   049 41.21                                                    
 MAYA HE IS   1A   049 57.62                                                    
 MAYA HE  IAML A   049 57.62       140.5 1.00                                   
 MGND HZ EP   3A   049 23.79                                                    
 NAR  HZ EP   2A   049 26.08                                                    
 NZIP HZ EP   3A   049 27.92                                                    
 RHAN HZ EP   2A   049 43.97                                                    
                                                                                

 2023  2 7  344  5.3 L  37.434  37.154  7.7  PhN  9 0.0 1.8L                   1
 Action:ARG 23-03-27 17:02 OP:OBSP STATUS:               ID:20230207034405     I
 STAT SP IPHASW D HRMM SECON CODA AMPLIT PERI AZIMU VELO AIN AR TRES W  DIS CAZ7
 CEYT HZ IP   0A   050 37.64                                                    
 ELBS HE IS   0A   050 35.24                                                    
 ELBS HE  IAML A   050 35.24       360.7 1.00                                   
 HASA HZ IP   0A   050 32.60                                                    
 KAHM HZ EP   2A   050 18.92                                                    
 KAHM HE ES   2A   050 21.63                                                    
 KAHM HE  IAML A   050 21.63       325.1 1.00                                   
 KEMA HZ IP   0A   050 45.86                                                    
 NAR  HE ES   1A   050 20.06                                                    
 NAR  HE  IAML A   050 20.06       625.6 1.00                                   
 NARI HZ IP   0A   050 30.97                                                    
 RHAN HE IS   1A   051  0.36                                                    
 RHAN HE  IAML A   051  0.36       164.3 1.00                                   
 SARI HE ES   2A   050 48.94                                                    
 SARI HE  IAML A   050 48.94       130.7 1.00                                   
                                                                                

 2023  2 7  345  0.8 L  37.370  37.312 10.4  PhN  6 0.0 2.1L                   1
 Action:ARG 23-03-27 17:02 OP:OBSP STATUS:               ID:20230207034500     I
 STAT SP IPHASW D HRMM SECON CODA AMPLIT PERI AZIMU VELO AIN AR TRES W  DIS CAZ7
 CUAYAHZ EP   2A   050 58.94                                                    
 CUGURHZ EP   2A   050 47.02                                                    
 KAHM HZ IP   0A   050 28.30                                                    
 MAYA HE ES   2A   051  4.73                                                    
 MAYA HE  IAML A   051  4.73       407.5 1.00                                   
 SANL HZ EP   1A   050 45.89                                                    
 URFA HZ IP   0A   050 42.08                                                    
                                                                                

 2023  2 7  345 22.5 L  37.475  37.169  3.3  PhN 14 0.0 2.8L                   1
 Action:ARG 23-03-27 17:02 OP:OBSP STATUS:               ID:20230207034522     I
 STAT SP IPHASW D HRMM SECON CODA AMPLIT PERI AZIMU VELO AIN AR TRES W  DIS CAZ7
 ANDN HZ EP   2A   051 54.42                                                    
 ATAB HZ IP   1A   051 57.03                                                    
 ATAB HE ES   3A   052  8.75                                                    
 ATAB HE  IAML A   052  8.75      1595.1 1.00                                   
 GAZ  HE ES   2A   051 53.82                                                    
 GAZ  HE  IAML A   051 53.82       205.5 1.00                                   
 GZT  HZ IP   1A   051 47.39                                                    
 GZT  HE IS   1A   051 51.23                                                    
 GZT  HE  IAML A   051 51.23      3913.1 1.00                                   
 HANM HZ EP   2A   052  5.42                                                    
 HASA HZ IP   1A   052  1.27                                                    
 HEKM HE ES   3A   052 28.23                                                    
 HEKM HE  IAML A   052 28.23       434.9 1.00                                   
 MAYA HE ES   3A   052 21.93                                                    
 MAYA HE  IAML A   052 21.93       147.2 1.00                                   
 MGND HZ EP   1A   051 43.76                                                    
 MGND HE ES   2A   051 46.71                                                    
 MGND HE  IAML A   051 46.71      4517.4 1.00                                   
 NAR  HZ IP   0A   051 44.37                                                    
 NAR  HE ES   3A   051 47.98                                                    
 NAR  HE  IAML A   051 47.98      2812.9 1.00                                   
 NARI HZ EP   3A   052  4.37                                                    
 NZIP HZ EP   2A   051 54.10                                                    
 NZIP HE IS   1A   052  1.11                                                    
 NZIP HE  IAML A   052  1.11       532.0 1.00                                   
 SAIM HZ EP   2A   051 59.56                                                    
 SANL HZ IP   0A   052  7.88                                                    
                                                                                

 2023  2 7  415 34.1 L  37.949  37.759  0.0  PhN  7 0.0 3.3L                   1
 Action:ARG 23-03-27 17:02 OP:OBSP STATUS:               ID:20230207041534     I
 STAT SP IPHASW D HRMM SECON CODA AMPLIT PERI AZIMU VELO AIN AR TRES W  DIS CAZ7
 ANDN HZ EP   1A   053 51.98                                                    
 BNN  HZ EP   3A   054 10.18                                                    
 GAZ  HZ EP   3A   053 49.31                                                    
 GZT  HE ES   2A   053 53.27                                                    
 GZT  HE  IAML A   053 53.27       924.9 1.00                                   
 KMRS HZ IP   1A   053 45.93                                                    
 MGND HZ EP   3A   053 44.95                                                    
 MGND HE ES   1A   053 50.93                                                    
 MGND HE  IAML A   053 50.93       587.7 1.00                                   
 SARI HZ IP   0A   053 59.00                                                    
                                                                                

 2023  2 7  421  8.2 L  37.516  37.185  9.6  PhN 16 0.0 2.7L                   1
 Action:ARG 23-03-27 17:02 OP:OBSP STATUS:               ID:20230207042108     I
 STAT SP IPHASW D HRMM SECON CODA AMPLIT PERI AZIMU VELO AIN AR TRES W  DIS CAZ7
 ATAB HZ IP   1A   055  5.72                                                    
 CUGURHE ES   3A   055 20.68                                                    
 CUGURHE  IAML A   055 20.68       560.0 1.00                                   
 DARE HZ EP   2A   055  3.42                                                    
 ELBS HE ES   3A   055  8.89                                                    
 ELBS HE  IAML A   055  8.89       557.1 1.00                                   
 GZT  HZ EP   3A   055  0.41                                                    
 GZT  HE IS   1A   055  7.54                                                    
 GZT  HE  IAML A   055  7.54       484.5 1.00                                   
 HANM HE ES   3A   055 31.25                                                    
 HANM HE  IAML A   055 31.25        99.5 1.00                                   
 HASA HE ES   1A   055 34.79                                                    
 HASA HE  IAML A   055 34.79       226.4 1.00                                   
 HEKM HE ES   2A   055 28.04                                                    
 HEKM HE  IAML A   055 28.04       387.9 1.00                                   
 KMRS HE ES   2A   055  8.62                                                    
 KMRS HE  IAML A   055  8.62        46.9 1.00                                   
 KUZU HE ES   2A   055 29.17                                                    
 KUZU HE  IAML A   055 29.17       647.9 1.00                                   
 MAYA HE IS   1A   055 20.13                                                    
 MAYA HE  IAML A   055 20.13       265.3 1.00                                   
 MGND HZ EP   1A   054 58.13                                                    
 MGND HE ES   1A   055  3.49                                                    
 MGND HE  IAML A   055  3.49       262.0 1.00                                   
 NAR  HE ES   3A   055  7.42                                                    
 NAR  HE  IAML A   055  7.42       643.8 1.00                                   
 NARI HE ES   2A   055 27.07                                                    
 NARI HE  IAML A   055 27.07        53.7 1.00                                   
 NZIP HZ EP   3A   055  7.26                                                    
 SANL HE ES   2A   055 37.40                                                    
 SANL HE  IAML A   055 37.40       160.7 1.00                                   
                                                                                

