 2023  2 7  050 11.5 L  37.609  37.426  0.0  PhN 17 0.0 3.5L                   1
 Action:ARG 23-03-27 17:02 OP:OBSP STATUS:               ID:20230207005011     I
 STAT SP IPHASW D HRMM SECON CODA AMPLIT PERI AZIMU VELO AIN AR TRES W  DIS CAZ7
 ANDN HZ IP   0A   0 8  5.21                                                    
 ATAB HZ IP   0A   0 8 17.63                                                    
 CUGURHZ EP   2A   0 8 25.42                                                    
 CUGURHE ES   3A   0 8 45.34                                                    
 CUGURHE  IAML A   0 8 45.34       878.2 1.00                                   
 ELBS HE ES   1A   0 8 32.66                                                    
 ELBS HE  IAML A   0 8 32.66       522.0 1.00                                   
 GAZ  HZ EP   2A   0 8  1.13                                                    
 GAZ  HE IS   1A   0 8  5.26                                                    
 GAZ  HE  IAML A   0 8  5.26       427.0 1.00                                   
 GZT  HZ EP   1A   0 8  7.59                                                    
 HASA HZ IP   1A   0 8  6.83                                                    
 HASA HE ES   2A   0 8 15.55                                                    
 HASA HE  IAML A   0 8 15.55       661.0 1.00                                   
 KAHM HZ IP   0A   0 8  0.71                                                    
 KAHM HE IS   0A   0 8  4.44                                                    
 KAHM HE  IAML A   0 8  4.44      1511.8 1.00                                   
 KUZU HZ IP   1A   0 8  5.61                                                    
 KUZU HE ES   2A   0 8 12.96                                                    
 KUZU HE  IAML A   0 8 12.96      1691.0 1.00                                   
 MGND HZ EP   2A   0 8  5.61                                                    
 MGND HE IS   1A   0 8 11.93                                                    
 MGND HE  IAML A   0 8 11.93       261.7 1.00                                   
 NAR  HZ IP   0A   0 8  0.95                                                    
 NAR  HE IS   0A   0 8  4.95                                                    
 NAR  HE  IAML A   0 8  4.95      1784.9 1.00                                   
 NARI HZ IP   0A   0 8 26.53                                                    
 NZIP HZ IP   1A   0 8  9.90                                                    
 RHAN HZ EP   1A   0 8 15.57                                                    
 RHAN HE ES   3A   0 8 29.79                                                    
 RHAN HE  IAML A   0 8 29.79       435.6 1.00                                   
 SAIM HZ EP   2A   0 8 14.66                                                    
 SANL HZ EP   2A   0 8 27.89                                                    
 SARI HE ES   3A   0 8 35.20                                                    
 SARI HE  IAML A   0 8 35.20       252.5 1.00                                   
                                                                                

 2023  2 7  050 21.2 L  37.295  37.361  0.0  PhN  6 0.0 3.9L                   1
 Action:ARG 23-03-27 17:02 OP:OBSP STATUS:               ID:20230207005021     I
 STAT SP IPHASW D HRMM SECON CODA AMPLIT PERI AZIMU VELO AIN AR TRES W  DIS CAZ7
 ANDN HZ EP   3A   0 8 31.30                                                    
 GAZ  HZ EP   2A   0 8 27.19                                                    
 GAZ  HE IS   0A   0 8 31.06                                                    
 GAZ  HE  IAML A   0 8 31.06       136.4 1.00                                   
 KAHM HZ IP   0A   0 8 24.19                                                    
 KAHM HE ES   1A   0 8 26.65                                                    
 KAHM HE  IAML A   0 8 26.65      1402.8 1.00                                   
 KMRS HZ IP   0A   0 8 24.37                                                    
 KMRS HE IS   0A   0 8 26.92                                                    
 KMRS HE  IAML A   0 8 26.92       197.5 1.00                                   
 MGND HE ES   2A   0 8 33.12                                                    
 MGND HE  IAML A   0 8 33.12       200.0 1.00                                   
 NAR  HZ IP   0A   0 8 24.49                                                    
 NAR  HE IS   0A   0 8 27.37                                                    
 NAR  HE  IAML A   0 8 27.37      3322.8 1.00                                   
                                                                                

 2023  2 7  051 41.5 L  37.545  37.247  0.0  PhN 10 0.0 3.2L                   1
 Action:ARG 23-03-27 17:02 OP:OBSP STATUS:               ID:20230207005141     I
 STAT SP IPHASW D HRMM SECON CODA AMPLIT PERI AZIMU VELO AIN AR TRES W  DIS CAZ7
 CUGURHE ES   2A   010 23.30                                                    
 CUGURHE  IAML A   010 23.30       851.5 1.00                                   
 ELZG HZ EP   2A   010 17.49                                                    
 GAZ  HE ES   3A   010  5.74                                                    
 GAZ  HE  IAML A   010  5.74       101.0 1.00                                   
 HEKM HZ EP   1A   010 12.17                                                    
 KEMA HZ EP   1A   010 21.60                                                    
 KMRS HE ES   3A   010  3.20                                                    
 KMRS HE  IAML A   010  3.20        76.4 1.00                                   
 MAYA HZ EP   2A   010  8.59                                                    
 MAYA HE ES   2A   010 25.45                                                    
 MAYA HE  IAML A   010 25.45       337.3 1.00                                   
 NAR  HZ EP   2A   0 9 55.40                                                    
 NARI HE ES   1A   010 27.27                                                    
 NARI HE  IAML A   010 27.27       114.9 1.00                                   
 NZIP HZ IP   1A   010  2.24                                                    
                                                                                

 2023  2 7  053 39.6 L  37.596  37.203 29.7  PhN 25 0.0 2.8L                   1
 Action:ARG 23-03-27 17:02 OP:OBSP STATUS:               ID:20230207005339     I
 STAT SP IPHASW D HRMM SECON CODA AMPLIT PERI AZIMU VELO AIN AR TRES W  DIS CAZ7
 ANDN HZ IP   1A   011 56.11                                                    
 ATAB HZ IP   1A   011 44.72                                                    
 ATAB HE ES   2A   011 52.40                                                    
 ATAB HE  IAML A   011 52.40      4319.2 1.00                                   
 CUAYAHZ EP   1A   012  5.20                                                    
 CUGURHZ EP   2A   011 52.77                                                    
 CUKANHZ EP   2A   012  2.28                                                    
 DARE HE ES   3A   012  0.48                                                    
 DARE HE  IAML A   012  0.48        93.6 1.00                                   
 ELBS HZ EP   1A   011 47.57                                                    
 ELBS HE ES   1A   011 57.75                                                    
 ELBS HE  IAML A   011 57.75      2824.0 1.00                                   
 ELZG HZ EP   2A   011 54.65                                                    
 GAZ  HZ IP   0A   011 51.17                                                    
 GAZ  HE ES   3A   012  2.61                                                    
 GAZ  HE  IAML A   012  2.61       263.5 1.00                                   
 GZT  HZ IP   0A   011 44.54                                                    
 GZT  HE IS   0A   011 52.03                                                    
 GZT  HE  IAML A   011 52.03      6111.9 1.00                                   
 HANM HZ EP   2A   011 50.79                                                    
 HANM HE ES   2A   012  3.10                                                    
 HANM HE  IAML A   012  3.10      1157.4 1.00                                   
 HASA HZ EP   2A   012  2.49                                                    
 HASA HE ES   2A   012 23.61                                                    
 HASA HE  IAML A   012 23.61       648.6 1.00                                   
 HEKM HE ES   3A   012  8.71                                                    
 HEKM HE  IAML A   012  8.71      1086.8 1.00                                   
 KAHM HZ IP   0A   011 47.86                                                    
 KAHM HE ES   2A   011 57.85                                                    
 KAHM HE  IAML A   011 57.85       817.2 1.00                                   
 KEMA HZ EP   3A   012  2.22                                                    
 KMRS HZ IP   0A   011 49.06                                                    
 KMRS HE ES   2A   012  0.11                                                    
 KMRS HE  IAML A   012  0.11       125.3 1.00                                   
 KUZU HZ EP   1A   011 57.71                                                    
 MAYA HZ IP   0A   011 47.40                                                    
 MAYA HE IS   1A   011 55.89                                                    
 MAYA HE  IAML A   011 55.89       618.9 1.00                                   
 MGND HZ IP   0A   011 43.80                                                    
 MGND HE ES   1A   011 50.80                                                    
 MGND HE  IAML A   011 50.80      1570.4 1.00                                   
 NAR  HZ EP   2A   011 47.47                                                    
 NAR  HE ES   3A   011 57.14                                                    
 NAR  HE  IAML A   011 57.14      1639.1 1.00                                   
 NARI HZ IP   0A   011 48.27                                                    
 NARI HE ES   2A   011 59.10                                                    
 NARI HE  IAML A   011 59.10       353.0 1.00                                   
 NZIP HZ IP   0A   011 49.90                                                    
 RHAN HE ES   3A   012 34.41                                                    
 RHAN HE  IAML A   012 34.41       286.2 1.00                                   
 SANL HZ IP   0A   011 55.67                                                    
 SANL HE ES   2A   012 11.88                                                    
 SANL HE  IAML A   012 11.88      1513.7 1.00                                   
 SARI HZ EP   2A   011 58.30                                                    
                                                                                

 2023  2 7  054 51.6 L  37.856  37.430  0.0  PhN 23 0.0 2.9L                   1
 Action:ARG 23-03-27 17:02 OP:OBSP STATUS:               ID:20230207005451     I
 STAT SP IPHASW D HRMM SECON CODA AMPLIT PERI AZIMU VELO AIN AR TRES W  DIS CAZ7
 ANDN HZ EP   2A   012 29.16                                                    
 ANDN HE ES   3A   012 36.99                                                    
 ANDN HE  IAML A   012 36.99      4062.0 1.00                                   
 ATAB HZ EP   2A   012 47.33                                                    
 BNN  HE ES   3A   012 51.30                                                    
 BNN  HE  IAML A   012 51.30       274.8 1.00                                   
 CUAYAHZ EP   2A   012 43.00                                                    
 CUGURHZ EP   3A   012 35.58                                                    
 CUGURHE ES   3A   012 48.58                                                    
 CUGURHE  IAML A   012 48.58      4990.0 1.00                                   
 CUKANHZ IP   0A   012 47.58                                                    
 DARE HE ES   2A   012 47.88                                                    
 DARE HE  IAML A   012 47.88       165.7 1.00                                   
 ELBS HZ IP   1A   012 28.53                                                    
 ELBS HE IS   1A   012 36.56                                                    
 ELBS HE  IAML A   012 36.56      2722.0 1.00                                   
 GAZ  HZ EP   2A   012 39.15                                                    
 GZT  HZ IP   0A   012 40.27                                                    
 HANM HZ IP   1A   012 54.71                                                    
 HEKM HZ EP   1A   012 44.65                                                    
 KAHM HZ IP   0A   012 31.35                                                    
 KAHM HE IS   1A   012 39.97                                                    
 KAHM HE  IAML A   012 39.97      3156.9 1.00                                   
 KEMA HZ EP   3A   012 54.68                                                    
 KMRS HZ IP   1A   012 31.00                                                    
 KMRS HE IS   1A   012 39.34                                                    
 KMRS HE  IAML A   012 39.34      3576.4 1.00                                   
 KUZU HE ES   2A   013  2.72                                                    
 KUZU HE  IAML A   013  2.72      4739.0 1.00                                   
 MAYA HE IS   1A   013  6.36                                                    
 MAYA HE  IAML A   013  6.36       945.9 1.00                                   
 MGND HZ EP   1A   012 37.13                                                    
 NAR  HZ EP   1A   012 34.88                                                    
 NAR  HE ES   2A   012 45.58                                                    
 NAR  HE  IAML A   012 45.58      1841.7 1.00                                   
 NARI HE ES   3A   013 16.53                                                    
 NARI HE  IAML A   013 16.53       129.4 1.00                                   
 NZIP HZ IP   0A   012 45.52                                                    
 SANL HZ EP   1A   012 58.13                                                    
 SANL HE ES   3A   013 28.11                                                    
 SANL HE  IAML A   013 28.11       524.3 1.00                                   
 SARI HZ IP   0A   012 26.54                                                    
 SARI HE IS   1A   012 32.32                                                    
 SARI HE  IAML A   012 32.32      1352.2 1.00                                   
                                                                                

 2023  2 7  055 33.6 L  38.013  37.530 23.8  PhN 17 0.0 3.8L                   1
 Action:ARG 23-03-27 17:02 OP:OBSP STATUS:               ID:20230207005533     I
 STAT SP IPHASW D HRMM SECON CODA AMPLIT PERI AZIMU VELO AIN AR TRES W  DIS CAZ7
 ANDN HE IS   1A   013 37.88                                                    
 ANDN HE  IAML A   013 37.88       702.0 1.00                                   
 ATAB HZ IP   0A   013 37.95                                                    
 ATAB HE ES   3A   013 52.55                                                    
 ATAB HE  IAML A   013 52.55       888.8 1.00                                   
 CEYT HZ EP   2A   013 35.89                                                    
 CUGURHE ES   3A   014  8.88                                                    
 CUGURHE  IAML A   014  8.88       553.4 1.00                                   
 DARE HZ IP   0A   013 44.97                                                    
 DARE HE ES   2A   014  4.63                                                    
 DARE HE  IAML A   014  4.63        30.8 1.00                                   
 ELBS HE ES   2A   013 56.34                                                    
 ELBS HE  IAML A   013 56.34       348.2 1.00                                   
 GAZ  HZ EP   2A   013 20.45                                                    
 GAZ  HE IS   0A   013 23.71                                                    
 GAZ  HE  IAML A   013 23.71       506.0 1.00                                   
 GZT  HZ EP   2A   013 27.31                                                    
 GZT  HE IS   1A   013 33.91                                                    
 GZT  HE  IAML A   013 33.91       703.8 1.00                                   
 HASA HZ EP   2A   013 27.27                                                    
 HASA HE ES   2A   013 34.17                                                    
 HASA HE  IAML A   013 34.17       448.8 1.00                                   
 KAHM HZ EP   3A   013 23.24                                                    
 KAHM HE ES   2A   013 28.20                                                    
 KAHM HE  IAML A   013 28.20      1174.8 1.00                                   
 KMRS HZ EP   1A   013 23.53                                                    
 KMRS HE ES   1A   013 28.13                                                    
 KMRS HE  IAML A   013 28.13       156.4 1.00                                   
 KUZU HZ EP   2A   013 24.55                                                    
 KUZU HE IS   1A   013 30.49                                                    
 KUZU HE  IAML A   013 30.49      1689.6 1.00                                   
 MGND HZ EP   1A   013 26.09                                                    
 MGND HE ES   2A   013 32.97                                                    
 MGND HE  IAML A   013 32.97       221.2 1.00                                   
 NAR  HZ EP   2A   013 22.60                                                    
 NAR  HE ES   1A   013 26.38                                                    
 NAR  HE  IAML A   013 26.38      1452.3 1.00                                   
 NARI HZ EP   2A   013 46.91                                                    
 NZIP HE ES   1A   013 35.60                                                    
 NZIP HE  IAML A   013 35.60       247.2 1.00                                   
 URFA HE ES   3A   014  7.27                                                    
 URFA HE  IAML A   014  7.27        59.0 1.00                                   
                                                                                

