 2023  2 7  211 57.7 L  37.667  37.096  0.0  PhN  6 0.0 3.2L                   1
 Action:ARG 23-03-27 17:02 OP:OBSP STATUS:               ID:20230207021157     I
 STAT SP IPHASW D HRMM SECON CODA AMPLIT PERI AZIMU VELO AIN AR TRES W  DIS CAZ7
 ELBS HZ EP   2A   035 39.49                                                    
 HANM HE IS   0A   036  3.47                                                    
 HANM HE  IAML A   036  3.47        69.7 1.00                                   
 KUZU HZ IP   0A   035 37.07                                                    
 MAYA HZ IP   0A   035 46.87                                                    
 NAR  HZ IP   0A   035 28.14                                                    
 NAR  HE ES   1A   035 30.12                                                    
 NAR  HE  IAML A   035 30.12      1209.3 1.00                                   
 SAIM HZ IP   0A   035 46.01                                                    
                                                                                

 2023  2 7  212 18.9 L  37.790  37.655  0.0  PhN  7 0.0 4.0L                   1
 Action:ARG 23-03-27 17:02 OP:OBSP STATUS:               ID:20230207021218     I
 STAT SP IPHASW D HRMM SECON CODA AMPLIT PERI AZIMU VELO AIN AR TRES W  DIS CAZ7
 DARE HZ EP   3A   035 46.89                                                    
 GZT  HE ES   2A   035 43.20                                                    
 GZT  HE  IAML A   035 43.20       207.4 1.00                                   
 HANM HZ IP   0A   035 54.47                                                    
 HASA HE ES   3A   036  8.33                                                    
 HASA HE  IAML A   036  8.33       110.0 1.00                                   
 KAHM HZ EP   3A   035 37.08                                                    
 KMRS HZ EP   1A   035 38.35                                                    
 KMRS HE IS   1A   035 42.76                                                    
 KMRS HE  IAML A   035 42.76        31.5 1.00                                   
 MGND HZ IP   0A   035 35.74                                                    
 MGND HE IS   1A   035 38.65                                                    
 MGND HE  IAML A   035 38.65       220.6 1.00                                   
                                                                                

 2023  2 7  212 48.6 L  38.126  36.614 15.4  PhN  7 0.0 3.6L                   1
 Action:ARG 23-03-27 17:02 OP:OBSP STATUS:               ID:20230207021248     I
 STAT SP IPHASW D HRMM SECON CODA AMPLIT PERI AZIMU VELO AIN AR TRES W  DIS CAZ7
 ANDN HE ES   3A   036  1.40                                                    
 ANDN HE  IAML A   036  1.40       177.4 1.00                                   
 CEYT HZ EP   1A   036  0.48                                                    
 KAHM HE ES   1A   035 46.57                                                    
 KAHM HE  IAML A   035 46.57      1159.1 1.00                                   
 NAR  HZ EP   3A   035 39.10                                                    
 NAR  HE ES   3A   035 40.38                                                    
 NAR  HE  IAML A   035 40.38       674.9 1.00                                   
 NZIP HZ EP   3A   035 45.26                                                    
 NZIP HE IS   1A   035 50.64                                                    
 NZIP HE  IAML A   035 50.64        60.8 1.00                                   
 SANL HZ EP   2A   036  3.24                                                    
 URFA HZ IP   0A   035 59.75                                                    
                                                                                

 2023  2 7  214 18.1 L  37.667  37.225 31.0  PhN  7 0.0 3.2L                   1
 Action:ARG 23-03-27 17:02 OP:OBSP STATUS:               ID:20230207021418     I
 STAT SP IPHASW D HRMM SECON CODA AMPLIT PERI AZIMU VELO AIN AR TRES W  DIS CAZ7
 ELZG HZ EP   2A   037  5.13                                                    
 HASA HZ EP   1A   036 54.11                                                    
 KAHM HZ IP   0A   036 41.55                                                    
 KMRS HZ IP   0A   036 41.11                                                    
 MAYA HZ IP   0A   036 58.35                                                    
 RHAN HE ES   1A   037 23.28                                                    
 RHAN HE  IAML A   037 23.28       209.4 1.00                                   
 SARI HE IS   0A   037 10.79                                                    
 SARI HE  IAML A   037 10.79       518.8 1.00                                   
                                                                                

 2023  2 7  215 43.5 L  37.506  37.294  0.0  PhN 10 0.0 2.1L                   1
 Action:ARG 23-03-27 17:02 OP:OBSP STATUS:               ID:20230207021543     I
 STAT SP IPHASW D HRMM SECON CODA AMPLIT PERI AZIMU VELO AIN AR TRES W  DIS CAZ7
 ATAB HZ EP   3A   036 57.69                                                    
 GAZ  HE IS   1A   036 54.67                                                    
 GAZ  HE  IAML A   036 54.67       564.8 1.00                                   
 HANM HZ IP   0A   037  4.87                                                    
 KAHM HE IS   1A   036 50.09                                                    
 KAHM HE  IAML A   036 50.09      2494.3 1.00                                   
 KMRS HE IS   1A   036 49.45                                                    
 KMRS HE  IAML A   036 49.45      1632.3 1.00                                   
 KUZU HZ EP   3A   036 55.66                                                    
 MGND HZ EP   1A   036 46.73                                                    
 MGND HE ES   3A   036 48.56                                                    
 MGND HE  IAML A   036 48.56       368.5 1.00                                   
 NAR  HZ IP   0A   036 45.15                                                    
 NZIP HZ EP   2A   036 54.26                                                    
 SANL HZ IP   1A   037  8.45                                                    
 SANL HE ES   2A   037 27.45                                                    
 SANL HE  IAML A   037 27.45       386.5 1.00                                   
                                                                                

 2023  2 7  216 10.2 L  37.351  36.880  0.0  PhN  7 0.0 2.8L                   1
 Action:ARG 23-03-27 17:02 OP:OBSP STATUS:               ID:20230207021610     I
 STAT SP IPHASW D HRMM SECON CODA AMPLIT PERI AZIMU VELO AIN AR TRES W  DIS CAZ7
 GAZ  HZ IP   0A   036 51.56                                                    
 GZT  HZ IP   0A   036 50.49                                                    
 KAHM HE ES   2A   036 56.29                                                    
 KAHM HE  IAML A   036 56.29      1477.8 1.00                                   
 NAR  HE ES   3A   036 54.04                                                    
 NAR  HE  IAML A   036 54.04      2954.8 1.00                                   
 NZIP HZ EP   1A   036 55.62                                                    
 SARI HZ EP   2A   037  6.04                                                    
 URFA HZ EP   2A   037  7.57                                                    
 URFA HE ES   3A   037 23.61                                                    
 URFA HE  IAML A   037 23.61       138.8 1.00                                   
                                                                                

 2023  2 7  218 53.3 L  38.027  36.586  0.0  PhN  6 0.0 3.5L                   1
 Action:ARG 23-03-27 17:02 OP:OBSP STATUS:               ID:20230207021853     I
 STAT SP IPHASW D HRMM SECON CODA AMPLIT PERI AZIMU VELO AIN AR TRES W  DIS CAZ7
 CUGURHZ EP   2A   038 37.50                                                    
 DARE HZ EP   2A   038 33.58                                                    
 HASA HZ EP   2A   038 27.66                                                    
 KUZU HZ EP   2A   038 24.03                                                    
 NAR  HE IS   1A   038 14.19                                                    
 NAR  HE  IAML A   038 14.19       959.6 1.00                                   
 SANL HZ EP   3A   038 36.27                                                    
                                                                                

 2023  2 7  220 22.5 L  37.395  37.153  6.3  PhN 17 0.0 2.5L                   1
 Action:ARG 23-03-27 17:02 OP:OBSP STATUS:               ID:20230207022022     I
 STAT SP IPHASW D HRMM SECON CODA AMPLIT PERI AZIMU VELO AIN AR TRES W  DIS CAZ7
 ANDN HZ EP   1A   040 19.64                                                    
 BNN  HZ IP   0A   040 25.78                                                    
 BNN  HE ES   2A   040 39.12                                                    
 BNN  HE  IAML A   040 39.12       428.9 1.00                                   
 CEYT HZ EP   1A   040 34.36                                                    
 CUAYAHZ EP   1A   040 29.58                                                    
 CUAYAHE ES   2A   040 46.16                                                    
 CUAYAHE  IAML A   040 46.16      1834.7 1.00                                   
 CUGURHZ IP   1A   040 22.86                                                    
 CUGURHE ES   3A   040 34.96                                                    
 CUGURHE  IAML A   040 34.96      8644.8 1.00                                   
 CUKANHZ EP   2A   040 34.23                                                    
 DARE HE ES   3A   040 35.10                                                    
 DARE HE  IAML A   040 35.10       383.1 1.00                                   
 ELBS HZ IP   0A   040 16.92                                                    
 ELBS HE ES   2A   040 23.58                                                    
 ELBS HE  IAML A   040 23.58      6819.1 1.00                                   
 GAZ  HZ EP   1A   040 28.91                                                    
 GZT  HZ IP   1A   040 29.99                                                    
 HASA HZ IP   0A   040 34.41                                                    
 KAHM HZ IP   1A   040 21.63                                                    
 KAHM HE IS   1A   040 31.12                                                    
 KAHM HE  IAML A   040 31.12      4749.3 1.00                                   
 KMRS HZ IP   0A   040 21.29                                                    
 KMRS HE ES   1A   040 30.43                                                    
 KMRS HE  IAML A   040 30.43      1186.6 1.00                                   
 NAR  HZ IP   1A   040 25.08                                                    
 NAR  HE ES   3A   040 36.99                                                    
 NAR  HE  IAML A   040 36.99      1940.5 1.00                                   
 NZIP HZ EP   3A   040 33.98                                                    
 NZIP HE ES   3A   040 53.82                                                    
 NZIP HE  IAML A   040 53.82       586.4 1.00                                   
 SANL HZ IP   1A   040 47.85                                                    
 SARI HZ IP   0A   040 14.78                                                    
 SARI HE IS   0A   040 19.80                                                    
 SARI HE  IAML A   040 19.80      3604.4 1.00                                   
                                                                                

 2023  2 7  220 59.2 L  37.572  37.084 21.7  PhN 11 0.0 2.2L                   1
 Action:ARG 23-03-27 17:02 OP:OBSP STATUS:               ID:20230207022059     I
 STAT SP IPHASW D HRMM SECON CODA AMPLIT PERI AZIMU VELO AIN AR TRES W  DIS CAZ7
 ANDN HZ EP   3A   041 37.22                                                    
 ANDN HE ES   2A   041 44.90                                                    
 ANDN HE  IAML A   041 44.90       301.1 1.00                                   
 ATAB HZ EP   1A   041 42.32                                                    
 DARE HZ EP   3A   041 47.32                                                    
 ELBS HZ EP   2A   041 41.74                                                    
 GAZ  HZ IP   0A   041 29.15                                                    
 GAZ  HE ES   1A   041 33.02                                                    
 GAZ  HE  IAML A   041 33.02       206.3 1.00                                   
 GZT  HE ES   1A   041 35.18                                                    
 GZT  HE  IAML A   041 35.18       951.7 1.00                                   
 KAHM HZ IP   0A   041 26.52                                                    
 KAHM HE IS   1A   041 28.93                                                    
 KAHM HE  IAML A   041 28.93      1976.3 1.00                                   
 KUZU HE ES   2A   041 46.00                                                    
 KUZU HE  IAML A   041 46.00      1043.4 1.00                                   
 MGND HZ IP   0A   041 28.43                                                    
 MGND HE IS   1A   041 31.72                                                    
 MGND HE  IAML A   041 31.72       501.6 1.00                                   
 NAR  HZ IP   0A   041 25.17                                                    
 NAR  HE ES   1A   041 26.68                                                    
 NAR  HE  IAML A   041 26.68     39572.9 1.00                                   
 SAIM HZ EP   1A   041 42.30                                                    
                                                                                

 2023  2 7  235 25.8 L  38.051  37.665 31.0  PhN  8 0.0 3.6L                   1
 Action:ARG 23-03-27 17:02 OP:OBSP STATUS:               ID:20230207023525     I
 STAT SP IPHASW D HRMM SECON CODA AMPLIT PERI AZIMU VELO AIN AR TRES W  DIS CAZ7
 ANDN HZ EP   2A   044 25.92                                                    
 ELBS HE ES   2A   044 38.15                                                    
 ELBS HE  IAML A   044 38.15       660.6 1.00                                   
 GZT  HZ IP   0A   044 15.35                                                    
 KAHM HZ IP   0A   044 17.63                                                    
 KAHM HE ES   2A   044 25.13                                                    
 KAHM HE  IAML A   044 25.13       326.8 1.00                                   
 KMRS HZ IP   0A   044 18.92                                                    
 MGND HZ IP   0A   044 13.86                                                    
 SARI HZ EP   2A   044 30.42                                                    
 URFA HZ EP   1A   044 28.56                                                    
 URFA HE ES   1A   044 44.48                                                    
 URFA HE  IAML A   044 44.48       212.1 1.00                                   
                                                                                

 2023  2 7  237 24.9 L  37.703  37.230 31.0  PhN 10 0.0 3.3L                   1
 Action:ARG 23-03-27 17:02 OP:OBSP STATUS:               ID:20230207023724     I
 STAT SP IPHASW D HRMM SECON CODA AMPLIT PERI AZIMU VELO AIN AR TRES W  DIS CAZ7
 ATAB HE ES   1A   045 10.92                                                    
 ATAB HE  IAML A   045 10.92      1015.1 1.00                                   
 ELZG HZ EP   2A   045 15.52                                                    
 GAZ  HZ IP   0A   044 46.13                                                    
 GAZ  HE ES   1A   044 49.87                                                    
 GAZ  HE  IAML A   044 49.87       133.8 1.00                                   
 GZT  HZ IP   0A   044 46.44                                                    
 GZT  HE ES   1A   044 50.34                                                    
 GZT  HE  IAML A   044 50.34       767.7 1.00                                   
 HANM HE ES   2A   045 25.37                                                    
 HANM HE  IAML A   045 25.37       151.2 1.00                                   
 HASA HZ IP   0A   044 57.69                                                    
 KAHM HZ IP   0A   044 44.19                                                    
 KAHM HE IS   1A   044 46.93                                                    
 KAHM HE  IAML A   044 46.93      1069.6 1.00                                   
 MGND HZ IP   0A   044 44.07                                                    
 MGND HE IS   0A   044 46.74                                                    
 MGND HE  IAML A   044 46.74       890.9 1.00                                   
 NAR  HZ IP   0A   044 42.12                                                    
 NAR  HE IS   1A   044 43.98                                                    
 NAR  HE  IAML A   044 43.98      5479.5 1.00                                   
 RHAN HZ EP   3A   045  3.02                                                    
                                                                                

