 2023  2 7  133 57.4 L  37.979  37.559 24.3  PhN 15 0.0 4.2L                   1
 Action:ARG 23-03-27 17:02 OP:OBSP STATUS:               ID:20230207013357     I
 STAT SP IPHASW D HRMM SECON CODA AMPLIT PERI AZIMU VELO AIN AR TRES W  DIS CAZ7
 ANDN HZ EP   2A   021 27.12                                                    
 ATAB HZ EP   2A   021 17.93                                                    
 ATAB HE IS   1A   021 26.08                                                    
 ATAB HE  IAML A   021 26.08      2880.4 1.00                                   
 DARE HE ES   1A   021 32.53                                                    
 DARE HE  IAML A   021 32.53       249.7 1.00                                   
 GZT  HZ IP   0A   021 15.17                                                    
 GZT  HE IS   1A   021 21.87                                                    
 GZT  HE  IAML A   021 21.87      3623.6 1.00                                   
 HANM HZ EP   3A   021 26.11                                                    
 HEKM HZ IP   1A   021 26.72                                                    
 HEKM HE ES   2A   021 43.00                                                    
 HEKM HE  IAML A   021 43.00      3024.4 1.00                                   
 KAHM HZ EP   1A   021 17.93                                                    
 KAHM HE ES   2A   021 26.58                                                    
 KAHM HE  IAML A   021 26.58      1366.4 1.00                                   
 KMRS HZ IP   1A   021 19.33                                                    
 KMRS HE ES   2A   021 28.75                                                    
 KMRS HE  IAML A   021 28.75       611.6 1.00                                   
 KUZU HZ IP   0A   021 29.05                                                    
 MAYA HE ES   3A   021 32.25                                                    
 MAYA HE  IAML A   021 32.25      1389.4 1.00                                   
 MGND HZ IP   0A   021 13.84                                                    
 MGND HE ES   1A   021 19.71                                                    
 MGND HE  IAML A   021 19.71      1276.1 1.00                                   
 NAR  HZ EP   3A   021 18.00                                                    
 NAR  HE ES   3A   021 25.92                                                    
 NAR  HE  IAML A   021 25.92      1503.6 1.00                                   
 NARI HZ IP   0A   021 22.66                                                    
 NARI HE ES   2A   021 34.15                                                    
 NARI HE  IAML A   021 34.15      1053.7 1.00                                   
 NZIP HZ IP   1A   021 21.24                                                    
 SANL HZ EP   2A   021 29.36                                                    
 SANL HE IS   1A   021 45.57                                                    
 SANL HE  IAML A   021 45.57      3033.4 1.00                                   
                                                                                

 2023  2 7  140 44.3 L  37.495  37.286  7.5  PhN  7 0.0 2.4L                   1
 Action:ARG 23-03-27 17:02 OP:OBSP STATUS:               ID:20230207014044     I
 STAT SP IPHASW D HRMM SECON CODA AMPLIT PERI AZIMU VELO AIN AR TRES W  DIS CAZ7
 BNN  HZ IP   0A   024  3.57                                                    
 CUKANHZ EP   3A   024  6.92                                                    
 DARE HZ IP   0A   023 53.96                                                    
 GZT  HE IS   0A   023 39.80                                                    
 GZT  HE  IAML A   023 39.80       533.4 1.00                                   
 HANM HZ EP   2A   023 55.02                                                    
 KAHM HZ EP   3A   023 35.53                                                    
 KAHM HE ES   2A   023 36.95                                                    
 KAHM HE  IAML A   023 36.95       561.0 1.00                                   
 SARI HZ IP   0A   023 52.77                                                    
                                                                                

 2023  2 7  140 51.3 L  37.659  37.489  0.0  PhN  5 0.0 2.8L                   1
 Action:ARG 23-03-27 17:02 OP:OBSP STATUS:               ID:20230207014051     I
 STAT SP IPHASW D HRMM SECON CODA AMPLIT PERI AZIMU VELO AIN AR TRES W  DIS CAZ7
 ANDN HZ EP   2A   023 55.20                                                    
 ANDN HE ES   2A   024  3.90                                                    
 ANDN HE  IAML A   024  3.90      9582.9 1.00                                   
 CEYT HZ EP   2A   024 10.13                                                    
 CEYT HE ES   3A   024 28.21                                                    
 CEYT HE  IAML A   024 28.21       299.2 1.00                                   
 ELBS HZ IP   0A   023 54.69                                                    
 ELBS HE ES   2A   024  2.85                                                    
 ELBS HE  IAML A   024  2.85      5153.6 1.00                                   
 MGND HZ EP   1A   023 52.60                                                    
 RHAN HZ EP   2A   024 15.09                                                    
                                                                                

 2023  2 7  146  9.1 L  37.393  36.998 24.5  PhN 20 0.0 2.9L                   1
 Action:ARG 23-03-27 17:02 OP:OBSP STATUS:               ID:20230207014609     I
 STAT SP IPHASW D HRMM SECON CODA AMPLIT PERI AZIMU VELO AIN AR TRES W  DIS CAZ7
 ANDN HE ES   2A   026 42.52                                                    
 ANDN HE  IAML A   026 42.52      2504.5 1.00                                   
 ATAB HZ IP   1A   026 47.09                                                    
 ATAB HE ES   2A   027  8.47                                                    
 ATAB HE  IAML A   027  8.47      3253.7 1.00                                   
 CUAYAHZ EP   3A   026 42.31                                                    
 CUAYAHE ES   3A   026 58.56                                                    
 CUAYAHE  IAML A   026 58.56      1673.1 1.00                                   
 CUGURHZ EP   2A   026 34.78                                                    
 CUGURHE ES   1A   026 45.93                                                    
 CUGURHE  IAML A   026 45.93     14334.4 1.00                                   
 CUKANHE ES   1A   027  3.96                                                    
 CUKANHE  IAML A   027  3.96      1498.2 1.00                                   
 DARE HZ EP   2A   026 35.18                                                    
 DARE HE ES   2A   026 45.92                                                    
 DARE HE  IAML A   026 45.92       676.7 1.00                                   
 ELBS HZ IP   0A   026 28.36                                                    
 ELBS HE IS   0A   026 34.42                                                    
 ELBS HE  IAML A   026 34.42     11795.6 1.00                                   
 GAZ  HZ EP   2A   026 41.67                                                    
 GAZ  HE ES   2A   026 56.73                                                    
 GAZ  HE  IAML A   026 56.73       437.4 1.00                                   
 GZT  HZ IP   0A   026 42.05                                                    
 HASA HE ES   3A   027  5.72                                                    
 HASA HE  IAML A   027  5.72       994.4 1.00                                   
 HEKM HZ EP   1A   026 43.81                                                    
 HEKM HE ES   3A   027  1.61                                                    
 HEKM HE  IAML A   027  1.61      3529.1 1.00                                   
 KAHM HZ EP   2A   026 33.91                                                    
 KMRS HZ IP   0A   026 33.77                                                    
 KMRS HE ES   2A   026 42.69                                                    
 KMRS HE  IAML A   026 42.69       885.7 1.00                                   
 KUZU HE ES   2A   027  5.68                                                    
 KUZU HE  IAML A   027  5.68      3688.6 1.00                                   
 NARI HZ EP   3A   026 50.66                                                    
 NARI HE ES   2A   027 15.40                                                    
 NARI HE  IAML A   027 15.40       241.4 1.00                                   
 NZIP HE ES   3A   027  5.66                                                    
 NZIP HE  IAML A   027  5.66       455.9 1.00                                   
 SAIM HZ IP   0A   026 30.61                                                    
 SAIM HE IS   1A   026 38.01                                                    
 SAIM HE  IAML A   026 38.01     16479.8 1.00                                   
 SANL HZ IP   0A   026 59.69                                                    
 SARI HZ IP   0A   026 27.81                                                    
 SARI HE ES   1A   026 33.65                                                    
 SARI HE  IAML A   026 33.65      1514.4 1.00                                   
 URFA HZ IP   1A   026 55.52                                                    
                                                                                

 2023  2 7  147  7.3 L  38.065  37.070 31.0  PhN  5 0.0 3.3L                   1
 Action:ARG 23-03-27 17:02 OP:OBSP STATUS:               ID:20230207014707     I
 STAT SP IPHASW D HRMM SECON CODA AMPLIT PERI AZIMU VELO AIN AR TRES W  DIS CAZ7
 KAHM HZ EP   2A   027 46.39                                                    
 KAHM HE ES   2A   027 48.81                                                    
 KAHM HE  IAML A   027 48.81       388.6 1.00                                   
 KMRS HZ EP   2A   027 45.64                                                    
 KMRS HE ES   3A   027 51.01                                                    
 KMRS HE  IAML A   027 51.01        58.7 1.00                                   
 MGND HZ EP   2A   027 49.71                                                    
 NAR  HZ IP   0A   027 47.69                                                    
 NZIP HZ EP   3A   027 57.55                                                    
                                                                                

 2023  2 7  148  2.6 L  37.681  37.318  0.0  PhN 20 0.0 2.6L                   1
 Action:ARG 23-03-27 17:02 OP:OBSP STATUS:               ID:20230207014802     I
 STAT SP IPHASW D HRMM SECON CODA AMPLIT PERI AZIMU VELO AIN AR TRES W  DIS CAZ7
 ANDN HZ IP   1A   029 27.36                                                    
 ATAB HZ IP   0A   029 32.16                                                    
 BNN  HZ IP   1A   029 45.06                                                    
 CUAYAHZ EP   3A   029 47.46                                                    
 CUGURHZ EP   1A   029 37.50                                                    
 CUKANHZ IP   1A   029 47.00                                                    
 DARE HZ EP   1A   029 35.18                                                    
 ELBS HZ IP   1A   029 30.02                                                    
 ELBS HE ES   3A   029 41.54                                                    
 ELBS HE  IAML A   029 41.54      2951.6 1.00                                   
 GAZ  HZ IP   0A   029 21.85                                                    
 GAZ  HE IS   0A   029 27.54                                                    
 GAZ  HE  IAML A   029 27.54      1974.8 1.00                                   
 GZT  HZ IP   0A   029 21.74                                                    
 GZT  HE IS   1A   029 26.79                                                    
 GZT  HE  IAML A   029 26.79     23518.1 1.00                                   
 HANM HZ IP   0A   029 38.65                                                    
 HEKM HZ EP   2A   029 42.33                                                    
 KAHM HZ IP   0A   029 18.11                                                    
 KAHM HE IS   0A   029 20.65                                                    
 KAHM HE  IAML A   029 20.65     27324.1 1.00                                   
 KMRS HZ IP   0A   029 19.28                                                    
 KMRS HE IS   0A   029 22.72                                                    
 KMRS HE  IAML A   029 22.72      1724.0 1.00                                   
 KUZU HZ EP   1A   029 29.76                                                    
 MGND HZ IP   0A   029 18.96                                                    
 MGND HE IS   1A   029 22.21                                                    
 MGND HE  IAML A   029 22.21     10526.7 1.00                                   
 NAR  HZ IP   0A   029 18.02                                                    
 NAR  HE IS   1A   029 21.12                                                    
 NAR  HE  IAML A   029 21.12     23399.0 1.00                                   
 NARI HZ IP   0A   029 38.22                                                    
 NZIP HZ IP   1A   029 27.03                                                    
 NZIP HE IS   1A   029 35.79                                                    
 NZIP HE  IAML A   029 35.79      2297.9 1.00                                   
 SAIM HZ IP   1A   029 33.22                                                    
                                                                                

 2023  2 7  2 0 38.3 L  37.272  36.960  0.0  PhN  9 0.0 2.5L                   1
 Action:ARG 23-03-27 17:02 OP:OBSP STATUS:               ID:20230207020038     I
 STAT SP IPHASW D HRMM SECON CODA AMPLIT PERI AZIMU VELO AIN AR TRES W  DIS CAZ7
 ELBS HZ EP   1A   031 59.06                                                    
 GZT  HZ EP   1A   031 54.17                                                    
 GZT  HE IS   0A   031 57.75                                                    
 GZT  HE  IAML A   031 57.75       301.4 1.00                                   
 HEKM HE ES   3A   032 34.33                                                    
 HEKM HE  IAML A   032 34.33       200.0 1.00                                   
 KAHM HZ IP   0A   031 47.85                                                    
 KAHM HE IS   0A   031 50.06                                                    
 KAHM HE  IAML A   031 50.06      1080.0 1.00                                   
 MAYA HE IS   1A   032 27.66                                                    
 MAYA HE  IAML A   032 27.66       120.9 1.00                                   
 MGND HZ IP   0A   031 49.96                                                    
 MGND HE IS   0A   031 53.64                                                    
 MGND HE  IAML A   031 53.64       212.1 1.00                                   
 NAR  HZ IP   1A   031 48.03                                                    
 NAR  HE IS   0A   031 50.61                                                    
 NAR  HE  IAML A   031 50.61      1295.4 1.00                                   
 NZIP HZ EP   2A   031 58.46                                                    
 URFA HZ EP   3A   032 11.83                                                    
                                                                                

 2023  2 7  2 2  6.2 L  37.426  37.147  0.0  PhN  6 0.0 2.5L                   1
 Action:ARG 23-03-27 17:02 OP:OBSP STATUS:               ID:20230207020206     I
 STAT SP IPHASW D HRMM SECON CODA AMPLIT PERI AZIMU VELO AIN AR TRES W  DIS CAZ7
 ANDN HZ EP   2A   032 54.80                                                    
 CUAYAHZ EP   3A   033 12.47                                                    
 GZT  HZ IP   0A   032 41.52                                                    
 KMRS HE ES   2A   032 49.49                                                    
 KMRS HE  IAML A   032 49.49        71.5 1.00                                   
 NAR  HZ EP   2A   032 42.03                                                    
 NZIP HZ EP   1A   032 46.12                                                    
                                                                                

 2023  2 7  2 9  8.4 L  37.979  37.646  8.1  PhN  6 0.0 3.0L                   1
 Action:ARG 23-03-27 17:02 OP:OBSP STATUS:               ID:20230207020908     I
 STAT SP IPHASW D HRMM SECON CODA AMPLIT PERI AZIMU VELO AIN AR TRES W  DIS CAZ7
 ATAB HZ EP   3A   034 10.13                                                    
 ATAB HE ES   3A   034 25.07                                                    
 ATAB HE  IAML A   034 25.07       252.4 1.00                                   
 ELZG HZ EP   3A   034 30.95                                                    
 KAHM HZ IP   0A   034  2.05                                                    
 KMRS HZ IP   0A   034  1.42                                                    
 KUZU HE ES   2A   034  0.27                                                    
 KUZU HE  IAML A   034  0.27       248.2 1.00                                   
 URFA HZ IP   0A   034 18.76                                                    
 URFA HE ES   3A   034 37.41                                                    
 URFA HE  IAML A   034 37.41        44.9 1.00                                   
                                                                                

 2023  2 7  210 56.7 L  37.498  37.192 11.2  PhN  7 0.0 2.1L                   1
 Action:ARG 23-03-27 17:02 OP:OBSP STATUS:               ID:20230207021056     I
 STAT SP IPHASW D HRMM SECON CODA AMPLIT PERI AZIMU VELO AIN AR TRES W  DIS CAZ7
 CUGURHE ES   3A   036  0.37                                                    
 CUGURHE  IAML A   036  0.37       277.2 1.00                                   
 ELBS HE ES   2A   035 47.59                                                    
 ELBS HE  IAML A   035 47.59       192.6 1.00                                   
 HASA HZ EP   1A   035 38.86                                                    
 KAHM HZ IP   0A   035 26.65                                                    
 KMRS HZ IP   1A   035 27.04                                                    
 NZIP HZ EP   2A   035 29.44                                                    
 RHAN HZ EP   1A   035 46.41                                                    
                                                                                

