 2023  2 7 21 8  1.8 L  37.562  37.260  0.0  PhN 11 0.0 2.7L                   1
 Action:ARG 23-03-27 17:02 OP:OBSP STATUS:               ID:20230207210801     I
 STAT SP IPHASW D HRMM SECON CODA AMPLIT PERI AZIMU VELO AIN AR TRES W  DIS CAZ7
 ATAB HZ EP   2A  2359 57.94                                                    
 DARE HE ES   2A   0 0  2.91                                                    
 DARE HE  IAML A   0 0  2.91        14.8 1.00                                   
 ELBS HE ES   3A   0 0  2.05                                                    
 ELBS HE  IAML A   0 0  2.05       134.9 1.00                                   
 ELZG HZ IP   1A   0 0  3.72                                                    
 GZT  HZ EP   3A  2359 58.39                                                    
 HANM HZ EP   2A   0 0  4.97                                                    
 HANM HE ES   2A   0 0 19.13                                                    
 HANM HE  IAML A   0 0 19.13        29.8 1.00                                   
 KAHM HZ IP   1A  2359 59.84                                                    
 MGND HE IS   1A   0 0  4.86                                                    
 MGND HE  IAML A   0 0  4.86       168.5 1.00                                   
 NARI HZ EP   3A  2359 59.51                                                    
 NZIP HZ EP   1A   0 0  4.64                                                    
 URFA HE ES   3A   0 0 19.55                                                    
 URFA HE  IAML A   0 0 19.55        32.7 1.00                                   
                                                                                

 2023  2 7 21 8 11.2 L  37.625  37.313  0.1  PhN 21 0.0 2.5L                   1
 Action:ARG 23-03-27 17:02 OP:OBSP STATUS:               ID:20230207210811     I
 STAT SP IPHASW D HRMM SECON CODA AMPLIT PERI AZIMU VELO AIN AR TRES W  DIS CAZ7
 ANDN HZ IP   0A   0 1 14.36                                                    
 ANDN HE IS   1A   0 1 24.32                                                    
 ANDN HE  IAML A   0 1 24.32      4275.0 1.00                                   
 ATAB HZ IP   0A   0 1 17.99                                                    
 CUGURHZ EP   2A   0 1 24.96                                                    
 CUKANHZ EP   2A   0 1 36.36                                                    
 GAZ  HZ IP   1A   0 1  7.54                                                    
 GAZ  HE ES   2A   0 1 12.41                                                    
 GAZ  HE  IAML A   0 1 12.41       829.9 1.00                                   
 GZT  HZ IP   0A   0 1  7.54                                                    
 GZT  HE ES   2A   0 1 12.27                                                    
 GZT  HE  IAML A   0 1 12.27      7382.3 1.00                                   
 HANM HZ EP   2A   0 1 25.83                                                    
 HASA HZ EP   2A   0 1 19.39                                                    
 HEKM HZ EP   1A   0 1 29.68                                                    
 KAHM HZ IP   0A   0 1  4.80                                                    
 KAHM HE IS   1A   0 1  7.57                                                    
 KAHM HE  IAML A   0 1  7.57     22276.5 1.00                                   
 KMRS HZ IP   0A   0 1  5.99                                                    
 KMRS HE IS   1A   0 1  9.57                                                    
 KMRS HE  IAML A   0 1  9.57      1155.7 1.00                                   
 KUZU HZ IP   0A   0 1 15.63                                                    
 MAYA HE IS   1A   0 1 42.56                                                    
 MAYA HE  IAML A   0 1 42.56      2442.3 1.00                                   
 MGND HZ IP   0A   0 1  4.82                                                    
 MGND HE IS   0A   0 1  7.84                                                    
 MGND HE  IAML A   0 1  7.84     22196.3 1.00                                   
 NAR  HZ IP   0A   0 1  3.75                                                    
 NAR  HE IS   1A   0 1  6.07                                                    
 NAR  HE  IAML A   0 1  6.07     35274.6 1.00                                   
 NARI HZ IP   0A   0 1 25.25                                                    
 NZIP HZ IP   0A   0 1 12.78                                                    
 NZIP HE ES   2A   0 1 20.86                                                    
 NZIP HE  IAML A   0 1 20.86       881.4 1.00                                   
 RHAN HE ES   1A   0 1 44.93                                                    
 RHAN HE  IAML A   0 1 44.93       611.0 1.00                                   
 SAIM HZ IP   0A   0 1 20.40                                                    
 SANL HE ES   2A   0 1 48.27                                                    
 SANL HE  IAML A   0 1 48.27      1640.6 1.00                                   
 SARI HZ EP   3A   0 1 22.78                                                    
                                                                                

 2023  2 7 21 9 50.4 L  37.113  36.677  4.5  PhN  8 0.0 3.0L                   1
 Action:ARG 23-03-27 17:02 OP:OBSP STATUS:               ID:20230207210950     I
 STAT SP IPHASW D HRMM SECON CODA AMPLIT PERI AZIMU VELO AIN AR TRES W  DIS CAZ7
 ANDN HZ EP   3A   0 3 38.28                                                    
 ANDN HE ES   2A   0 3 45.07                                                    
 ANDN HE  IAML A   0 3 45.07       221.8 1.00                                   
 GAZ  HZ IP   1A   0 3 34.71                                                    
 GAZ  HE IS   1A   0 3 39.75                                                    
 GAZ  HE  IAML A   0 3 39.75        70.5 1.00                                   
 KAHM HZ IP   0A   0 3 28.83                                                    
 KAHM HE IS   0A   0 3 29.99                                                    
 KAHM HE  IAML A   0 3 29.99     37164.1 1.00                                   
 KMRS HZ IP   0A   0 3 29.21                                                    
 MAYA HZ EP   3A   0 3 55.07                                                    
 MGND HZ EP   2A   0 3 34.55                                                    
 MGND HE ES   2A   0 3 40.37                                                    
 MGND HE  IAML A   0 3 40.37       107.0 1.00                                   
 NAR  HZ IP   0A   0 3 31.06                                                    
 NAR  HE ES   3A   0 3 34.18                                                    
 NAR  HE  IAML A   0 3 34.18      1526.2 1.00                                   
 NZIP HZ IP   1A   0 3 43.16                                                    
                                                                                

 2023  2 7 2110 24.1 L  37.717  37.441 23.2  PhN 21 0.0 2.3L                   1
 Action:ARG 23-03-27 17:02 OP:OBSP STATUS:               ID:20230207211024     I
 STAT SP IPHASW D HRMM SECON CODA AMPLIT PERI AZIMU VELO AIN AR TRES W  DIS CAZ7
 ANDN HZ EP   1A   0 4  7.40                                                    
 ATAB HE ES   2A   0 4 26.57                                                    
 ATAB HE  IAML A   0 4 26.57       869.1 1.00                                   
 BNN  HZ EP   1A   0 4  8.61                                                    
 CUAYAHZ EP   2A   0 4  4.79                                                    
 CUGURHZ IP   1A   0 3 52.89                                                    
 DARE HZ IP   0A   0 3 50.73                                                    
 DARE HE ES   1A   0 3 55.22                                                    
 DARE HE  IAML A   0 3 55.22      1525.4 1.00                                   
 ELBS HZ IP   0A   0 3 48.85                                                    
 ELBS HE IS   0A   0 3 51.68                                                    
 ELBS HE  IAML A   0 3 51.68     54681.8 1.00                                   
 GAZ  HE ES   2A   0 4 26.70                                                    
 GAZ  HE  IAML A   0 4 26.70       127.4 1.00                                   
 GZT  HZ IP   1A   0 4  7.03                                                    
 GZT  HE ES   3A   0 4 22.35                                                    
 GZT  HE  IAML A   0 4 22.35      2324.2 1.00                                   
 HANM HZ IP   0A   0 4 14.09                                                    
 HASA HE ES   2A   0 4 43.35                                                    
 HASA HE  IAML A   0 4 43.35       314.1 1.00                                   
 HEKM HZ EP   1A   0 3 59.69                                                    
 HEKM HE ES   2A   0 4 11.19                                                    
 HEKM HE  IAML A   0 4 11.19      4547.9 1.00                                   
 KAHM HZ IP   0A   0 4  4.39                                                    
 KEMA HZ EP   2A   0 4 10.87                                                    
 KUZU HE ES   2A   0 4 39.05                                                    
 KUZU HE  IAML A   0 4 39.05      1176.3 1.00                                   
 MAYA HE ES   2A   0 4 15.57                                                    
 MAYA HE  IAML A   0 4 15.57       522.0 1.00                                   
 MGND HZ IP   0A   0 4  5.16                                                    
 NAR  HZ EP   2A   0 4  5.90                                                    
 NARI HE ES   3A   0 4 28.75                                                    
 NARI HE  IAML A   0 4 28.75       225.3 1.00                                   
 SAIM HZ EP   1A   0 4  5.02                                                    
 SARI HZ IP   0A   0 3 57.92                                                    
 SARI HE ES   2A   0 4  8.74                                                    
 SARI HE  IAML A   0 4  8.74       875.5 1.00                                   
                                                                                

 2023  2 7 2111  0.2 L  37.479  37.257 18.0  PhN 12 0.0 2.5L                   1
 Action:ARG 23-03-27 17:02 OP:OBSP STATUS:               ID:20230207211100     I
 STAT SP IPHASW D HRMM SECON CODA AMPLIT PERI AZIMU VELO AIN AR TRES W  DIS CAZ7
 ATAB HE ES   2A   0 5 15.56                                                    
 ATAB HE  IAML A   0 5 15.56       370.5 1.00                                   
 DARE HE IS   1A   0 5 10.33                                                    
 DARE HE  IAML A   0 5 10.33       142.1 1.00                                   
 ELBS HE ES   1A   0 5  7.94                                                    
 ELBS HE  IAML A   0 5  7.94       996.7 1.00                                   
 ELZG HZ IP   1A   0 5 12.15                                                    
 GZT  HZ IP   1A   0 5  2.66                                                    
 HEKM HZ EP   2A   0 5  7.89                                                    
 HEKM HE ES   3A   0 5 21.21                                                    
 HEKM HE  IAML A   0 5 21.21       427.2 1.00                                   
 KAHM HE ES   2A   0 5 14.17                                                    
 KAHM HE  IAML A   0 5 14.17       241.5 1.00                                   
 KMRS HE ES   1A   0 5 16.02                                                    
 KMRS HE  IAML A   0 5 16.02        49.8 1.00                                   
 MAYA HZ EP   3A   0 5  3.45                                                    
 MGND HZ IP   0A   0 5  0.43                                                    
 NARI HZ EP   2A   0 5  7.49                                                    
 NZIP HZ EP   3A   0 5  7.76                                                    
                                                                                

 2023  2 7 2112 15.5 L  38.022  37.542  0.0  PhN 12 0.0 2.9L                   1
 Action:ARG 23-03-27 17:02 OP:OBSP STATUS:               ID:20230207211215     I
 STAT SP IPHASW D HRMM SECON CODA AMPLIT PERI AZIMU VELO AIN AR TRES W  DIS CAZ7
 ANDN HE ES   3A   0 6 48.14                                                    
 ANDN HE  IAML A   0 6 48.14       730.6 1.00                                   
 DARE HE ES   3A   0 6 56.64                                                    
 DARE HE  IAML A   0 6 56.64        60.8 1.00                                   
 GZT  HE ES   2A   0 6 34.95                                                    
 GZT  HE  IAML A   0 6 34.95      3101.3 1.00                                   
 HASA HZ EP   2A   0 6 44.59                                                    
 HASA HE IS   1A   0 6 59.55                                                    
 HASA HE  IAML A   0 6 59.55       372.2 1.00                                   
 HEKM HE ES   3A   0 7  7.91                                                    
 HEKM HE  IAML A   0 7  7.91       511.8 1.00                                   
 KAHM HZ IP   0A   0 6 28.19                                                    
 KAHM HE IS   1A   0 6 31.45                                                    
 KAHM HE  IAML A   0 6 31.45      3391.1 1.00                                   
 KMRS HZ EP   3A   0 6 29.63                                                    
 KMRS HE IS   0A   0 6 33.81                                                    
 KMRS HE  IAML A   0 6 33.81       291.6 1.00                                   
 KUZU HZ EP   1A   0 6 41.49                                                    
 MGND HZ IP   1A   0 6 27.57                                                    
 NAR  HZ IP   0A   0 6 27.62                                                    
 SANL HZ EP   2A   0 6 51.36                                                    
 SARI HE ES   1A   0 6 57.16                                                    
 SARI HE  IAML A   0 6 57.16       258.5 1.00                                   
                                                                                

 2023  2 7 2113 19.7 L  37.214  36.977  0.0  PhN  6 0.0 3.0L                   1
 Action:ARG 23-03-27 17:02 OP:OBSP STATUS:               ID:20230207211319     I
 STAT SP IPHASW D HRMM SECON CODA AMPLIT PERI AZIMU VELO AIN AR TRES W  DIS CAZ7
 GAZ  HZ EP   2A   0 7 20.13                                                    
 GZT  HE ES   3A   0 7 28.01                                                    
 GZT  HE  IAML A   0 7 28.01       213.4 1.00                                   
 KAHM HZ IP   0A   0 7 17.72                                                    
 KAHM HE IS   0A   0 7 20.14                                                    
 KAHM HE  IAML A   0 7 20.14       904.9 1.00                                   
 KMRS HZ IP   1A   0 7 18.31                                                    
 KMRS HE IS   0A   0 7 21.34                                                    
 KMRS HE  IAML A   0 7 21.34        98.5 1.00                                   
 MGND HZ EP   1A   0 7 20.39                                                    
 MGND HE ES   1A   0 7 24.78                                                    
 MGND HE  IAML A   0 7 24.78       102.9 1.00                                   
 NAR  HZ IP   0A   0 7 17.43                                                    
 NAR  HE IS   0A   0 7 19.79                                                    
 NAR  HE  IAML A   0 7 19.79      2072.8 1.00                                   
                                                                                

 2023  2 7  049 18.5 L  37.414  37.486 31.0  PhN  7 0.0 2.5L                   1
 Action:ARG 23-03-27 17:02 OP:OBSP STATUS:               ID:20230207004918     I
 STAT SP IPHASW D HRMM SECON CODA AMPLIT PERI AZIMU VELO AIN AR TRES W  DIS CAZ7
 CUGURHZ EP   2A   0 7 51.82                                                    
 CUGURHE IS   1A   0 8  1.37                                                    
 CUGURHE  IAML A   0 8  1.37      1949.2 1.00                                   
 CUKANHZ EP   2A   0 8  4.08                                                    
 DARE HZ EP   1A   0 7 49.70                                                    
 DARE HE ES   1A   0 7 57.71                                                    
 DARE HE  IAML A   0 7 57.71        69.6 1.00                                   
 ELBS HZ EP   1A   0 7 44.91                                                    
 ELBS HE IS   0A   0 7 49.23                                                    
 ELBS HE  IAML A   0 7 49.23      5177.3 1.00                                   
 GZT  HE ES   1A   0 7 57.78                                                    
 GZT  HE  IAML A   0 7 57.78       474.3 1.00                                   
 HEKM HZ EP   1A   0 7 58.05                                                    
 HEKM HE ES   2A   0 8 13.05                                                    
 HEKM HE  IAML A   0 8 13.05       376.7 1.00                                   
 SARI HZ IP   1A   0 7 52.80                                                    
 SARI HE ES   1A   0 8  2.58                                                    
 SARI HE  IAML A   0 8  2.58       168.7 1.00                                   
                                                                                

