 2023  2 7  546 37.6 L  37.622  37.082  0.0  PhN 10 0.0 2.7L                   1
 Action:ARG 23-03-27 17:02 OP:OBSP STATUS:               ID:20230207054637     I
 STAT SP IPHASW D HRMM SECON CODA AMPLIT PERI AZIMU VELO AIN AR TRES W  DIS CAZ7
 ANDN HE ES   1A   1 7 35.47                                                    
 ANDN HE  IAML A   1 7 35.47       186.6 1.00                                   
 ATAB HZ EP   3A   1 7 27.97                                                    
 ELZG HZ EP   2A   1 7 38.35                                                    
 GZT  HZ EP   1A   1 7 22.85                                                    
 KAHM HE IS   1A   1 7 27.14                                                    
 KAHM HE  IAML A   1 7 27.14       325.5 1.00                                   
 KEMA HE ES   2A   1 8  1.00                                                    
 KEMA HE  IAML A   1 8  1.00        42.0 1.00                                   
 KMRS HZ IP   0A   1 7 20.19                                                    
 NZIP HZ EP   3A   1 7 30.40                                                    
 SARI HE ES   3A   1 7 31.50                                                    
 SARI HE  IAML A   1 7 31.50       156.7 1.00                                   
 URFA HZ EP   1A   1 7 36.03                                                    
                                                                                

 2023  2 7  547  2.1 L  37.503  37.569  0.0  PhN 22 0.0 2.9L                   1
 Action:ARG 23-03-27 17:02 OP:OBSP STATUS:               ID:20230207054702     I
 STAT SP IPHASW D HRMM SECON CODA AMPLIT PERI AZIMU VELO AIN AR TRES W  DIS CAZ7
 ANDN HZ EP   2A   1 8 43.51                                                    
 ANDN HE ES   2A   1 8 56.06                                                    
 ANDN HE  IAML A   1 8 56.06       566.8 1.00                                   
 ATAB HZ IP   0A   1 8 45.87                                                    
 CEYT HZ EP   3A   1 8 57.29                                                    
 CUGURHZ EP   1A   1 8 39.62                                                    
 CUGURHE ES   2A   1 8 50.74                                                    
 CUGURHE  IAML A   1 8 50.74      2861.4 1.00                                   
 CUKANHE ES   2A   1 9  9.16                                                    
 CUKANHE  IAML A   1 9  9.16       237.5 1.00                                   
 DARE HZ IP   1A   1 8 36.36                                                    
 DARE HE IS   1A   1 8 45.33                                                    
 DARE HE  IAML A   1 8 45.33       183.4 1.00                                   
 ELBS HZ IP   0A   1 8 32.89                                                    
 ELBS HE IS   1A   1 8 38.67                                                    
 ELBS HE  IAML A   1 8 38.67      2656.3 1.00                                   
 ELZG HE ES   2A   1 9 12.99                                                    
 ELZG HE  IAML A   1 9 12.99       349.5 1.00                                   
 GAZ  HZ IP   1A   1 8 44.73                                                    
 GZT  HZ EP   1A   1 8 40.03                                                    
 GZT  HE ES   2A   1 8 49.63                                                    
 GZT  HE  IAML A   1 8 49.63       625.1 1.00                                   
 HANM HZ EP   1A   1 8 50.99                                                    
 HASA HZ EP   2A   1 8 53.11                                                    
 HASA HE ES   2A   1 9 14.09                                                    
 HASA HE  IAML A   1 9 14.09       231.2 1.00                                   
 HEKM HZ EP   2A   1 8 44.33                                                    
 HEKM HE ES   2A   1 8 59.02                                                    
 HEKM HE  IAML A   1 8 59.02       939.3 1.00                                   
 KAHM HE ES   2A   1 8 45.46                                                    
 KAHM HE  IAML A   1 8 45.46       423.7 1.00                                   
 KEMA HZ EP   3A   1 8 55.36                                                    
 KMRS HE ES   2A   1 8 46.96                                                    
 KMRS HE  IAML A   1 8 46.96       136.7 1.00                                   
 KUZU HZ IP   0A   1 8 50.74                                                    
 MGND HE ES   3A   1 8 45.78                                                    
 MGND HE  IAML A   1 8 45.78       320.9 1.00                                   
 NAR  HZ EP   3A   1 8 39.10                                                    
 NARI HE ES   2A   1 9  4.91                                                    
 NARI HE  IAML A   1 9  4.91       118.7 1.00                                   
 NZIP HZ EP   2A   1 8 47.07                                                    
 URFA HE ES   1A   1 9 11.74                                                    
 URFA HE  IAML A   1 9 11.74        89.1 1.00                                   
                                                                                

 2023  2 7  629 13.6 L  37.990  37.639  0.0  PhN  9 0.0 3.2L                   1
 Action:ARG 23-03-27 17:02 OP:OBSP STATUS:               ID:20230207062913     I
 STAT SP IPHASW D HRMM SECON CODA AMPLIT PERI AZIMU VELO AIN AR TRES W  DIS CAZ7
 ATAB HZ EP   2A   110 57.94                                                    
 ATAB HE ES   2A   111 12.16                                                    
 ATAB HE  IAML A   111 12.16       222.9 1.00                                   
 GAZ  HZ IP   0A   110 41.25                                                    
 GAZ  HE IS   1A   110 44.44                                                    
 GAZ  HE  IAML A   110 44.44        84.0 1.00                                   
 GZT  HE ES   2A   110 52.45                                                    
 GZT  HE  IAML A   110 52.45       163.0 1.00                                   
 HASA HZ EP   2A   110 50.42                                                    
 KAHM HZ IP   0A   110 41.40                                                    
 KAHM HE IS   1A   110 45.29                                                    
 KAHM HE  IAML A   110 45.29       787.3 1.00                                   
 KUZU HE ES   3A   110 54.85                                                    
 KUZU HE  IAML A   110 54.85       350.0 1.00                                   
 MGND HE IS   0A   110 50.88                                                    
 MGND HE  IAML A   110 50.88        91.9 1.00                                   
 NAR  HZ EP   1A   110 40.64                                                    
 NAR  HE ES   1A   110 43.07                                                    
 NAR  HE  IAML A   110 43.07      1320.9 1.00                                   
 RHAN HE ES   2A   111 13.73                                                    
 RHAN HE  IAML A   111 13.73       153.4 1.00                                   
                                                                                

 2023  2 7  631  9.3 L  37.456  37.133  3.0  PhN  6 0.0 2.6L                   1
 Action:ARG 23-03-27 17:02 OP:OBSP STATUS:               ID:20230207063109     I
 STAT SP IPHASW D HRMM SECON CODA AMPLIT PERI AZIMU VELO AIN AR TRES W  DIS CAZ7
 BNN  HZ EP   2A   111 32.01                                                    
 KAHM HZ IP   0A   111  3.03                                                    
 KAHM HE IS   0A   111  4.54                                                    
 KAHM HE  IAML A   111  4.54       981.9 1.00                                   
 KMRS HZ IP   0A   111  3.39                                                    
 NAR  HZ EP   1A   111  4.02                                                    
 NAR  HE IS   1A   111  6.45                                                    
 NAR  HE  IAML A   111  6.45       770.1 1.00                                   
 SANL HE ES   3A   111 49.67                                                    
 SANL HE  IAML A   111 49.67       124.7 1.00                                   
 URFA HZ EP   2A   111 25.08                                                    
                                                                                

 2023  2 7  631 37.1 L  38.281  37.531 24.6  PhN  6 0.0 3.7L                   1
 Action:ARG 23-03-27 17:02 OP:OBSP STATUS:               ID:20230207063137     I
 STAT SP IPHASW D HRMM SECON CODA AMPLIT PERI AZIMU VELO AIN AR TRES W  DIS CAZ7
 KAHM HZ EP   2A   111 23.12                                                    
 KMRS HZ IP   0A   111 24.74                                                    
 KMRS HE ES   2A   111 29.34                                                    
 KMRS HE  IAML A   111 29.34        38.5 1.00                                   
 MAYA HE IS   0A   111 56.06                                                    
 MAYA HE  IAML A   111 56.06       131.8 1.00                                   
 MGND HZ IP   1A   111 21.24                                                    
 MGND HE ES   3A   111 23.87                                                    
 MGND HE  IAML A   111 23.87       252.3 1.00                                   
 SANL HZ EP   2A   111 44.33                                                    
 SANL HE ES   2A   112  4.17                                                    
 SANL HE  IAML A   112  4.17       105.6 1.00                                   
 SARI HZ EP   2A   111 37.92                                                    
 SARI HE ES   2A   111 51.03                                                    
 SARI HE  IAML A   111 51.03       208.9 1.00                                   
                                                                                

 2023  2 7  631 45.8 L  37.267  36.804  0.0  PhN  8 0.0 3.4L                   1
 Action:ARG 23-03-27 17:02 OP:OBSP STATUS:               ID:20230207063145     I
 STAT SP IPHASW D HRMM SECON CODA AMPLIT PERI AZIMU VELO AIN AR TRES W  DIS CAZ7
 ATAB HZ IP   0A   111 57.71                                                    
 DARE HE IS   0A   112 12.04                                                    
 DARE HE  IAML A   112 12.04        41.1 1.00                                   
 HASA HE ES   2A   112 16.07                                                    
 HASA HE  IAML A   112 16.07       193.5 1.00                                   
 HEKM HZ EP   2A   112  7.12                                                    
 KAHM HZ IP   0A   111 46.15                                                    
 MAYA HE ES   1A   112 20.04                                                    
 MAYA HE  IAML A   112 20.04       175.2 1.00                                   
 NZIP HZ EP   2A   111 56.24                                                    
 URFA HZ EP   1A   112  7.19                                                    
                                                                                

 2023  2 7  634 19.2 L  37.629  37.271  0.0  PhN  9 0.0 3.1L                   1
 Action:ARG 23-03-27 17:02 OP:OBSP STATUS:               ID:20230207063419     I
 STAT SP IPHASW D HRMM SECON CODA AMPLIT PERI AZIMU VELO AIN AR TRES W  DIS CAZ7
 ATAB HE ES   3A   112  6.52                                                    
 ATAB HE  IAML A   112  6.52       294.1 1.00                                   
 GZT  HZ IP   1A   111 49.02                                                    
 GZT  HE IS   0A   111 53.61                                                    
 GZT  HE  IAML A   111 53.61       589.2 1.00                                   
 HEKM HE ES   1A   112 28.07                                                    
 HEKM HE  IAML A   112 28.07       181.6 1.00                                   
 KAHM HZ EP   3A   111 51.08                                                    
 KMRS HZ IP   0A   111 50.38                                                    
 MGND HZ IP   0A   111 46.52                                                    
 MGND HE IS   1A   111 49.49                                                    
 MGND HE  IAML A   111 49.49       251.7 1.00                                   
 NAR  HZ IP   1A   111 49.55                                                    
 NARI HE ES   1A   112 19.55                                                    
 NARI HE  IAML A   112 19.55        48.6 1.00                                   
 SAIM HE ES   2A   112 20.54                                                    
 SAIM HE  IAML A   112 20.54       492.6 1.00                                   
                                                                                

 2023  2 7  638  8.3 L  37.312  37.071  0.0  PhN  6 0.0 2.8L                   1
 Action:ARG 23-03-27 17:02 OP:OBSP STATUS:               ID:20230207063808     I
 STAT SP IPHASW D HRMM SECON CODA AMPLIT PERI AZIMU VELO AIN AR TRES W  DIS CAZ7
 CUGURHZ EP   2A   115 36.30                                                    
 CUKANHZ EP   1A   115 48.22                                                    
 ELBS HZ IP   1A   115 30.59                                                    
 HASA HZ EP   2A   115 33.94                                                    
 NAR  HZ EP   1A   115 19.26                                                    
 SARI HE IS   1A   115 47.20                                                    
 SARI HE  IAML A   115 47.20      1284.7 1.00                                   
                                                                                

 2023  2 7  639 10.6 L  38.178  37.848 24.0  PhN  6 0.0 3.6L                   1
 Action:ARG 23-03-27 17:02 OP:OBSP STATUS:               ID:20230207063910     I
 STAT SP IPHASW D HRMM SECON CODA AMPLIT PERI AZIMU VELO AIN AR TRES W  DIS CAZ7
 ANDN HZ EP   1A   115 56.12                                                    
 CUKANHZ IP   1A   116 18.20                                                    
 HANM HZ EP   2A   116  2.63                                                    
 HASA HZ IP   1A   115 58.02                                                    
 KAHM HZ IP   1A   115 47.57                                                    
 URFA HE ES   2A   116 17.69                                                    
 URFA HE  IAML A   116 17.69       103.8 1.00                                   
                                                                                

 2023  2 7  644 20.1 L  37.487  37.163  0.8  PhN  8 0.0 3.4L                   1
 Action:ARG 23-03-27 17:02 OP:OBSP STATUS:               ID:20230207064420     I
 STAT SP IPHASW D HRMM SECON CODA AMPLIT PERI AZIMU VELO AIN AR TRES W  DIS CAZ7
 DARE HZ EP   1A   116 50.22                                                    
 DARE HE IS   0A   116 58.74                                                    
 DARE HE  IAML A   116 58.74       124.3 1.00                                   
 ELBS HZ IP   1A   116 49.81                                                    
 ELBS HE ES   1A   116 57.94                                                    
 ELBS HE  IAML A   116 57.94      1252.8 1.00                                   
 ELZG HZ IP   1A   117  0.19                                                    
 HANM HZ EP   1A   116 59.29                                                    
 HANM HE ES   2A   117 15.69                                                    
 HANM HE  IAML A   117 15.69       176.0 1.00                                   
 KAHM HE ES   3A   117  4.31                                                    
 KAHM HE  IAML A   117  4.31       616.0 1.00                                   
 MAYA HZ EP   1A   116 51.36                                                    
 MAYA HE ES   2A   117  0.41                                                    
 MAYA HE  IAML A   117  0.41       472.4 1.00                                   
 NARI HZ EP   3A   116 55.85                                                    
 URFA HE ES   2A   117 16.98                                                    
 URFA HE  IAML A   117 16.98        74.5 1.00                                   
                                                                                

 2023  2 7  646  9.3 L  37.690  37.149  0.0  PhN 15 0.0 2.2L                   1
 Action:ARG 23-03-27 17:02 OP:OBSP STATUS:               ID:20230207064609     I
 STAT SP IPHASW D HRMM SECON CODA AMPLIT PERI AZIMU VELO AIN AR TRES W  DIS CAZ7
 ANDN HZ EP   3A   117  1.04                                                    
 ANDN HE ES   2A   117 12.32                                                    
 ANDN HE  IAML A   117 12.32       559.7 1.00                                   
 ATAB HE ES   2A   117 16.02                                                    
 ATAB HE  IAML A   117 16.02       771.4 1.00                                   
 ELZG HE IS   1A   117 42.24                                                    
 ELZG HE  IAML A   117 42.24       252.9 1.00                                   
 GAZ  HE ES   2A   117  1.16                                                    
 GAZ  HE  IAML A   117  1.16       115.7 1.00                                   
 GZT  HZ IP   0A   116 53.78                                                    
 GZT  HE IS   0A   116 58.37                                                    
 GZT  HE  IAML A   116 58.37       950.8 1.00                                   
 HASA HZ IP   1A   117  7.85                                                    
 KAHM HZ IP   0A   116 51.75                                                    
 KAHM HE IS   1A   116 55.32                                                    
 KAHM HE  IAML A   116 55.32      1654.2 1.00                                   
 KMRS HZ IP   1A   116 53.08                                                    
 KMRS HE ES   1A   116 57.32                                                    
 KMRS HE  IAML A   116 57.32       100.2 1.00                                   
 KUZU HZ IP   0A   117  4.47                                                    
 MAYA HE ES   2A   117 26.25                                                    
 MAYA HE  IAML A   117 26.25       147.5 1.00                                   
 MGND HZ IP   0A   116 50.60                                                    
 MGND HE ES   1A   116 53.34                                                    
 MGND HE  IAML A   116 53.34       878.7 1.00                                   
 NAR  HZ IP   1A   116 51.59                                                    
 NARI HE ES   3A   117 28.75                                                    
 NARI HE  IAML A   117 28.75        35.9 1.00                                   
 NZIP HZ IP   0A   116 59.81                                                    
 NZIP HE ES   2A   117  8.09                                                    
 NZIP HE  IAML A   117  8.09       261.3 1.00                                   
 RHAN HZ EP   2A   117 15.09                                                    
                                                                                

