 2023  2 7 0021  5.6 L  37.811  37.686  9.9  TUR 15 0.5 3.3LTUR                1
 GAP= 90        0.76       1.8     2.4  5.1 -0.6819E+00 -0.3382E+01 -0.1899E+01E
 Action:ARG 23-03-27 17:02 OP:OBSP STATUS:               ID:20230207013357     I
 STAT SP IPHASW D HRMM SECON CODA AMPLIT PERI AZIMU VELO AIN AR TRES W  DIS CAZ7
 MGND HZ IP   0A   021 13.84                              99   -0.0210 44.4 212 
 MGND HE  IAML A   021 19.71      1276.1 1.00                          44.4 212 
 MGND HE ES   1A   021 19.71                              99   -0.14 7 44.4 212 
 GZT  HZ IP   0A   021 15.17                              97    0.0510 51.7 192 
 GZT  HE IS   1A   021 21.87                              97   -0.17 7 51.7 192 
 GZT  HE  IAML A   021 21.87      3623.6 1.00                          51.7 192 
 ATAB HZ EP   2A   021 17.93                              95    0.45 5 65.8 125 
 ATAB HE IS   1A   021 26.08                              95   -0.05 7 65.8 125 
 ATAB HE  IAML A   021 26.08      2880.4 1.00                          65.8 125 
 NAR  HZ EP   3A   021 18.00                              95    0.49 2 65.9 225 
 NAR  HE ES   3A   021 25.92                              95   -0.26 2 65.9 225 
 NAR  HE  IAML A   021 25.92      1503.6 1.00                          65.9 225 
 KAHM HZ EP   1A   021 17.93                              94   -0.25 7 69.8 242 
 KAHM HE  IAML A   021 26.58      1366.4 1.00                          69.8 242 
 KAHM HE ES   2A   021 26.58                              94   -0.75 5 69.8 242 
 KMRS HZ IP   1A   021 19.33                              93   -0.13 7 77.2 244 
 KMRS HE ES   2A   021 28.75                              93   -0.79 5 77.2 244 
 KMRS HE  IAML A   021 28.75       611.6 1.00                          77.2 244 
 NZIP HZ IP   1A   021 21.24                              93    0.35 7 85.2 181 
 DARE HE ES   1A   021 32.53                              93    0.18 7 86.2 348 
 DARE HE  IAML A   021 32.53       249.7 1.00                          86.2 348 
 MAYA HE  IAML A   021 32.25      1389.4 1.00                          86.4  48 
 MAYA HE ES   3A   021 32.25                              93   -0.16 2 86.4  48 
 NARI HZ IP   0A   021 22.66                              92    0.08 9 95.0  85 
 NARI HE ES   2A   021 34.15                              92   -0.79 4 95.0  85 
 NARI HE  IAML A   021 34.15      1053.7 1.00                          95.0  85 
 HANM HZ EP   3A   021 26.11                              72    1.23 2  108 103 
 ANDN HZ EP   2A   021 27.12                              72    0.12 4  121 258 
 HEKM HZ IP   1A   021 26.72                              72   -0.37 6  121  11 
 HEKM HE ES   2A   021 43.00                              72    0.26 4  121  11 
 HEKM HE  IAML A   021 43.00      3024.4 1.00                           121  11 
 KUZU HZ IP   0A   021 29.05                              72    1.07 8  127 205 
 SANL HZ EP   2A   021 29.36                              50    0.16 4  135 121 
 SANL HE IS   1A   021 45.57                              50   -0.83 6  135 121 
 SANL HE  IAML A   021 45.57      3033.4 1.00                           135 121 
                                                                                
 2023  2 7 0023 29.4 L  37.361  37.193  1.9  TUR  7 0.8 2.3LTUR                1
 GAP=222        0.97      18.3     8.6 21.1  0.1335E+03  0.4268E+02  0.2132E+03E
 Action:ARG 23-03-27 17:02 OP:OBSP STATUS:               ID:20230207014044     I
 STAT SP IPHASW D HRMM SECON CODA AMPLIT PERI AZIMU VELO AIN AR TRES W  DIS CAZ7
 KAHM HZ EP   3A   023 35.53                              58    1.45 2 25.1 313 
 KAHM HE  IAML A   023 36.95       561.0 1.00                          25.1 313 
 KAHM HE ES   2A   023 36.95                              58   -0.55 5 25.1 313 
 GZT  HE IS   0A   023 39.80                              58   -0.0510 32.6  91 
 GZT  HE  IAML A   023 39.80       533.4 1.00                          32.6  91 
 SARI HZ IP   0A   023 52.77                              58   -0.58 8  135 330 
 DARE HZ IP   0A   023 53.96                              58    0.32 8  137  11 
 HANM HZ EP   2A   023 55.02                              40   -0.96 4  151  80 
 BNN  HZ IP   0A   024  3.57                              38    0.82 7  203 325 
 CUKANHZ EP   3A   024  6.92                              38    2.25 2  218   6 
                                                                                
 2023  2 7 0023 43.7 L  37.793  37.034  0.0  TUR  5 0.6 3.6LTUR                1
 GAP=128        0.77       3.2     5.8 16.8 -0.6331E+01  0.4799E+02 -0.1107E+02E
 Action:ARG 23-03-27 17:02 OP:OBSP STATUS:               ID:20230207014051     I
 STAT SP IPHASW D HRMM SECON CODA AMPLIT PERI AZIMU VELO AIN AR TRES W  DIS CAZ7
 MGND HZ EP   1A   023 52.60                              58   -0.29 8 49.4 136 
 ELBS HZ IP   0A   023 54.69                              58   -0.0210 59.6   8 
 ELBS HE  IAML A   024  2.85      5153.6 1.00                          59.6   8 
 ELBS HE ES   2A   024  2.85                              58    0.11 5 59.6   8 
 ANDN HZ EP   2A   023 55.20                              58   -0.46 5 65.1 249 
 ANDN HE ES   2A   024  3.90                              58   -0.48 5 65.1 249 
 ANDN HE  IAML A   024  3.90      9582.9 1.00                          65.1 249 
 CEYT HZ EP   2A   024 10.13                              58    0.95 4  143 233 
 CEYT HE ES   3A   024 28.21                              58    0.43 2  143 233 
 CEYT HE  IAML A   024 28.21       299.2 1.00                           143 233 
 RHAN HZ EP   2A   024 15.09                              38    1.59 4  174 193 
                                                                                
 2023  2 7 0026 20.7 L  38.149  36.693  3.4  TUR 20 0.9 3.6LTUR                1
 GAP= 70        1.35       2.7     3.4  6.6 -0.1795E+01 -0.5083E+01  0.2567E+01E
 Action:ARG 23-03-27 17:02 OP:OBSP STATUS:               ID:20230207014609     I
 STAT SP IPHASW D HRMM SECON CODA AMPLIT PERI AZIMU VELO AIN AR TRES W  DIS CAZ7
 SARI HZ IP   0A   026 27.81                              92    0.2210 37.4 320 
 SARI HE  IAML A   026 33.65      1514.4 1.00                          37.4 320 
 SARI HE ES   1A   026 33.65                              92    0.99 7 37.4 320 
 ELBS HZ IP   0A   026 28.36                              92   -0.1910 43.1  63 
 ELBS HE  IAML A   026 34.42     11795.6 1.00                          43.1  63 
 ELBS HE IS   0A   026 34.42                              92    0.1010 43.1  63 
 SAIM HZ IP   0A   026 30.61                              91   -0.3210 56.9 251 
 SAIM HE IS   1A   026 38.01                              91   -0.43 7 56.9 251 
 SAIM HE  IAML A   026 38.01     16479.8 1.00                          56.9 251 
 ANDN HE  IAML A   026 42.52      2504.5 1.00                          70.2 206 
 ANDN HE ES   2A   026 42.52                              91    0.04 5 70.2 206 
 KMRS HZ IP   0A   026 33.77                              91   -0.06 9 73.7 166 
 KMRS HE  IAML A   026 42.69       885.7 1.00                          73.7 166 
 KMRS HE ES   2A   026 42.69                              91   -0.76 5 73.7 166 
 KAHM HZ EP   2A   026 33.91                              91   -0.11 5 74.8 160 
 CUGURHZ EP   2A   026 34.78                              91   -0.47 5 81.4  38 
 CUGURHE ES   1A   026 45.93                              91    0.02 7 81.4  38 
 CUGURHE  IAML A   026 45.93     14334.4 1.00                          81.4  38 
 DARE HZ EP   2A   026 35.18                              91   -0.40 5 83.4  56 
 DARE HE ES   2A   026 45.92                              91   -0.56 5 83.4  56 
 DARE HE  IAML A   026 45.92       676.7 1.00                          83.4  56 
 GZT  HZ IP   0A   026 42.05                              91    0.66 9  117 139 
 GAZ  HZ EP   2A   026 41.67                              91    0.13 4  118 157 
 GAZ  HE ES   2A   026 56.73                              91   -0.07 4  118 157 
 GAZ  HE  IAML A   026 56.73       437.4 1.00                           118 157 
 CUAYAHZ EP   3A   026 42.31                              91   -0.40 2  124   2 
 CUAYAHE ES   3A   026 58.56                              91   -0.26 2  124   2 
 CUAYAHE  IAML A   026 58.56      1673.1 1.00                           124   2 
 HEKM HZ EP   1A   026 43.81                              91   -1.21 6  137  53 
 HEKM HE ES   3A   027  1.61                              91   -1.20 2  137  53 
 HEKM HE  IAML A   027  1.61      3529.1 1.00                           137  53 
 CUKANHE ES   1A   027  3.96                              49   -1.44 6  146  27 
 CUKANHE  IAML A   027  3.96      1498.2 1.00                           146  27 
 NZIP HE  IAML A   027  5.66       455.9 1.00                           150 144 
 NZIP HE ES   3A   027  5.66                              47   -0.56 2  150 144 
 HASA HE ES   3A   027  5.72                              47   -1.71 2  156 187 
 HASA HE  IAML A   027  5.72       994.4 1.00                           156 187 
 KUZU HE ES   2A   027  5.68                              47   -1.82 4  156 167 
 KUZU HE  IAML A   027  5.68      3688.6 1.00                           156 167 
 ATAB HZ IP   1A   026 47.09                              47   -1.07 6  160 118 
 ATAB HE ES   2A   027  8.47                              47    0.22 4  160 118 
 ATAB HE  IAML A   027  8.47      3253.7 1.00                           160 118 
 NARI HZ EP   3A   026 50.66                              47   -0.62 2  184  99 
 NARI HE ES   2A   027 15.40                              47    1.76 4  184  99 
 NARI HE  IAML A   027 15.40       241.4 1.00                           184  99 
 URFA HZ IP   1A   026 55.52                              47    1.77 5  203 112 
 SANL HZ IP   0A   026 59.69                              46    2.66 6  230 117 
                                                                                
 2023  2 7 0027 41.5 L  37.598  36.991 22.9  TUR  5 0.5 1.7LTUR                1
 GAP=252        0.60      17.6    13.0 10.4  0.4903E+02 -0.1016E+03 -0.4377E+02E
 Action:ARG 23-03-27 17:02 OP:OBSP STATUS:               ID:20230207014707     I
 STAT SP IPHASW D HRMM SECON CODA AMPLIT PERI AZIMU VELO AIN AR TRES W  DIS CAZ7
 KAHM HZ EP   2A   027 46.39                             157    0.51 5 9.03 182 
 KAHM HE  IAML A   027 48.81       388.6 1.00                          9.03 182 
 KAHM HE ES   2A   027 48.81                             157   -0.26 5 9.03 182 
 KMRS HZ EP   2A   027 45.64                             149   -0.54 5 13.1 218 
 KMRS HE ES   3A   027 51.01                             149    1.42 2 13.1 218 
 KMRS HE  IAML A   027 51.01        58.7 1.00                          13.1 218 
 NAR  HZ IP   0A   027 47.69                             126   -0.0610 27.2 147 
 MGND HZ EP   2A   027 49.71                             114    0.04 5 40.5 110 
 NZIP HZ EP   3A   027 57.55                              96    0.69 2 86.4 135 
                                                                                
 2023  2 7 0029 14.3 L  37.535  37.180 11.9  TUR 20 0.4 3.5LTUR                1
 GAP= 75        0.74       1.9     1.8  2.7  0.1515E+01 -0.2448E+01 -0.3046E+01E
 Action:ARG 23-03-27 17:02 OP:OBSP STATUS:               ID:20230207014802     I
 STAT SP IPHASW D HRMM SECON CODA AMPLIT PERI AZIMU VELO AIN AR TRES W  DIS CAZ7
 NAR  HZ IP   0A   029 18.02                             126    0.0910 16.1 187 
 NAR  HE  IAML A   029 21.12     23399.0 1.00                          16.1 187 
 NAR  HE IS   1A   029 21.12                             126    0.50 7 16.1 187 
 KAHM HZ IP   0A   029 18.11                             124    0.0210 17.2 263 
 KAHM HE IS   0A   029 20.65                             124   -0.2410 17.2 263 
 KAHM HE  IAML A   029 20.65     27324.1 1.00                          17.2 263 
 MGND HZ IP   0A   029 18.96                             117    0.0310 22.4 108 
 MGND HE IS   1A   029 22.21                             117   -0.14 7 22.4 108 
 MGND HE  IAML A   029 22.21     10526.7 1.00                          22.4 108 
 KMRS HZ IP   0A   029 19.28                             114    0.0110 25.0 262 
 KMRS HE IS   0A   029 22.72                             114   -0.2210 25.0 262 
 KMRS HE  IAML A   029 22.72      1724.0 1.00                          25.0 262 
 GZT  HZ IP   0A   029 21.74                             105    0.0810 39.2 121 
 GZT  HE  IAML A   029 26.79     23518.1 1.00                          39.2 121 
 GZT  HE IS   1A   029 26.79                             105   -0.27 7 39.2 121 
 GAZ  HZ IP   0A   029 21.85                             104   -0.0010 40.4 176 
 GAZ  HE IS   0A   029 27.54                             104    0.1310 40.4 176 
 GAZ  HE  IAML A   029 27.54      1974.8 1.00                          40.4 176 
 NZIP HZ IP   1A   029 27.03                              81    0.13 7 70.0 141 
 NZIP HE IS   1A   029 35.79                              81   -0.35 7 70.0 141 
 NZIP HE  IAML A   029 35.79      2297.9 1.00                          70.0 141 
 ANDN HZ IP   1A   029 27.36                              81   -0.23 7 73.9 274 
 KUZU HZ EP   1A   029 29.76                              81    0.31 7 85.1 186 
 ELBS HZ IP   1A   029 30.02                              81    0.06 7 87.6 357 
 ELBS HE  IAML A   029 41.54      2951.6 1.00                          87.6 357 
 ELBS HE ES   3A   029 41.54                              81    0.12 2 87.6 357 
 ATAB HZ IP   0A   029 32.16                              72    0.38 9 98.8  94 
 SAIM HZ IP   1A   029 33.22                              72   -0.20 7  108 297 
 DARE HZ EP   1A   029 35.18                              72    0.18 6  118  13 
 CUGURHZ EP   1A   029 37.50                              50    0.21 6  132   3 
 NARI HZ IP   0A   029 38.22                              47   -0.63 8  145  74 
 HANM HZ IP   0A   029 38.65                              47   -0.87 8  150  88 
 HEKM HZ EP   2A   029 42.33                              47    0.86 4  164  24 
 BNN  HZ IP   1A   029 45.06                              47    0.72 5  187 322 
 CUAYAHZ EP   3A   029 47.46                              47    1.99 2  196 349 
 CUKANHZ IP   1A   029 47.00                              47    1.09 5  199   7 
                                                                                
 2023  2 7 0031 44.8 L  37.556  37.145  5.7  TUR  9 0.6 2.4LTUR                1
 GAP=106        1.23       5.1     3.6 10.7  0.7364E+01 -0.2075E+02 -0.3630E+02E
 Action:ARG 23-03-27 17:02 OP:OBSP STATUS:               ID:20230207020038     I
 STAT SP IPHASW D HRMM SECON CODA AMPLIT PERI AZIMU VELO AIN AR TRES W  DIS CAZ7
 KAHM HZ IP   0A   031 47.85                             108    0.1010 14.6 253 
 KAHM HE  IAML A   031 50.06      1080.0 1.00                          14.6 253 
 KAHM HE IS   0A   031 50.06                             108    0.1610 14.6 253 
 NAR  HZ IP   1A   031 48.03                             104   -0.33 7 18.2 177 
 NAR  HE IS   0A   031 50.61                             104   -0.3410 18.2 177 
 NAR  HE  IAML A   031 50.61      1295.4 1.00                          18.2 177 
 MGND HZ IP   0A   031 49.96                             100    0.2110 26.1 111 
 MGND HE  IAML A   031 53.64       212.1 1.00                          26.1 111 
 MGND HE IS   0A   031 53.64                             100    0.2810 26.1 111 
 GZT  HZ EP   1A   031 54.17                              96    1.49 7 43.0 121 
 GZT  HE IS   0A   031 57.75                              96   -0.6810 43.0 121 
 GZT  HE  IAML A   031 57.75       301.4 1.00                          43.0 121 
 NZIP HZ EP   2A   031 58.46                              93    0.43 5 73.7 140 
 ELBS HZ EP   1A   031 59.06                              93   -1.02 7 85.3 359 
 MAYA HE  IAML A   032 27.66       120.9 1.00                           141  52 
 MAYA HE IS   1A   032 27.66                              49   -0.22 6  141  52 
 URFA HZ EP   3A   032 11.83                              47    1.16 2  149  94 
 HEKM HE  IAML A   032 34.33       200.0 1.00                           163  26 
 HEKM HE ES   3A   032 34.33                              47    1.32 2  163  26 
                                                                                
 2023  2 7 0032 37.7 L  37.382  37.342  5.2  TUR  6 0.7 1.6LTUR                1
 GAP=132        1.02      12.4     6.9 34.8  0.5920E+02  0.5400E+02  0.8146E+02E
 Action:ARG 23-03-27 17:02 OP:OBSP STATUS:               ID:20230207020206     I
 STAT SP IPHASW D HRMM SECON CODA AMPLIT PERI AZIMU VELO AIN AR TRES W  DIS CAZ7
 NAR  HZ EP   2A   032 42.03                             104    1.11 5 16.4 274 
 GZT  HZ IP   0A   032 41.52                             102    0.0010 19.7  98 
 KMRS HE  IAML A   032 49.49        71.5 1.00                          41.4 289 
 KMRS HE ES   2A   032 49.49                              95   -1.27 5 41.4 289 
 NZIP HZ EP   1A   032 46.12                              94   -0.27 7 47.8 142 
 ANDN HZ EP   2A   032 54.80                              92    0.87 5 90.9 284 
 CUAYAHZ EP   3A   033 12.47                              46    0.27 2  215 346 
                                                                                
 2023  2 7 0033 51.6 L  37.018  37.149  2.0  TUR  6 0.8 2.3LTUR                1
 GAP=144        0.82       7.3    11.3 35.0 -0.5219E+02 -0.3115E+03  0.2181E+03E
 Action:ARG 23-03-27 17:02 OP:OBSP STATUS:               ID:20230207020908     I
 STAT SP IPHASW D HRMM SECON CODA AMPLIT PERI AZIMU VELO AIN AR TRES W  DIS CAZ7
 KUZU HE  IAML A   034  0.27       248.2 1.00                          28.0 194 
 KUZU HE ES   2A   034  0.27                              58    0.06 5 28.0 194 
 KAHM HZ IP   0A   034  2.05                              58    0.3710 57.1 345 
 KMRS HZ IP   0A   034  1.42                              58   -0.4810 58.4 338 
 ATAB HZ EP   3A   034 10.13                              58   -1.37 2  113  63 
 ATAB HE  IAML A   034 25.07       252.4 1.00                           113  63 
 ATAB HE ES   3A   034 25.07                              58   -0.93 2  113  63 
 URFA HZ IP   0A   034 18.76                              38    0.28 8  156  72 
 URFA HE ES   3A   034 37.41                              38   -0.67 2  156  72 
 URFA HE  IAML A   034 37.41        44.9 1.00                           156  72 
 ELZG HZ EP   3A   034 30.95                              38    2.95 2  230  44 
                                                                                
 2023  2 7 0035 19.1 L  37.512  37.418  8.6  TUR  7 0.6 2.7LTUR                1
 GAP=162        1.07       6.2    12.3 15.0  0.1215E+02 -0.6549E+02  0.2393E+02E
 Action:ARG 23-03-27 17:02 OP:OBSP STATUS:               ID:20230207021056     I
 STAT SP IPHASW D HRMM SECON CODA AMPLIT PERI AZIMU VELO AIN AR TRES W  DIS CAZ7
 KAHM HZ IP   0A   035 26.65                              98    0.5010 38.1 271 
 KMRS HZ IP   1A   035 27.04                              96   -0.43 7 45.8 269 
 NZIP HZ EP   2A   035 29.44                              93    0.02 5 56.8 156 
 ELBS HE  IAML A   035 47.59       192.6 1.00                          93.5 345 
 ELBS HE ES   2A   035 47.59                              91   -0.43 5 93.5 345 
 HASA HZ EP   1A   035 38.86                              72   -1.14 6  118 225 
 CUGURHE ES   3A   036  0.37                              72    0.14 2  135 355 
 CUGURHE  IAML A   036  0.37       277.2 1.00                           135 355 
 RHAN HZ EP   1A   035 46.41                              47    0.86 6  157 208 
                                                                                
