 2023  2 7 0045 32.8 L  37.352  37.064 10.7  TUR 10 0.4 2.7LTUR                1
 GAP=113        0.71       1.7     1.8  3.2  0.9267E+00  0.6798E-01  0.1673E+01E
 Action:ARG 23-03-27 17:02 OP:OBSP STATUS:               ID:20230207030255     I
 STAT SP IPHASW D HRMM SECON CODA AMPLIT PERI AZIMU VELO AIN AR TRES W  DIS CAZ7
 NAR  HZ IP   0A   045 35.62                             139    0.1210 9.36  62 
 NAR  HE  IAML A   045 37.40      5553.5 1.00                          9.36  62 
 NAR  HE IS   1A   045 37.40                             139   -0.05 7 9.36  62 
 KAHM HZ EP   2A   045 36.88                             117   -0.01 5 19.4 340 
 KAHM HE IS   0A   045 39.78                             117   -0.0810 19.4 340 
 KAHM HE  IAML A   045 39.78      1990.8 1.00                          19.4 340 
 MGND HZ EP   1A   045 39.71                             105    0.36 7 34.2  67 
 MGND HE ES   1A   045 44.25                             105    0.14 7 34.2  67 
 MGND HE  IAML A   045 44.25       423.2 1.00                          34.2  67 
 GZT  HZ IP   0A   045 41.12                             101    0.1110 44.1  89 
 GZT  HE  IAML A   045 46.74       578.5 1.00                          44.1  89 
 GZT  HE IS   1A   045 46.74                             101   -0.24 7 44.1  89 
 NZIP HZ IP   0A   045 44.59                              96    0.1510 64.2 122 
 NZIP HE IS   0A   045 52.48                              96   -0.4410 64.2 122 
 KUZU HE IS   0A   045 53.02                              96    0.1210 64.2 179 
 KUZU HE  IAML A   045 53.02       750.2 1.00                          64.2 179 
 NZIP HE  IAML A   045 52.48       123.5 1.00                          64.2 122 
 ANDN HZ IP   1A   045 45.31                              96    0.11 7 68.4 292 
 ANDN HE  IAML A   045 53.68       389.3 1.00                          68.4 292 
 ANDN HE IS   1A   045 53.68                              96   -0.55 7 68.4 292 
 ATAB HZ IP   0A   045 52.79                              72    0.57 9  110  83 
 ATAB HE ES   1A   046  5.55                              72   -0.83 7  110  83 
 ATAB HE  IAML A   046  5.55       727.5 1.00                           110  83 
 SARI HZ EP   1A   045 55.72                              72    0.01 6  130 334 
 BNN  HZ EP   3A   046  5.66                              47    1.24 2  198 328 
                                                                                
 2023  2 7 0046 15.8 L  37.377  37.103  8.0  TUR 11 0.2 2.6LTUR                1
 GAP= 90        0.35       1.3     1.0  1.6  0.5160E+00  0.2723E+00  0.2986E+00E
 Action:ARG 23-03-27 17:02 OP:OBSP STATUS:               ID:20230207030401     I
 STAT SP IPHASW D HRMM SECON CODA AMPLIT PERI AZIMU VELO AIN AR TRES W  DIS CAZ7
 NAR  HZ IP   0A   046 17.70                             148    0.0110 5.08  71 
 NAR  HE IS   0A   046 19.12                             148    0.0810 5.08  71 
 NAR  HE  IAML A   046 19.12     30905.0 1.00                          5.08  71 
 KAHM HZ IP   0A   046 19.48                             111   -0.1110 18.6 327 
 KAHM HE  IAML A   046 22.14      1235.0 1.00                          18.6 327 
 KAHM HE IS   0A   046 22.14                             111   -0.1810 18.6 327 
 KMRS HZ IP   0A   046 20.63                             107    0.3310 22.9 308 
 KMRS HE  IAML A   046 23.53       132.1 1.00                          22.9 308 
 KMRS HE IS   1A   046 23.53                             107   -0.02 7 22.9 308 
 GAZ  HE  IAML A   046 23.92       148.2 1.00                          24.6 157 
 GAZ  HE ES   2A   046 23.92                             106   -0.20 5 24.6 157 
 MGND HZ IP   1A   046 21.56                             103    0.02 7 30.0  69 
 MGND HE IS   0A   046 25.65                             103   -0.0510 30.0  69 
 MGND HE  IAML A   046 25.65       338.9 1.00                          30.0  69 
 GZT  HZ EP   3A   046 23.17                              99   -0.20 2 40.6  93 
 HASA HE ES   2A   046 42.93                              82   -0.18 5 88.5 218 
 HASA HE  IAML A   046 42.93       272.5 1.00                          88.5 218 
 ATAB HZ EP   1A   046 34.65                              82    0.01 7  106  84 
 MAYA HE  IAML A   047  2.21       471.4 1.00                           157  47 
 MAYA HE ES   3A   047  2.21                              47    0.25 2  157  47 
 HANM HE  IAML A   047  2.53       142.7 1.00                           159  81 
 HANM HE ES   3A   047  2.53                              47    0.28 2  159  81 
 SANL HE ES   3A   047  4.43                              47    0.00 2  169  97 
 SANL HE  IAML A   047  4.43       255.9 1.00                           169  97 
                                                                                
 2023  2 7 0046 37.3 L  37.327  37.229 20.5  TUR  7 0.5 2.2LTUR                1
 GAP=107        0.98       4.7     8.6  6.3  0.1811E+02 -0.2550E+02 -0.9935E+01E
 Action:ARG 23-03-27 17:02 OP:OBSP STATUS:               ID:20230207030535     I
 STAT SP IPHASW D HRMM SECON CODA AMPLIT PERI AZIMU VELO AIN AR TRES W  DIS CAZ7
 NAR  HZ IP   0A   046 40.66                             153   -0.7310 9.61 319 
 GAZ  HZ IP   1A   046 42.46                             137    0.30 7 17.2 186 
 GAZ  HE  IAML A   046 46.11        67.3 1.00                          17.2 186 
 GAZ  HE ES   1A   046 46.11                             137    0.42 7 17.2 186 
 KAHM HE ES   1A   046 49.00                             119    0.58 7 30.0 315 
 KAHM HE  IAML A   046 49.00       455.9 1.00                          30.0 315 
 KMRS HZ IP   1A   046 44.73                             113    0.24 7 35.2 304 
 HASA HZ IP   1A   046 52.97                              91   -0.52 7 91.9 226 
 HANM HE  IAML A   047 19.51       257.9 1.00                           149  79 
 HANM HE ES   2A   047 19.51                              52    0.40 4  149  79 
 NARI HZ EP   2A   047  1.81                              52    0.30 4  149  65 
                                                                                
 2023  2 7 0046 44.9 L  37.593  37.397 12.0  TUR  8 0.7 3.1LTUR                1
 GAP= 90        0.63       3.8     7.6 25.6  0.3688E+01 -0.1584E+03 -0.5895E+01E
 Action:ARG 23-03-27 17:02 OP:OBSP STATUS:               ID:20230207030727     I
 STAT SP IPHASW D HRMM SECON CODA AMPLIT PERI AZIMU VELO AIN AR TRES W  DIS CAZ7
 ANDN HE ES   2A   047 13.60                              81    0.00 5 92.9 269 
 ANDN HE  IAML A   047 13.60       324.9 1.00                          92.9 269 
 KUZU HE ES   2A   047 14.21                              81   -0.02 5 95.3 198 
 KUZU HE  IAML A   047 14.21      1108.8 1.00                          95.3 198 
 DARE HZ EP   3A   047  4.56                              72    0.42 3  109   4 
 SARI HZ IP   0A   047  6.75                              72   -0.0810  125 317 
 URFA HE ES   3A   047 23.24                              72   -0.10 2  127  97 
 URFA HE  IAML A   047 23.24       308.0 1.00                           127  97 
 HANM HZ EP   2A   047  6.81                              50   -0.86 5  131  90 
 SANL HZ EP   2A   047 11.05                              47    1.12 5  149 108 
 SANL HE ES   3A   047 27.31                              47   -0.90 2  149 108 
 SANL HE  IAML A   047 27.31       674.2 1.00                           149 108 
 CUKANHZ EP   3A   047 17.34                              47    1.78 2  191   2 
                                                                                
 2023  2 7 0046 51.2 L  37.833  37.604 12.0  TUR  6 0.6 3.3LTUR                1
 GAP=192        1.06       3.8    22.4 13.9  0.4663E+02  0.2115E+02  0.1785E+02E
 Action:ARG 23-03-27 17:02 OP:OBSP STATUS:               ID:20230207030846     I
 STAT SP IPHASW D HRMM SECON CODA AMPLIT PERI AZIMU VELO AIN AR TRES W  DIS CAZ7
 MGND HZ IP   0A   046 59.51                             103    0.2510 43.3 202 
 GZT  HZ IP   0A   047  0.09                             100   -0.8410 53.2 184 
 GZT  HE IS   0A   047  8.23                             100    0.1610 53.2 184 
 GZT  HE  IAML A   047  8.23      3927.7 1.00                          53.2 184 
 ELBS HZ EP   1A   047  3.11                              81   -0.45 7 68.4 323 
 NZIP HZ EP   2A   047  6.62                              81   -0.24 5 87.9 176 
 NZIP HE ES   1A   047 19.06                              81    0.73 7 87.9 176 
 NZIP HE  IAML A   047 19.06       340.4 1.00                          87.9 176 
 CUGURHZ EP   2A   047 10.34                              72    0.87 4  103 344 
 CUGURHE ES   2A   047 23.54                              72    0.69 4  103 344 
 CUGURHE  IAML A   047 23.54      1776.4 1.00                           103 344 
 CUAYAHZ EP   2A   047 20.24                              47    0.44 4  176 335 
                                                                                
 2023  2 7 0049 19.9 L  37.426  37.454 23.8  TUR  9 0.4 2.2LTUR                1
 GAP= 89        0.59       5.9     4.4  3.3 -0.1244E+02  0.7948E+01 -0.1458E+02E
 Action:ARG 23-03-27 17:02 OP:OBSP STATUS:               ID:20230207034212     I
 STAT SP IPHASW D HRMM SECON CODA AMPLIT PERI AZIMU VELO AIN AR TRES W  DIS CAZ7
 MGND HZ EP   3A   049 23.79                             166   -0.57 2 5.83 330 
 GZT  HZ IP   1A   049 24.14                             152   -0.60 7 12.3 130 
 GZT  HE IS   0A   049 28.59                             152    0.3210 12.3 130 
 GZT  HE  IAML A   049 28.59       528.1 1.00                          12.3 130 
 NAR  HZ EP   2A   049 26.08                             129   -0.09 5 26.5 262 
 NZIP HZ EP   3A   049 27.92                             111   -1.14 2 46.8 155 
 KMRS HE ES   3A   049 36.53                             109    0.08 2 49.8 280 
 KMRS HE  IAML A   049 36.53        29.5 1.00                          49.8 280 
 ANDN HE ES   3A   049 50.40                              80    0.22 2 99.5 280 
 ANDN HE  IAML A   049 50.40       223.7 1.00                          99.5 280 
 MAYA HZ EP   2A   049 41.21                              52   -0.38 4  131  40 
 MAYA HE IS   1A   049 57.62                              52    0.20 6  131  40 
 MAYA HE  IAML A   049 57.62       140.5 1.00                           131  40 
 RHAN HZ EP   2A   049 43.97                              52    0.12 4  150 211 
 CEYT HZ IP   0A   049 45.04                              52    0.17 8  158 254 
                                                                                
 2023  2 7 0050  9.8 L  37.615  37.408  0.0  TUR  9 1.0 2.6LTUR                1
 GAP=130        1.68       4.7     8.9 18.4 -0.1467E+02  0.7085E+02 -0.1391E+02E
 Action:ARG 23-03-27 17:02 OP:OBSP STATUS:               ID:20230207034405     I
 STAT SP IPHASW D HRMM SECON CODA AMPLIT PERI AZIMU VELO AIN AR TRES W  DIS CAZ7
 NAR  HE ES   1A   050 20.06                              58   -0.69 8 33.2 222 
 NAR  HE  IAML A   050 20.06       625.6 1.00                          33.2 222 
 KAHM HZ EP   2A   050 18.92                              58    1.82 5 38.8 254 
 KAHM HE  IAML A   050 21.63       325.1 1.00                          38.8 254 
 KAHM HE ES   2A   050 21.63                              58   -0.78 5 38.8 254 
 ELBS HE  IAML A   050 35.24       360.7 1.00                          82.4 343 
 ELBS HE IS   0A   050 35.24                              58   -0.4910 82.4 343 
 NARI HZ IP   0A   050 30.97                              58   -0.87 9  123  76 
 SARI HE ES   2A   050 48.94                              58    0.65 5  124 316 
 SARI HE  IAML A   050 48.94       130.7 1.00                           124 316 
 HASA HZ IP   0A   050 32.60                              58    0.25 9  126 221 
 CEYT HZ IP   0A   050 37.64                              38   -0.33 8  162 246 
 RHAN HE IS   1A   051  0.36                              38    0.70 6  167 206 
 RHAN HE  IAML A   051  0.36       164.3 1.00                           167 206 
 KEMA HZ IP   0A   050 45.86                              38    2.01 7  207  27 
                                                                                
 2023  2 7 0050 20.1 L  37.307  37.415  0.0  TUR  6 0.9 3.2LTUR                1
 GAP=206        1.08      28.6     9.9 70.5  0.2302E+03 -0.5443E+03 -0.1837E+04E
 Action:ARG 23-03-27 17:02 OP:OBSP STATUS:               ID:20230207034500     I
 STAT SP IPHASW D HRMM SECON CODA AMPLIT PERI AZIMU VELO AIN AR TRES W  DIS CAZ7
 KAHM HZ IP   0A   050 28.30                              58   -0.0710 44.5 302 
 URFA HZ IP   0A   050 42.08                              58   -0.47 8  125  83 
 SANL HZ EP   1A   050 45.89                              58    0.75 6  140  96 
 MAYA HE ES   2A   051  4.73                              58    0.20 4  144  38 
 MAYA HE  IAML A   051  4.73       407.5 1.00                           144  38 
 CUGURHZ EP   2A   050 47.02                              38   -0.92 4  158 355 
 CUAYAHZ EP   2A   050 58.94                              38    2.42 3  225 345 
                                                                                
 2023  2 7 0051 40.5 L  37.562  37.259  3.9  TUR 14 0.5 2.9LTUR                1
 GAP= 88        0.78       3.8     3.0  7.6  0.1102E+01 -0.2702E+01 -0.1442E+02E
 Action:ARG 23-03-27 17:02 OP:OBSP STATUS:               ID:20230207034522     I
 STAT SP IPHASW D HRMM SECON CODA AMPLIT PERI AZIMU VELO AIN AR TRES W  DIS CAZ7
 MGND HZ EP   1A   051 43.76                              99   -0.11 7 17.4 125 
 MGND HE  IAML A   051 46.71      4517.4 1.00                          17.4 125 
 MGND HE ES   2A   051 46.71                              99    0.35 5 17.4 125 
 NAR  HZ IP   0A   051 44.37                              97   -0.0510 20.9 206 
 NAR  HE ES   3A   051 47.98                              97    0.66 2 20.9 206 
 NAR  HE  IAML A   051 47.98      2812.9 1.00                          20.9 206 
 GZT  HZ IP   1A   051 47.39                              94    0.43 7 35.2 131 
 GZT  HE IS   1A   051 51.23                              94   -0.47 7 35.2 131 
 GZT  HE  IAML A   051 51.23      3913.1 1.00                          35.2 131 
 GAZ  HE  IAML A   051 53.82       205.5 1.00                          43.5 186 
 GAZ  HE ES   2A   051 53.82                              93   -0.37 5 43.5 186 
 NZIP HZ EP   2A   051 54.10                              92    1.37 5 68.3 147 
 NZIP HE IS   1A   052  1.11                              92   -0.58 7 68.3 147 
 NZIP HE  IAML A   052  1.11       532.0 1.00                          68.3 147 
 ANDN HZ EP   2A   051 54.42                              91   -0.51 5 80.8 272 
 ATAB HZ IP   1A   051 57.03                              91    0.18 7 92.1  96 
 ATAB HE ES   3A   052  8.75                              91   -0.07 2 92.1  96 
 ATAB HE  IAML A   052  8.75      1595.1 1.00                          92.1  96 
 SAIM HZ EP   2A   051 59.56                              91   -1.07 4  113 294 
 HASA HZ IP   1A   052  1.27                              91    0.75 6  113 218 
 MAYA HE  IAML A   052 21.93       147.2 1.00                           133  50 
 MAYA HE ES   3A   052 21.93                              91    0.66 2  133  50 
 NARI HZ EP   3A   052  4.37                              91   -0.39 2  137  74 
 HANM HZ EP   2A   052  5.42                              49   -0.34 4  143  89 
 HEKM HE  IAML A   052 28.23       434.9 1.00                           159  23 
 HEKM HE ES   3A   052 28.23                              47    0.23 2  159  23 
 SANL HZ IP   0A   052  7.88                              47    0.07 8  159 105 
                                                                                
 2023  2 7 0053 39.0 L  37.475  37.166 32.2  TUR  7 0.8 2.7LTUR                1
 GAP=123        0.79      11.7     6.7 10.0  0.1016E+02  0.3451E+02 -0.6241E+02E
 Action:ARG 23-03-27 17:02 OP:OBSP STATUS:               ID:20230207041534     I
 STAT SP IPHASW D HRMM SECON CODA AMPLIT PERI AZIMU VELO AIN AR TRES W  DIS CAZ7
 MGND HZ EP   3A   053 44.95                             136   -0.90 3 22.5  91 
 MGND HE  IAML A   053 50.93       587.7 1.00                          22.5  91 
 MGND HE ES   1A   053 50.93                             136    0.11 9 22.5  91 
 KMRS HZ IP   1A   053 45.93                             133    0.04 9 23.8 278 
 GAZ  HZ EP   3A   053 49.31                             118    2.24 3 33.8 173 
 GZT  HE  IAML A   053 53.27       924.9 1.00                          37.4 111 
 GZT  HE ES   2A   053 53.27                             112   -0.43 6 37.4 111 
 ANDN HZ EP   1A   053 51.98                              90   -0.38 8 73.5 279 
 SARI HZ IP   0A   053 59.00                              71    0.0810  123 328 
 BNN  HZ EP   3A   054 10.18                              69    2.54 2  192 323 
                                                                                
 2023  2 7 0054 49.9 L  37.864  37.429  3.6  TUR 16 0.6 2.6LTUR                1
 GAP=103        0.76       2.2     3.8  5.7 -0.3816E+01  0.3633E+01 -0.1988E+00E
 Action:ARG 23-03-27 17:02 OP:OBSP STATUS:               ID:20230207042108     I
 STAT SP IPHASW D HRMM SECON CODA AMPLIT PERI AZIMU VELO AIN AR TRES W  DIS CAZ7
 MGND HZ EP   1A   054 58.13                              92    0.29 7 43.6 181 
 MGND HE ES   1A   055  3.49                              92   -0.17 7 43.6 181 
 MGND HE  IAML A   055  3.49       262.0 1.00                          43.6 181 
 ELBS HE  IAML A   055  8.89       557.1 1.00                          57.3 333 
 ELBS HE ES   3A   055  8.89                              92    1.07 2 57.3 333 
 NAR  HE ES   3A   055  7.42                              92   -0.40 2 57.7 205 
 GZT  HE IS   1A   055  7.54                              92   -0.36 7 57.7 168 
 GZT  HE  IAML A   055  7.54       484.5 1.00                          57.7 168 
 NAR  HE  IAML A   055  7.42       643.8 1.00                          57.7 205 
 GZT  HZ EP   3A   055  0.41                              92    0.12 2 57.7 168 
 KMRS HE  IAML A   055  8.62        46.9 1.00                          61.4 230 
 KMRS HE ES   2A   055  8.62                              92   -0.31 5 61.4 230 
 DARE HZ EP   2A   055  3.42                              91   -0.53 5 78.6   3 
 ATAB HZ IP   1A   055  5.72                              91    0.17 7 88.1 120 
 NZIP HZ EP   3A   055  7.26                              91    0.69 2 93.7 167 
 CUGURHE ES   3A   055 20.68                              91    1.02 2 96.3 352 
 CUGURHE  IAML A   055 20.68       560.0 1.00                          96.3 352 
 MAYA HE IS   1A   055 20.13                              91   -0.95 7  101  59 
 MAYA HE  IAML A   055 20.13       265.3 1.00                           101  59 
 NARI HE ES   2A   055 27.07                              91    1.20 4  117  89 
 NARI HE  IAML A   055 27.07        53.7 1.00                           117  89 
 HEKM HE ES   2A   055 28.04                              91    0.61 4  122  22 
 HEKM HE  IAML A   055 28.04       387.9 1.00                           122  22 
 KUZU HE  IAML A   055 29.17       647.9 1.00                           125 195 
 KUZU HE ES   2A   055 29.17                              91    0.96 4  125 195 
 HANM HE  IAML A   055 31.25        99.5 1.00                           132 103 
 HANM HE ES   3A   055 31.25                              91    1.02 2  132 103 
 HASA HE  IAML A   055 34.79       226.4 1.00                           149 214 
 HASA HE ES   1A   055 34.79                              49   -0.23 6  149 214 
 SANL HE ES   2A   055 37.40                              47    0.45 4  158 119 
 SANL HE  IAML A   055 37.40       160.7 1.00                           158 119 
                                                                                
