 2023  2 7 21 8  1.8 L                       TUR                               1
 Action:ARG 23-03-27 17:02 OP:OBSP STATUS:               ID:20230207210801     I
 STAT SP IPHASW D HRMM SECON CODA AMPLIT PERI AZIMU VELO AIN AR TRES W  DIS CAZ7
 ATAB HZ EP   2A  2359 57.94                                                    
 MGND HE IS   1A   0 0  4.86                                                    
 KAHM HZ IP   1A  2359 59.84                                                    
 MGND HE  IAML A   0 0  4.86       168.5 1.00                                   
 NARI HZ EP   3A  2359 59.51                                                    
 NZIP HZ EP   1A   0 0  4.64                                                    
 URFA HE ES   3A   0 0 19.55                                                    
 HANM HZ EP   2A   0 0  4.97                                                    
 HANM HE ES   2A   0 0 19.13                                                    
 HANM HE  IAML A   0 0 19.13        29.8 1.00                                   
 GZT  HZ EP   3A  2359 58.39                                                    
 ELZG HZ IP   1A   0 0  3.72                                                    
 ELBS HE  IAML A   0 0  2.05       134.9 1.00                                   
 ELBS HE ES   3A   0 0  2.05                                                    
 DARE HE  IAML A   0 0  2.91        14.8 1.00                                   
 DARE HE ES   2A   0 0  2.91                                                    
 URFA HE  IAML A   0 0 19.55        32.7 1.00                                   
                                                                                
 2023  2 7 0001  0.8 L  37.504  37.203  8.7  TUR 21 0.5 3.5LTUR                1
 GAP= 53        0.73       2.0     1.4  2.5  0.6857E+00 -0.8240E+00 -0.1716E+01E
 Action:ARG 23-03-27 17:02 OP:OBSP STATUS:               ID:20230207210811     I
 STAT SP IPHASW D HRMM SECON CODA AMPLIT PERI AZIMU VELO AIN AR TRES W  DIS CAZ7
 NAR  HZ IP   0A   0 1  3.75                             122   -0.0010 13.0 198 
 NAR  HE IS   1A   0 1  6.07                             122    0.18 7 13.0 198 
 NAR  HE  IAML A   0 1  6.07     35274.6 1.00                          13.0 198 
 KAHM HZ IP   0A   0 1  4.80                             112    0.1110 19.1 274 
 KAHM HE  IAML A   0 1  7.57     22276.5 1.00                          19.1 274 
 KAHM HE IS   1A   0 1  7.57                             112    0.06 7 19.1 274 
 MGND HZ IP   0A   0 1  4.82                             112    0.0010 19.6 101 
 MGND HE IS   0A   0 1  7.84                             112    0.1110 19.6 101 
 MGND HE  IAML A   0 1  7.84     22196.3 1.00                          19.6 101 
 KMRS HZ IP   0A   0 1  5.99                             104    0.0410 26.8 270 
 KMRS HE IS   1A   0 1  9.57                             104   -0.12 7 26.8 270 
 KMRS HE  IAML A   0 1  9.57      1155.7 1.00                          26.8 270 
 GZT  HZ IP   0A   0 1  7.54                             100    0.0210 35.7 117 
 GZT  HE ES   2A   0 1 12.27                             100   -0.14 5 35.7 117 
 GZT  HE  IAML A   0 1 12.27      7382.3 1.00                          35.7 117 
 GAZ  HZ IP   1A   0 1  7.54                              99   -0.16 7 36.8 179 
 GAZ  HE ES   2A   0 1 12.41                              99   -0.30 5 36.8 179 
 GAZ  HE  IAML A   0 1 12.41       829.9 1.00                          36.8 179 
 NZIP HZ IP   0A   0 1 12.78                              92    0.0410 66.0 141 
 NZIP HE ES   2A   0 1 20.86                              92   -0.57 5 66.0 141 
 NZIP HE  IAML A   0 1 20.86       881.4 1.00                          66.0 141 
 ANDN HZ IP   0A   0 1 14.36                              91   -0.17 9 76.3 277 
 ANDN HE IS   1A   0 1 24.32                              91   -0.22 7 76.3 277 
 ANDN HE  IAML A   0 1 24.32      4275.0 1.00                          76.3 277 
 KUZU HZ IP   0A   0 1 15.63                              91    0.19 9 81.8 188 
 ATAB HZ IP   0A   0 1 17.99                              91   -0.00 9 96.6  92 
 HASA HZ EP   2A   0 1 19.39                              91   -0.05 4  105 217 
 SAIM HZ IP   0A   0 1 20.40                              91   -0.28 9  112 298 
 SARI HZ EP   3A   0 1 22.78                              72    0.35 2  122 326 
 CUGURHZ EP   2A   0 1 24.96                              72    0.29 4  136   3 
 MAYA HE  IAML A   0 1 42.56      2442.3 1.00                           141  49 
 MAYA HE IS   1A   0 1 42.56                              50   -0.69 6  141  49 
 NARI HZ IP   0A   0 1 25.25                              50   -0.44 8  144  72 
 RHAN HE ES   1A   0 1 44.93                              47    0.30 6  148 201 
 RHAN HE  IAML A   0 1 44.93       611.0 1.00                           148 201 
 HANM HZ EP   2A   0 1 25.83                              47   -0.42 4  149  86 
 SANL HE ES   2A   0 1 48.27                              47    0.39 4  163 103 
 SANL HE  IAML A   0 1 48.27      1640.6 1.00                           163 103 
 HEKM HZ EP   1A   0 1 29.68                              47    0.94 6  166  23 
 CUKANHZ EP   2A   0 1 36.36                              47    3.08 3  203   6 
                                                                                
 2023  2 7 0003 27.7 L  37.467  36.964  2.7  TUR  8 0.5 2.3LTUR                1
 GAP=137        0.85       4.0     3.5 21.3  0.5970E+01  0.2102E+02  0.7129E+02E
 Action:ARG 23-03-27 17:02 OP:OBSP STATUS:               ID:20230207210950     I
 STAT SP IPHASW D HRMM SECON CODA AMPLIT PERI AZIMU VELO AIN AR TRES W  DIS CAZ7
 KAHM HZ IP   0A   0 3 28.83                             108   -0.1410 5.82  20 
 KAHM HE  IAML A   0 3 29.99     37164.1 1.00                          5.82  20 
 KAHM HE IS   0A   0 3 29.99                             108    0.0510 5.82  20 
 KMRS HZ IP   0A   0 3 29.21                             103    0.0210 7.08 306 
 NAR  HZ IP   0A   0 3 31.06                              93   -0.2110 19.0 116 
 NAR  HE  IAML A   0 3 34.18      1526.2 1.00                          19.0 116 
 NAR  HE ES   3A   0 3 34.18                              93    0.27 2 19.0 116 
 GAZ  HZ IP   1A   0 3 34.71                              91   -0.14 7 39.3 146 
 GAZ  HE IS   1A   0 3 39.75                              91   -0.36 7 39.3 146 
 GAZ  HE  IAML A   0 3 39.75        70.5 1.00                          39.3 146 
 MGND HZ EP   2A   0 3 34.55                              91   -0.49 5 40.3  89 
 MGND HE  IAML A   0 3 40.37       107.0 1.00                          40.3  89 
 MGND HE ES   2A   0 3 40.37                              91   -0.07 5 40.3  89 
 ANDN HZ EP   3A   0 3 38.28                              91    0.47 2 56.1 283 
 ANDN HE  IAML A   0 3 45.07       221.8 1.00                          56.1 283 
 ANDN HE ES   2A   0 3 45.07                              91   -0.16 5 56.1 283 
 NZIP HZ IP   1A   0 3 43.16                              91    1.44 7 78.7 127 
 MAYA HZ EP   3A   0 3 55.07                              47   -0.25 2  160  53 
                                                                                
 2023  2 7 0003 45.7 L  38.423  37.245  9.3  TUR 21 0.8 3.3LTUR                1
 GAP= 45        1.18       3.1     3.8  4.3 -0.5574E+01 -0.4345E+01  0.3215E+01E
 Action:ARG 23-03-27 17:02 OP:OBSP STATUS:               ID:20230207211024     I
 STAT SP IPHASW D HRMM SECON CODA AMPLIT PERI AZIMU VELO AIN AR TRES W  DIS CAZ7
 ELBS HZ IP   0A   0 3 48.85                             122   -0.1810 14.6 222 
 ELBS HE IS   0A   0 3 51.68                             122    0.2310 14.6 222 
 ELBS HE  IAML A   0 3 51.68     54681.8 1.00                          14.6 222 
 DARE HZ IP   0A   0 3 50.73                             107   -0.1710 26.5  52 
 DARE HE  IAML A   0 3 55.22      1525.4 1.00                          26.5  52 
 DARE HE ES   1A   0 3 55.22                             107    0.54 7 26.5  52 
 CUGURHZ IP   1A   0 3 52.89                             103    0.79 7 33.5   4 
 SARI HZ IP   0A   0 3 57.92                              93   -0.8710 72.2 269 
 SARI HE  IAML A   0 4  8.74       875.5 1.00                          72.2 269 
 SARI HE ES   2A   0 4  8.74                              93    0.41 5 72.2 269 
 HEKM HZ EP   1A   0 3 59.69                              92   -0.51 7 80.2  51 
 HEKM HE ES   2A   0 4 11.19                              92    0.43 5 80.2  51 
 HEKM HE  IAML A   0 4 11.19      4547.9 1.00                          80.2  51 
 KAHM HZ IP   0A   0 4  4.39                              91    0.38 9  103 193 
 CUAYAHZ EP   2A   0 4  4.79                              91    0.67 4  103 335 
 MAYA HE  IAML A   0 4 15.57       522.0 1.00                           104  96 
 MAYA HE ES   2A   0 4 15.57                              91   -2.09 4  104  96 
 MGND HZ IP   0A   0 4  5.16                              91    0.46 9  107 172 
 SAIM HZ EP   1A   0 4  5.02                              72   -0.80 6  113 244 
 NAR  HZ EP   2A   0 4  5.90                              72   -0.11 4  115 184 
 GZT  HE ES   3A   0 4 22.35                              72   -0.55 2  122 167 
 ANDN HZ EP   1A   0 4  7.40                              72    0.05 6  122 220 
 GZT  HZ IP   1A   0 4  7.03                              72   -0.18 6  122 167 
 GZT  HE  IAML A   0 4 22.35      2324.2 1.00                           122 167 
 BNN  HZ EP   1A   0 4  8.61                              72   -0.13 6  131 292 
 GAZ  HE  IAML A   0 4 26.70       127.4 1.00                           139 181 
 GAZ  HE ES   2A   0 4 26.70                              50   -0.81 4  139 181 
 ATAB HE ES   2A   0 4 26.57                              50   -1.18 4  140 139 
 ATAB HE  IAML A   0 4 26.57       869.1 1.00                           140 139 
 KEMA HZ EP   2A   0 4 10.87                              47    0.38 4  143  49 
 NARI HE ES   3A   0 4 28.75                              47   -0.29 2  146 114 
 NARI HE  IAML A   0 4 28.75       225.3 1.00                           146 114 
 HANM HZ IP   0A   0 4 14.09                              47    0.09 7  171 123 
 KUZU HE  IAML A   0 4 39.05      1176.3 1.00                           184 185 
 KUZU HE ES   2A   0 4 39.05                              47    1.69 4  184 185 
 HASA HE ES   2A   0 4 43.35                              47    3.04 3  197 200 
 HASA HE  IAML A   0 4 43.35       314.1 1.00                           197 200 
                                                                                
 2023  2 7 0004 49.7 L  37.993  37.637 14.0  TUR 12 0.3 2.5LTUR                1
 GAP= 80        0.44       1.2     2.3  5.1 -0.1100E+00 -0.5711E+01  0.7590E+00E
 Action:ARG 23-03-27 17:02 OP:OBSP STATUS:               ID:20230207211100     I
 STAT SP IPHASW D HRMM SECON CODA AMPLIT PERI AZIMU VELO AIN AR TRES W  DIS CAZ7
 ELBS HE ES   1A   0 5  7.94                              99   -0.02 8 57.5 310 
 ELBS HE  IAML A   0 5  7.94       996.7 1.00                          57.5 310 
 MGND HZ IP   0A   0 5  0.43                              98   -0.3810 61.0 198 
 DARE HE IS   1A   0 5 10.33                              97    0.04 7 65.5 348 
 DARE HE  IAML A   0 5 10.33       142.1 1.00                          65.5 348 
 GZT  HZ IP   1A   0 5  2.66                              96    0.13 7 71.1 185 
 KAHM HE  IAML A   0 5 14.17       241.5 1.00                          77.9 227 
 KAHM HE ES   2A   0 5 14.17                              95    0.32 5 77.9 227 
 MAYA HZ EP   3A   0 5  3.45                              95   -0.32 2 78.3  62 
 ATAB HE ES   2A   0 5 15.56                              74    0.49 5 82.1 135 
 ATAB HE  IAML A   0 5 15.56       370.5 1.00                          82.1 135 
 KMRS HE ES   1A   0 5 16.02                              74    0.25 7 84.5 230 
 KMRS HE  IAML A   0 5 16.02        49.8 1.00                          84.5 230 
 NARI HZ EP   2A   0 5  7.49                              74    0.22 5 99.6  97 
 HEKM HZ EP   2A   0 5  7.89                              74    0.06 5  102  16 
 HEKM HE  IAML A   0 5 21.21       427.2 1.00                           102  16 
 HEKM HE ES   3A   0 5 21.21                              74    0.12 2  102  16 
 NZIP HZ EP   3A   0 5  7.76                              74   -0.48 2  105 178 
 ELZG HZ IP   1A   0 5 12.15                              51   -0.07 6  131  64 
                                                                                
 2023  2 7 0006 22.9 L  37.638  37.255  2.8  TUR 12 0.6 2.8LTUR                1
 GAP= 84        0.95       3.6     3.8 17.1  0.3288E+01 -0.2276E+02 -0.1872E+02E
 Action:ARG 23-03-27 17:02 OP:OBSP STATUS:               ID:20230207211215     I
 STAT SP IPHASW D HRMM SECON CODA AMPLIT PERI AZIMU VELO AIN AR TRES W  DIS CAZ7
 MGND HZ IP   1A   0 6 27.57                              93    0.23 7 23.6 142 
 KAHM HZ IP   0A   0 6 28.19                              92    0.2510 27.3 240 
 KAHM HE IS   1A   0 6 31.45                              92   -0.17 7 27.3 240 
 KAHM HE  IAML A   0 6 31.45      3391.1 1.00                          27.3 240 
 NAR  HZ IP   0A   0 6 27.62                              92   -0.5710 28.7 198 
 KMRS HZ EP   3A   0 6 29.63                              92    0.40 2 34.7 245 
 KMRS HE  IAML A   0 6 33.81       291.6 1.00                          34.7 245 
 KMRS HE IS   0A   0 6 33.81                              92   -0.0610 34.7 245 
 GZT  HE  IAML A   0 6 34.95      3101.3 1.00                          41.4 139 
 GZT  HE ES   2A   0 6 34.95                              91   -1.05 5 41.4 139 
 ANDN HE ES   3A   0 6 48.14                              91    0.28 2 80.6 266 
 ANDN HE  IAML A   0 6 48.14       730.6 1.00                          80.6 266 
 KUZU HZ EP   1A   0 6 41.49                              91    1.30 7 97.3 190 
 DARE HE  IAML A   0 6 56.64        60.8 1.00                           105  11 
 DARE HE ES   3A   0 6 56.64                              90    1.27 2  105  11 
 SARI HE ES   1A   0 6 57.16                              90   -0.49 6  113 320 
 SARI HE  IAML A   0 6 57.16       258.5 1.00                           113 320 
 HASA HZ EP   2A   0 6 44.59                              90    0.48 4  120 215 
 HASA HE IS   1A   0 6 59.55                              90   -0.05 6  120 215 
 HASA HE  IAML A   0 6 59.55       372.2 1.00                           120 215 
 HEKM HE  IAML A   0 7  7.91       511.8 1.00                           151  24 
 HEKM HE ES   3A   0 7  7.91                              49   -1.04 2  151  24 
 SANL HZ EP   2A   0 6 51.36                              47    0.64 4  162 108 
                                                                                
 2023  2 7 0007 14.1 L  37.437  37.076 15.6  TUR  6 0.1 2.1LTUR                1
 GAP=138        0.32       2.0     1.5  2.1  0.2071E+01 -0.8464E+00 -0.5397E+00E
 Action:ARG 23-03-27 17:02 OP:OBSP STATUS:               ID:20230207211319     I
 STAT SP IPHASW D HRMM SECON CODA AMPLIT PERI AZIMU VELO AIN AR TRES W  DIS CAZ7
 NAR  HZ IP   0A   0 7 17.43                             150    0.0810 8.78 125 
 NAR  HE  IAML A   0 7 19.79      2072.8 1.00                          8.78 125 
 NAR  HE IS   0A   0 7 19.79                             150    0.0310 8.78 125 
 KAHM HZ IP   0A   0 7 17.72                             142    0.0910 11.8 318 
 KAHM HE IS   0A   0 7 20.14                             142   -0.1010 11.8 318 
 KAHM HE  IAML A   0 7 20.14       904.9 1.00                          11.8 318 
 KMRS HZ IP   1A   0 7 18.31                             131    0.03 7 17.3 296 
 KMRS HE IS   0A   0 7 21.34                             131   -0.0310 17.3 296 
 KMRS HE  IAML A   0 7 21.34        98.5 1.00                          17.3 296 
 MGND HZ EP   1A   0 7 20.39                             115    0.10 7 30.7  83 
 MGND HE ES   1A   0 7 24.78                             115   -0.06 7 30.7  83 
 MGND HE  IAML A   0 7 24.78       102.9 1.00                          30.7  83 
 GAZ  HZ EP   2A   0 7 20.13                             114   -0.31 5 31.7 158 
 GZT  HE  IAML A   0 7 28.01       213.4 1.00                          43.9 102 
 GZT  HE ES   3A   0 7 28.01                             107   -0.48 2 43.9 102 
                                                                                
 2023  2 7 0007 36.5 L  37.956  37.246  2.1  TUR  7 0.7 2.9LTUR                1
 GAP=148        1.26       3.5     6.5 14.0  0.5869E+01 -0.7817E+00 -0.4588E+01E
 Action:ARG 23-03-27 17:02 OP:OBSP STATUS:               ID:20230207004918     I
 STAT SP IPHASW D HRMM SECON CODA AMPLIT PERI AZIMU VELO AIN AR TRES W  DIS CAZ7
 ELBS HZ EP   1A   0 7 44.91                              58    0.98 7 42.1 346 
 ELBS HE  IAML A   0 7 49.23      5177.3 1.00                          42.1 346 
 ELBS HE IS   0A   0 7 49.23                              58   -0.1610 42.1 346 
 DARE HZ EP   1A   0 7 49.70                              58    0.67 7 71.4  17 
 DARE HE ES   1A   0 7 57.71                              58   -0.51 7 71.4  17 
 DARE HE  IAML A   0 7 57.71        69.6 1.00                          71.4  17 
 GZT  HE ES   1A   0 7 57.78                              58   -0.69 7 72.2 157 
 GZT  HE  IAML A   0 7 57.78       474.3 1.00                          72.2 157 
 CUGURHZ EP   2A   0 7 51.82                              58    0.33 5 85.2   2 
 CUGURHE  IAML A   0 8  1.37      1949.2 1.00                          85.2   2 
 CUGURHE IS   1A   0 8  1.37                              58   -1.10 7 85.2   2 
 SARI HZ IP   1A   0 7 52.80                              58    0.78 7 88.1 305 
 SARI HE ES   1A   0 8  2.58                              58   -0.81 7 88.1 305 
 SARI HE  IAML A   0 8  2.58       168.7 1.00                          88.1 305 
 HEKM HZ EP   1A   0 7 58.05                              58    0.45 6  120  31 
 HEKM HE ES   2A   0 8 13.05                              58    0.00 4  120  31 
 HEKM HE  IAML A   0 8 13.05       376.7 1.00                           120  31 
 CUKANHZ EP   2A   0 8  4.08                              38    1.13 4  152   7 
                                                                                
