 2023  2 7 0007 55.5 L  37.265  36.852  2.0  TUR 17 0.6 2.9LTUR                1
 GAP= 98        0.93       1.9     2.9  7.9 -0.3972E+00 -0.8750E+01 -0.3379E+01E
 Action:ARG 23-03-27 17:02 OP:OBSP STATUS:               ID:20230207005011     I
 STAT SP IPHASW D HRMM SECON CODA AMPLIT PERI AZIMU VELO AIN AR TRES W  DIS CAZ7
 KAHM HZ IP   0A   0 8  0.71                              58   -0.1810 30.3  23 
 KAHM HE  IAML A   0 8  4.44      1511.8 1.00                          30.3  23 
 KAHM HE IS   0A   0 8  4.44                              58   -0.3610 30.3  23 
 NAR  HZ IP   0A   0 8  0.95                              58    0.0310 30.5  62 
 NAR  HE IS   0A   0 8  4.95                              58    0.1010 30.5  62 
 NAR  HE  IAML A   0 8  4.95      1784.9 1.00                          30.5  62 
 GAZ  HZ EP   2A   0 8  1.13                              58   -0.33 5 33.3 108 
 GAZ  HE  IAML A   0 8  5.26       427.0 1.00                          33.3 108 
 GAZ  HE IS   1A   0 8  5.26                              58   -0.53 7 33.3 108 
 MGND HZ EP   2A   0 8  5.61                              58    0.31 5 55.3  65 
 MGND HE IS   1A   0 8 11.93                              58   -0.50 7 55.3  65 
 MGND HE  IAML A   0 8 11.93       261.7 1.00                          55.3  65 
 ANDN HZ IP   0A   0 8  5.21                              58   -0.3810 56.9 308 
 KUZU HZ IP   1A   0 8  5.61                              58   -0.14 7 58.0 160 
 KUZU HE ES   2A   0 8 12.96                              58   -0.24 5 58.0 160 
 KUZU HE  IAML A   0 8 12.96      1691.0 1.00                          58.0 160 
 GZT  HZ EP   1A   0 8  7.59                              58    0.83 7 63.6  81 
 HASA HZ IP   1A   0 8  6.83                              58   -0.24 7 65.7 210 
 HASA HE ES   2A   0 8 15.55                              58    0.06 5 65.7 210 
 HASA HE  IAML A   0 8 15.55       661.0 1.00                          65.7 210 
 NZIP HZ IP   1A   0 8  9.90                              58    0.80 7 77.1 108 
 SAIM HZ EP   2A   0 8 14.66                              58    0.81 4  104 320 
 RHAN HZ EP   1A   0 8 15.57                              58    0.12 6  114 191 
 RHAN HE  IAML A   0 8 29.79       435.6 1.00                           114 191 
 RHAN HE ES   3A   0 8 29.79                              58   -0.20 2  114 191 
 ELBS HE ES   1A   0 8 32.66                              58    0.58 6  120  12 
 ELBS HE  IAML A   0 8 32.66       522.0 1.00                           120  12 
 ATAB HZ IP   0A   0 8 17.63                              58   -0.64 8  130  79 
 SARI HE ES   3A   0 8 35.20                              58   -0.67 2  132 343 
 SARI HE  IAML A   0 8 35.20       252.5 1.00                           132 343 
 CUGURHZ EP   2A   0 8 25.42                              38    1.64 4  166  13 
 CUGURHE  IAML A   0 8 45.34       878.2 1.00                           166  13 
 CUGURHE ES   3A   0 8 45.34                              38    0.94 2  166  13 
 NARI HZ IP   0A   0 8 26.53                              38    0.79 7  182  67 
 SANL HZ EP   2A   0 8 27.89                              38    1.21 3  190  93 
                                                                                
 2023  2 7 0008 20.5 L  37.389  36.983 14.3  TUR  6 0.2 2.2LTUR                1
 GAP=151        0.50       2.4     2.9  5.0  0.5176E+01  0.4324E+01  0.6522E+01E
 Action:ARG 23-03-27 17:02 OP:OBSP STATUS:               ID:20230207005021     I
 STAT SP IPHASW D HRMM SECON CODA AMPLIT PERI AZIMU VELO AIN AR TRES W  DIS CAZ7
 KAHM HZ IP   0A   0 8 24.19                             134    0.0110 14.2   2 
 KAHM HE  IAML A   0 8 26.65      1402.8 1.00                          14.2   2 
 KAHM HE ES   1A   0 8 26.65                             134   -0.21 7 14.2   2 
 KMRS HZ IP   0A   0 8 24.37                             133    0.1110 14.8 331 
 KMRS HE  IAML A   0 8 26.92       197.5 1.00                          14.8 331 
 KMRS HE IS   0A   0 8 26.92                             133   -0.0810 14.8 331 
 NAR  HZ IP   0A   0 8 24.49                             132    0.1410 15.5  89 
 NAR  HE IS   0A   0 8 27.37                             132    0.2110 15.5  89 
 NAR  HE  IAML A   0 8 27.37      3322.8 1.00                          15.5  89 
 GAZ  HZ EP   2A   0 8 27.19                             112    0.45 5 31.4 140 
 GAZ  HE IS   0A   0 8 31.06                             112   -0.2310 31.4 140 
 GAZ  HE  IAML A   0 8 31.06       136.4 1.00                          31.4 140 
 MGND HE ES   2A   0 8 33.12                             107   -0.55 5 39.8  77 
 MGND HE  IAML A   0 8 33.12       200.0 1.00                          39.8  77 
 ANDN HZ EP   3A   0 8 31.30                              99   -0.24 2 60.2 291 
                                                                                
 2023  2 7 0009 48.3 L  37.697  37.333  7.6  TUR 10 0.7 2.5LTUR                1
 GAP=116        0.85       4.0     6.2 10.8 -0.4940E+01 -0.1893E+02 -0.1494E+02E
 Action:ARG 23-03-27 17:02 OP:OBSP STATUS:               ID:20230207005141     I
 STAT SP IPHASW D HRMM SECON CODA AMPLIT PERI AZIMU VELO AIN AR TRES W  DIS CAZ7
 NAR  HZ EP   2A   0 9 55.40                              99    0.25 5 37.3 205 
 KMRS HE  IAML A   010  3.20        76.4 1.00                          43.8 241 
 KMRS HE ES   3A   010  3.20                              98    1.09 2 43.8 241 
 GAZ  HE ES   3A   010  5.74                              96   -1.11 2 59.3 191 
 GAZ  HE  IAML A   010  5.74       101.0 1.00                          59.3 191 
 NZIP HZ IP   1A   010  2.24                              82   -0.13 7 78.7 157 
 CUGURHE ES   2A   010 23.30                              82   -0.07 4  114 357 
 CUGURHE  IAML A   010 23.30       851.5 1.00                           114 357 
 MAYA HZ EP   2A   010  8.59                              82   -0.71 4  119  54 
 MAYA HE ES   2A   010 25.45                              82    0.79 4  119  54 
 MAYA HE  IAML A   010 25.45       337.3 1.00                           119  54 
 NARI HE ES   1A   010 27.27                              70    0.04 6  127  80 
 NARI HE  IAML A   010 27.27       114.9 1.00                           127  80 
 HEKM HZ EP   1A   010 12.17                              49   -1.02 6  142  22 
 ELZG HZ EP   2A   010 17.49                              47    0.87 4  170  58 
 KEMA HZ EP   1A   010 21.60                              46    0.93 5  202  30 
                                                                                
 2023  2 7 0011 33.7 L  37.859  37.817  2.0  TUR 25 0.6 3.2LTUR                1
 GAP= 52        0.90       1.8     2.0  6.0 -0.9160E+00  0.5809E+00  0.4547E+00E
 Action:ARG 23-03-27 17:02 OP:OBSP STATUS:               ID:20230207005339     I
 STAT SP IPHASW D HRMM SECON CODA AMPLIT PERI AZIMU VELO AIN AR TRES W  DIS CAZ7
 MGND HZ IP   0A   011 43.80                              58    0.2710 55.4 219 
 MGND HE ES   1A   011 50.80                              58    0.12 7 55.4 219 
 MGND HE  IAML A   011 50.80      1570.4 1.00                          55.4 219 
 GZT  HZ IP   0A   011 44.54                              58    0.1710 60.3 202 
 GZT  HE IS   0A   011 52.03                              58   -0.1110 60.3 202 
 GZT  HE  IAML A   011 52.03      6111.9 1.00                          60.3 202 
 ATAB HZ IP   1A   011 44.72                              58    0.38 7 60.4 136 
 ATAB HE ES   2A   011 52.40                              58    0.32 5 60.4 136 
 ATAB HE  IAML A   011 52.40      4319.2 1.00                          60.4 136 
 MAYA HZ IP   0A   011 47.40                              58    0.5610 74.4  46 
 MAYA HE IS   1A   011 55.89                              58   -0.52 7 74.4  46 
 MAYA HE  IAML A   011 55.89       618.9 1.00                          74.4  46 
 NAR  HZ EP   2A   011 47.47                              58    0.05 5 77.9 229 
 NAR  HE  IAML A   011 57.14      1639.1 1.00                          77.9 229 
 NAR  HE ES   3A   011 57.14                              58   -0.27 2 77.9 229 
 ELBS HZ EP   1A   011 47.57                              58   -0.13 7 79.2 311 
 ELBS HE  IAML A   011 57.75      2824.0 1.00                          79.2 311 
 ELBS HE ES   1A   011 57.75                              58   -0.15 7 79.2 311 
 KAHM HZ IP   0A   011 47.86                              58   -0.34 9 82.4 243 
 KAHM HE  IAML A   011 57.85       817.2 1.00                          82.4 243 
 KAHM HE ES   2A   011 57.85                              58   -0.92 5 82.4 243 
 NARI HZ IP   0A   011 48.27                              58   -0.08 9 83.1  88 
 NARI HE  IAML A   011 59.10       353.0 1.00                          83.1  88 
 NARI HE ES   2A   011 59.10                              58    0.07 5 83.1  88 
 DARE HE  IAML A   012  0.48        93.6 1.00                          84.3 340 
 DARE HE ES   3A   012  0.48                              58    1.07 2 84.3 340 
 KMRS HZ IP   0A   011 49.06                              58   -0.44 9 89.9 244 
 KMRS HE  IAML A   012  0.11       125.3 1.00                          89.9 244 
 KMRS HE ES   2A   012  0.11                              58   -0.90 5 89.9 244 
 NZIP HZ IP   0A   011 49.90                              58    0.10 9 91.4 188 
 GAZ  HZ IP   0A   011 51.17                              58    1.04 9 93.2 215 
 GAZ  HE ES   3A   012  2.61                              58    0.51 2 93.2 215 
 GAZ  HE  IAML A   012  2.61       263.5 1.00                          93.2 215 
 HANM HZ EP   2A   011 50.79                              58   -0.27 5 98.8 108 
 HANM HE  IAML A   012  3.10      1157.4 1.00                          98.8 108 
 HANM HE ES   2A   012  3.10                              58   -0.60 5 98.8 108 
 CUGURHZ EP   2A   011 52.77                              58    0.16 4  107 334 
 HEKM HE  IAML A   012  8.71      1086.8 1.00                           114   6 
 HEKM HE ES   3A   012  8.71                              58    0.19 2  114   6 
 ELZG HZ EP   2A   011 54.65                              58   -0.94 4  124  55 
 SANL HZ IP   0A   011 55.67                              58   -0.61 8  129 126 
 SANL HE ES   2A   012 11.88                              58   -0.86 4  129 126 
 SANL HE  IAML A   012 11.88      1513.7 1.00                           129 126 
 ANDN HZ IP   1A   011 56.11                              58   -1.06 6  133 257 
 KUZU HZ EP   1A   011 57.71                              58   -0.08 6  137 209 
 SARI HZ EP   2A   011 58.30                              58    0.46 4  137 297 
 CUKANHZ EP   2A   012  2.28                              38    0.46 4  165 349 
 KEMA HZ EP   3A   012  2.22                              38    0.14 2  167  20 
 HASA HZ EP   2A   012  2.49                              38    0.10 4  170 224 
 HASA HE ES   2A   012 23.61                              38    0.30 4  170 224 
 HASA HE  IAML A   012 23.61       648.6 1.00                           170 224 
 CUAYAHZ EP   1A   012  5.20                              38    1.18 5  182 329 
 RHAN HE ES   3A   012 34.41                              38    2.92 2  208 212 
 RHAN HE  IAML A   012 34.41       286.2 1.00                           208 212 
                                                                                
 2023  2 7 0012 19.3 L  38.057  36.591  2.0  TUR 23 0.9 3.4LTUR                1
 GAP=122        1.17       2.3     5.4  8.5  0.4254E+01 -0.1489E+02 -0.3350E+01E
 Action:ARG 23-03-27 17:02 OP:OBSP STATUS:               ID:20230207005451     I
 STAT SP IPHASW D HRMM SECON CODA AMPLIT PERI AZIMU VELO AIN AR TRES W  DIS CAZ7
 SARI HZ IP   0A   012 26.54                              58   -0.2410 41.7 339 
 SARI HE  IAML A   012 32.32      1352.2 1.00                          41.7 339 
 SARI HE IS   1A   012 32.32                              58    0.09 7 41.7 339 
 ELBS HZ IP   1A   012 28.53                              58   -0.70 7 55.9  58 
 ELBS HE IS   1A   012 36.56                              58    0.10 7 55.9  58 
 ELBS HE  IAML A   012 36.56      2722.0 1.00                          55.9  58 
 ANDN HZ EP   2A   012 29.16                              58   -0.28 5 57.2 202 
 ANDN HE ES   3A   012 36.99                              58    0.16 2 57.2 202 
 ANDN HE  IAML A   012 36.99      4062.0 1.00                          57.2 202 
 KMRS HZ IP   1A   012 31.00                              58   -0.09 7 67.0 156 
 KMRS HE  IAML A   012 39.34      3576.4 1.00                          67.0 156 
 KMRS HE IS   1A   012 39.34                              58   -0.35 7 67.0 156 
 KAHM HZ IP   0A   012 31.35                              58   -0.1610 69.4 150 
 KAHM HE  IAML A   012 39.97      3156.9 1.00                          69.4 150 
 KAHM HE IS   1A   012 39.97                              58   -0.44 7 69.4 150 
 NAR  HZ EP   1A   012 34.88                              58   -0.09 7 89.1 146 
 NAR  HE ES   2A   012 45.58                              58   -0.81 5 89.1 146 
 NAR  HE  IAML A   012 45.58      1841.7 1.00                          89.1 146 
 CUGURHZ EP   3A   012 35.58                              58   -0.48 2 94.9  39 
 CUGURHE ES   3A   012 48.58                              58    0.30 2 94.9  39 
 CUGURHE  IAML A   012 48.58      4990.0 1.00                          94.9  39 
 DARE HE ES   2A   012 47.88                              58   -0.86 4 96.6  54 
 DARE HE  IAML A   012 47.88       165.7 1.00                          96.6  54 
 MGND HZ EP   1A   012 37.13                              58    0.60 7 97.8 131 
 BNN  HE ES   3A   012 51.30                              58   -1.41 2  110 324 
 BNN  HE  IAML A   012 51.30       274.8 1.00                           110 324 
 GAZ  HZ EP   2A   012 39.15                              58    0.08 4  112 151 
 GZT  HZ IP   0A   012 40.27                              58    0.62 9  116 132 
 CUAYAHZ EP   2A   012 43.00                              58   -0.05 4  135   6 
 NZIP HZ IP   0A   012 45.52                              40    0.36 8  148 139 
 KUZU HE  IAML A   013  2.72      4739.0 1.00                           149 163 
 KUZU HE ES   2A   013  2.72                              40   -1.46 4  149 163 
 HEKM HZ EP   1A   012 44.65                              40   -0.98 6  150  52 
 CUKANHZ IP   0A   012 47.58                              38    0.86 8  159  28 
 MAYA HE  IAML A   013  6.36       945.9 1.00                           163  79 
 MAYA HE IS   1A   013  6.36                              38   -1.17 6  163  79 
 ATAB HZ EP   2A   012 47.33                              38    0.20 4  164 113 
 NARI HE ES   3A   013 16.53                              38    2.83 2  192  95 
 NARI HE  IAML A   013 16.53       129.4 1.00                           192  95 
 HANM HZ IP   1A   012 54.71                              38    1.87 5  208 104 
 KEMA HZ EP   3A   012 54.68                              38    1.15 2  213  50 
 SANL HZ EP   1A   012 58.13                              38    2.16 4  233 114 
 SANL HE ES   3A   013 28.11                              38    5.38 1  233 114 
 SANL HE  IAML A   013 28.11       524.3 1.00                           233 114 
                                                                                
 2023  2 7 0013 16.5 L  37.160  36.953  2.0  TUR 17 0.5 2.7LTUR                1
 GAP= 65        0.71       1.5     1.9  5.7  0.3153E+00 -0.1555E+01 -0.1098E+01E
 Action:ARG 23-03-27 17:02 OP:OBSP STATUS:               ID:20230207005533     I
 STAT SP IPHASW D HRMM SECON CODA AMPLIT PERI AZIMU VELO AIN AR TRES W  DIS CAZ7
 GAZ  HZ EP   2A   013 20.45                              58   -0.14 5 22.8  86 
 GAZ  HE  IAML A   013 23.71       506.0 1.00                          22.8  86 
 GAZ  HE IS   0A   013 23.71                              58    0.1310 22.8  86 
 NAR  HZ EP   2A   013 22.60                              58    0.53 5 31.5  35 
 NAR  HE ES   1A   013 26.38                              58    0.24 7 31.5  35 
 NAR  HE  IAML A   013 26.38      1452.3 1.00                          31.5  35 
 KMRS HZ EP   1A   013 23.53                              58    0.21 7 38.6 353 
 KMRS HE ES   1A   013 28.13                              58   -0.17 7 38.6 353 
 KMRS HE  IAML A   013 28.13       156.4 1.00                          38.6 353 
 KAHM HZ EP   3A   013 23.24                              58   -0.27 2 39.7   4 
 KAHM HE ES   2A   013 28.20                              58   -0.42 5 39.7   4 
 KAHM HE  IAML A   013 28.20      1174.8 1.00                          39.7   4 
 KUZU HZ EP   2A   013 24.55                              58    0.24 5 44.2 166 
 KUZU HE IS   1A   013 30.49                              58    0.50 7 44.2 166 
 KUZU HE  IAML A   013 30.49      1689.6 1.00                          44.2 166 
 MGND HZ EP   1A   013 26.09                              58    0.04 7 53.9  50 
 MGND HE ES   2A   013 32.97                              58   -0.04 5 53.9  50 
 MGND HE  IAML A   013 32.97       221.2 1.00                          53.9  50 
 GZT  HZ EP   2A   013 27.31                              58    0.53 5 58.1  68 
 GZT  HE IS   1A   013 33.91                              58   -0.36 7 58.1  68 
 GZT  HE  IAML A   013 33.91       703.8 1.00                          58.1  68 
 HASA HZ EP   2A   013 27.27                              58   -0.05 5 61.6 223 
 HASA HE ES   2A   013 34.17                              58   -1.03 5 61.6 223 
 HASA HE  IAML A   013 34.17       448.8 1.00                          61.6 223 
 NZIP HE  IAML A   013 35.60       247.2 1.00                          65.4 101 
 NZIP HE ES   1A   013 35.60                              58   -0.85 7 65.4 101 
 ANDN HE IS   1A   013 37.88                              58   -0.39 7 71.3 311 
 ANDN HE  IAML A   013 37.88       702.0 1.00                          71.3 311 
 CEYT HZ EP   2A   013 35.89                              57    0.30 4  108 262 
 ATAB HZ IP   0A   013 37.95                              58   -0.25 8  124  73 
 ATAB HE  IAML A   013 52.55       888.8 1.00                           124  73 
 ATAB HE ES   3A   013 52.55                              58   -1.48 2  124  73 
 ELBS HE ES   2A   013 56.34                              58    0.22 4  130   7 
 ELBS HE  IAML A   013 56.34       348.2 1.00                           130   7 
 DARE HZ IP   0A   013 44.97                              38    0.59 7  163  16 
 DARE HE  IAML A   014  4.63        30.8 1.00                           163  16 
 DARE HE ES   2A   014  4.63                              38   -0.09 4  163  16 
 URFA HE ES   3A   014  7.27                              38    1.47 2  169  79 
 URFA HE  IAML A   014  7.27        59.0 1.00                           169  79 
 CUGURHE ES   3A   014  8.88                              38    1.33 2  176   9 
 CUGURHE  IAML A   014  8.88       553.4 1.00                           176   9 
 NARI HZ EP   2A   013 46.91                              38    0.60 4  179  63 
                                                                                
