 2023  2 7 0055 32.8 L  38.013  37.541  0.1  TUR 23 0.6 3.5LTUR                1
 GAP= 43        0.83       1.6     3.0  6.9  0.8584E+00  0.3456E+01 -0.2543E+00E
 Action:ARG 23-03-27 17:02 OP:OBSP STATUS:               ID:20230207042142     I
 STAT SP IPHASW D HRMM SECON CODA AMPLIT PERI AZIMU VELO AIN AR TRES W  DIS CAZ7
 ELBS HZ IP   0A   055 42.13                              58    0.0310 49.7 314 
 ELBS HE  IAML A   055 49.43     19225.4 1.00                          49.7 314 
 ELBS HE IS   1A   055 49.43                              58    0.57 7 49.7 314 
 MGND HZ IP   1A   055 44.13                              58    0.09 7 61.0 190 
 MGND HE  IAML A   055 52.39       772.9 1.00                          61.0 190 
 MGND HE ES   2A   055 52.39                              58    0.17 5 61.0 190 
 DARE HZ EP   2A   055 43.40                              58   -0.85 5 62.2 355 
 DARE HE IS   1A   055 53.30                              58    0.71 7 62.2 355 
 DARE HE  IAML A   055 53.30       460.3 1.00                          62.2 355 
 GZT  HZ EP   2A   055 46.23                              58    0.10 5 73.0 179 
 GZT  HE  IAML A   055 55.62      1719.5 1.00                          73.0 179 
 GZT  HE ES   2A   055 55.62                              58   -0.22 5 73.0 179 
 NAR  HE ES   3A   055 56.80                              58   -0.11 2 76.7 206 
 NAR  HE  IAML A   055 56.80      1271.7 1.00                          76.7 206 
 KMRS HZ IP   1A   055 47.21                              58   -0.05 7 79.7 225 
 KMRS HE ES   2A   055 57.40                              58   -0.40 5 79.7 225 
 KMRS HE  IAML A   055 57.40       385.8 1.00                          79.7 225 
 CUGURHZ EP   2A   055 47.62                              58   -0.19 5 82.3 344 
 CUGURHE ES   3A   055 59.64                              58    0.90 2 82.3 344 
 CUGURHE  IAML A   055 59.64     10766.8 1.00                          82.3 344 
 MAYA HE ES   3A   056  0.96                              58    1.50 2 84.9  66 
 MAYA HE  IAML A   056  0.96      4706.2 1.00                          84.9  66 
 ATAB HZ IP   0A   055 49.24                              58    0.24 9 89.7 132 
 ATAB HE ES   2A   056  0.53                              58   -0.28 5 89.7 132 
 ATAB HE  IAML A   056  0.53      5002.2 1.00                          89.7 132 
 HEKM HZ IP   1A   055 50.53                              58   -0.92 7  103  21 
 HEKM HE ES   2A   056  5.32                              58    0.28 4  103  21 
 HEKM HE  IAML A   056  5.32      4260.2 1.00                           103  21 
 SARI HE  IAML A   056  5.92       295.1 1.00                           108 294 
 SARI HE ES   2A   056  5.92                              58   -0.52 4  108 294 
 NZIP HZ IP   1A   055 53.51                              58    1.23 7  108 174 
 NARI HZ EP   2A   055 52.02                              58   -0.25 4  108  97 
 HANM HE ES   3A   056 11.16                              58   -1.06 2  127 112 
 HANM HE  IAML A   056 11.16       855.4 1.00                           127 112 
 SAIM HZ IP   1A   055 54.61                              58   -1.17 6  128 269 
 ELZG HZ EP   2A   055 56.16                              58   -1.22 4  137  66 
 KUZU HE ES   2A   056 17.11                              58   -0.02 4  144 197 
 KUZU HE  IAML A   056 17.11      5069.1 1.00                           144 197 
 CUKANHZ EP   3A   055 58.04                              58   -0.71 2  145 357 
 CUKANHE ES   3A   056 17.26                              58   -0.42 2  145 357 
 CUKANHE  IAML A   056 17.26       838.1 1.00                           145 357 
 CUAYAHZ EP   3A   056  0.12                              38   -0.26 2  155 334 
 SANL HE ES   3A   056 20.72                              38   -0.17 2  158 126 
 SANL HE  IAML A   056 20.72      1512.5 1.00                           158 126 
 KEMA HZ EP   3A   056  0.90                              38   -0.29 2  162  30 
 HASA HE  IAML A   056 23.46      1086.1 1.00                           168 214 
 HASA HE ES   2A   056 23.46                              38    0.38 4  168 214 
 BNN  HZ EP   2A   056  2.70                              38   -0.14 4  175 303 
                                                                                
 2023  2 7 0056  1.2 L  38.091  38.442 10.3  TUR 10 0.5 3.4LTUR                1
 GAP=103        0.63       2.4     3.4  5.3 -0.1319E+01  0.7342E+01  0.7317E+01E
 Action:ARG 23-03-27 17:02 OP:OBSP STATUS:               ID:20230207042237     I
 STAT SP IPHASW D HRMM SECON CODA AMPLIT PERI AZIMU VELO AIN AR TRES W  DIS CAZ7
 MAYA HZ IP   0A   056  6.26                             110   -0.1310 26.0 357 
 MAYA HE  IAML A   056 10.23      4441.4 1.00                          26.0 357 
 MAYA HE ES   1A   056 10.23                             110    0.08 7 26.0 357 
 NARI HZ IP   1A   056  8.35                             103    0.28 7 36.3 129 
 ELZG HZ IP   0A   056 12.96                              95   -0.1410 65.5  46 
 ELZG HE IS   1A   056 21.85                              95    0.11 7 65.5  46 
 ELZG HE  IAML A   056 21.85      2523.0 1.00                          65.5  46 
 ATAB HZ EP   2A   056 13.12                              95   -0.73 5 70.2 191 
 GZT  HZ IP   0A   056 21.43                              72    0.22 9  113 224 
 GZT  HE  IAML A   056 35.57      5070.4 1.00                           113 224 
 MGND HZ IP   0A   056 21.44                              72    0.13 9  113 233 
 GZT  HE ES   2A   056 35.57                              72   -0.20 4  113 224 
 NZIP HE ES   2A   056 41.31                              50   -0.56 4  135 210 
 NZIP HE  IAML A   056 41.31       265.2 1.00                           135 210 
 NAR  HE ES   3A   056 41.06                              50   -1.34 2  137 236 
 NAR  HE  IAML A   056 41.06      1419.8 1.00                           137 236 
 KMRS HE  IAML A   056 44.89       165.0 1.00                           151 245 
 KMRS HE ES   2A   056 44.89                              47   -0.47 4  151 245 
 ANDN HE  IAML A   056 56.28       746.6 1.00                           193 254 
 ANDN HE ES   2A   056 56.28                              47    1.38 3  193 254 
                                                                                
 2023  2 7 0057 18.5 L  37.940  37.456  1.6  TUR 10 1.0 2.8LTUR                1
 GAP=195        1.63      10.8    10.6 21.9  0.3159E+02 -0.6208E+02  0.8596E+02E
 Action:ARG 23-03-27 17:02 OP:OBSP STATUS:               ID:20230207042830     I
 STAT SP IPHASW D HRMM SECON CODA AMPLIT PERI AZIMU VELO AIN AR TRES W  DIS CAZ7
 MGND HZ IP   1A   057 29.45                              58    1.51 8 52.1 184 
 MGND HE IS   1A   057 33.68                              58   -1.18 8 52.1 184 
 MGND HE  IAML A   057 33.68       478.1 1.00                          52.1 184 
 GZT  HZ EP   1A   057 31.11                              58    0.83 8 65.5 172 
 NAR  HZ IP   0A   057 30.68                              58    0.3010 66.3 204 
 KMRS HZ IP   0A   057 29.70                              58   -1.1010 68.8 226 
 GAZ  HZ IP   1A   057 34.05                              58   -0.15 7 88.0 194 
 ANDN HZ IP   0A   057 37.58                              58    0.26 9  106 248 
 SAIM HZ IP   1A   057 39.94                              58   -0.01 7  121 272 
 HANM HZ EP   3A   057 42.15                              58    0.35 2  132 107 
 HANM HE ES   2A   057 57.58                              58   -1.26 4  132 107 
 HANM HE  IAML A   057 57.58       159.7 1.00                           132 107 
 SANL HE ES   3A   058  5.23                              38   -1.21 2  160 122 
 SANL HE  IAML A   058  5.23       336.0 1.00                           160 122 
 RHAN HE ES   2A   058 17.57                              38    2.08 3  201 202 
 RHAN HE  IAML A   058 17.57       129.1 1.00                           201 202 
                                                                                
 2023  2 7 0058 48.2 L  37.376  36.818 12.0  TUR 13 1.0 2.6LTUR                1
 GAP= 95        1.32       3.9     4.7  7.4  0.3512E+01 -0.5089E+01 -0.3508E+01E
 Action:ARG 23-03-27 17:02 OP:OBSP STATUS:               ID:20230207043731     I
 STAT SP IPHASW D HRMM SECON CODA AMPLIT PERI AZIMU VELO AIN AR TRES W  DIS CAZ7
 NAR  HZ IP   0A   058 53.71                             110   -0.3610 30.1  87 
 NAR  HE  IAML A   058 57.73      1054.3 1.00                          30.1  87 
 NAR  HE ES   2A   058 57.73                             110   -0.61 5 30.1  87 
 ANDN HZ EP   2A   058 57.43                             102    0.38 5 47.6 299 
 ANDN HE ES   1A   059  3.53                             102    0.03 7 47.6 299 
 ANDN HE  IAML A   059  3.53       185.7 1.00                          47.6 299 
 GZT  HZ EP   3A   059  0.54                              81    0.38 2 65.9  92 
 KUZU HZ IP   0A   059  1.93                              81    0.9810 70.7 161 
 HASA HE  IAML A   059 10.95       184.7 1.00                          75.5 203 
 HASA HE ES   3A   059 10.95                              81   -0.66 2 75.5 203 
 NZIP HZ EP   2A   059  3.32                              81   -0.03 5 84.5 116 
 NZIP HE ES   1A   059 14.46                              81    0.07 7 84.5 116 
 NZIP HE  IAML A   059 14.46        94.4 1.00                          84.5 116 
 ELBS HE  IAML A   059 20.90       208.6 1.00                           109  15 
 ELBS HE ES   1A   059 20.90                              72   -0.63 7  109  15 
 RHAN HE ES   1A   059 24.69                              72   -1.36 6  125 189 
 RHAN HE  IAML A   059 24.69       156.7 1.00                           125 189 
 ATAB HE  IAML A   059 27.33       720.8 1.00                           131  85 
 ATAB HE ES   1A   059 27.33                              50   -0.27 6  131  85 
 CUGURHE  IAML A   059 33.26       297.5 1.00                           155  15 
 CUGURHE ES   3A   059 33.26                              47    0.12 2  155  15 
 MAYA HZ EP   1A   059 16.12                              47   -0.76 5  176  53 
 ELZG HZ EP   1A   059 24.97                              47    1.63 5  227  56 
 KEMA HZ EP   2A   059 30.64                              47    3.70 3  256  34 
                                                                                
 2023  2 7 0100 23.2 L  37.720  37.169  0.0  TUR  8 0.8 2.8LTUR                1
 GAP=107        0.88       7.2     8.2  9.7  0.1333E+02 -0.1633E+02  0.3172E+02E
 Action:ARG 23-03-27 17:02 OP:OBSP STATUS:               ID:20230207044203     I
 STAT SP IPHASW D HRMM SECON CODA AMPLIT PERI AZIMU VELO AIN AR TRES W  DIS CAZ7
 MGND HE ES   3A   1 0 34.21                              58   -0.62 3 35.4 141 
 MGND HE  IAML A   1 0 34.21       383.5 1.00                          35.4 141 
 ANDN HZ IP   0A   1 0 36.69                              58   -0.0410 74.3 258 
 NZIP HE ES   3A   1 0 49.79                              58   -0.75 2 87.4 149 
 NZIP HE  IAML A   1 0 49.79       169.5 1.00                          87.4 149 
 SAIM HZ EP   3A   1 0 39.02                              58   -2.15 2 99.8 287 
 KUZU HZ EP   1A   1 0 41.33                              58   -0.77 7  105 185 
 RHAN HZ EP   3A   1 0 52.95                              38    0.58 2  170 197 
 RHAN HE IS   0A   1 1 14.42                              38    0.75 8  170 197 
 RHAN HE  IAML A   1 1 14.42       206.3 1.00                           170 197 
 ELZG HE  IAML A   1 1 17.25       460.8 1.00                           181  61 
 ELZG HE ES   3A   1 1 17.25                              38    0.84 2  181  61 
 KEMA HZ EP   2A   1 0 58.22                              38    0.95 3  207  33 
                                                                                
 2023  2 7 0101 28.4 L  37.432  37.005  9.4  TUR 10 0.9 2.5LTUR                1
 GAP=125        1.47       6.3     5.4  8.9  0.9997E+00  0.3136E+01 -0.8987E+01E
 Action:ARG 23-03-27 17:02 OP:OBSP STATUS:               ID:20230207054152     I
 STAT SP IPHASW D HRMM SECON CODA AMPLIT PERI AZIMU VELO AIN AR TRES W  DIS CAZ7
 NAR  HZ IP   0A   1 1 31.43                             122   -0.1210 14.2 108 
 NAR  HE IS   1A   1 1 34.00                             122    0.14 7 14.2 108 
 NAR  HE  IAML A   1 1 34.00      1792.5 1.00                          14.2 108 
 MGND HE  IAML A   1 1 40.01       114.9 1.00                          37.0  83 
 MGND HE ES   2A   1 1 40.01                             101   -0.37 5 37.0  83 
 GZT  HZ EP   2A   1 1 39.15                              97    1.61 5 49.9 100 
 GZT  HE  IAML A   1 1 43.49       395.5 1.00                          49.9 100 
 GZT  HE ES   2A   1 1 43.49                              97   -0.74 5 49.9 100 
 ANDN HZ EP   2A   1 1 38.98                              95   -0.42 5 60.6 286 
 ANDN HE ES   2A   1 1 46.16                              95   -1.28 5 60.6 286 
 ANDN HE  IAML A   1 1 46.16       317.6 1.00                          60.6 286 
 NZIP HE  IAML A   1 1 50.21        95.4 1.00                          73.4 126 
 KUZU HE ES   1A   1 1 50.64                              93   -0.52 7 73.4 175 
 KUZU HE  IAML A   1 1 50.64       456.1 1.00                          73.4 175 
 NZIP HZ IP   0A   1 1 42.87                              93    1.28 9 73.4 126 
 NZIP HE IS   1A   1 1 50.21                              93   -1.01 7 73.4 126 
 HASA HZ EP   2A   1 1 44.99                              92    0.82 5 88.6 211 
 ATAB HZ IP   1A   1 1 48.50                              72   -0.08 6  114  88 
 ATAB HE ES   1A   1 2  2.21                              72   -1.11 6  114  88 
 ATAB HE  IAML A   1 2  2.21       469.6 1.00                           114  88 
 MAYA HZ EP   2A   1 1 56.71                              47    1.51 4  159  51 
 HANM HZ EP   3A   1 1 57.30                              47    1.26 2  167  84 
                                                                                
 2023  2 7 0103  2.3 L  37.593  37.558  0.5  TUR  9 0.8 2.2LTUR                1
 GAP=129        1.17       9.9     9.4 23.8 -0.7192E+02 -0.3413E+02  0.1308E+03E
 Action:ARG 23-03-27 17:02 OP:OBSP STATUS:               ID:20230207054228     I
 STAT SP IPHASW D HRMM SECON CODA AMPLIT PERI AZIMU VELO AIN AR TRES W  DIS CAZ7
 GZT  HE  IAML A   1 3 12.65       198.3 1.00                          26.3 179 
 GZT  HE ES   3A   1 3 12.65                              58    1.52 2 26.3 179 
 NAR  HE  IAML A   1 3 15.29       636.8 1.00                          41.9 238 
 NAR  HE IS   0A   1 3 15.29                              58   -0.4710 41.9 238 
 KMRS HZ EP   1A   1 3 13.43                              58    0.37 7 59.0 261 
 MAYA HZ IP   0A   1 3 21.48                              58   -0.80 9  111  43 
 HASA HZ EP   2A   1 3 26.91                              58    0.85 4  133 226 
 SARI HZ EP   2A   1 3 26.42                              58   -0.03 4  135 312 
 HEKM HZ IP   0A   1 3 28.90                              58    0.31 8  147  14 
 ELZG HZ EP   1A   1 3 30.53                              38    0.17 6  160  51 
 KEMA HZ IP   1A   1 3 37.44                              38    1.63 5  203  23 
                                                                                
 2023  2 7 0103 19.8 L  37.508  37.097 13.9  TUR  8 0.4 1.9LTUR                1
 GAP=104        0.72       2.6     2.4  4.2  0.1934E+01 -0.4474E+01 -0.3748E+01E
 Action:ARG 23-03-27 17:02 OP:OBSP STATUS:               ID:20230207054313     I
 STAT SP IPHASW D HRMM SECON CODA AMPLIT PERI AZIMU VELO AIN AR TRES W  DIS CAZ7
 NAR  HZ IP   1A   1 3 23.55                             134    0.10 7 13.9 157 
 NAR  HE  IAML A   1 3 26.27       825.9 1.00                          13.9 157 
 NAR  HE IS   1A   1 3 26.27                             134    0.18 7 13.9 157 
 KMRS HZ IP   0A   1 3 23.95                             127    0.0610 17.4 269 
 KMRS HE  IAML A   1 3 26.89        82.4 1.00                          17.4 269 
 KMRS HE IS   0A   1 3 26.89                             127    0.0410 17.4 269 
 MGND HZ IP   0A   1 3 25.67                             113   -0.0010 28.9  98 
 MGND HE IS   0A   1 3 29.78                             113   -0.1510 28.9  98 
 MGND HE  IAML A   1 3 29.78       254.4 1.00                          28.9  98 
 GAZ  HZ EP   1A   1 3 27.45                             107    0.23 7 38.5 165 
 GAZ  HE IS   0A   1 3 32.15                             107   -0.4510 38.5 165 
 GAZ  HE  IAML A   1 3 32.15        33.3 1.00                          38.5 165 
 ANDN HZ EP   3A   1 3 30.44                              97   -1.55 2 66.9 277 
 NZIP HZ EP   1A   1 3 33.64                              95    0.68 7 72.7 135 
 ATAB HZ EP   1A   1 3 38.89                              74    0.43 7  106  92 
 ATAB HE ES   3A   1 3 51.95                              74   -0.11 2  106  92 
 ATAB HE  IAML A   1 3 51.95       257.2 1.00                           106  92 
 DARE HZ IP   1A   1 3 40.70                              74   -0.58 6  123  16 
                                                                                
 2023  2 7 0104  8.4 L  37.543  37.032 20.1  TUR  7 0.6 2.3LTUR                1
 GAP=140        1.15       8.6     6.7  5.8  0.3988E+02 -0.1722E+02 -0.1723E+02E
 Action:ARG 23-03-27 17:02 OP:OBSP STATUS:               ID:20230207054449     I
 STAT SP IPHASW D HRMM SECON CODA AMPLIT PERI AZIMU VELO AIN AR TRES W  DIS CAZ7
 KMRS HZ IP   0A   1 4 13.19                             146    0.5110 12.4 251 
 KMRS HE  IAML A   1 4 15.34       252.8 1.00                          12.4 251 
 KMRS HE IS   0A   1 4 15.34                             146   -0.4310 12.4 251 
 NAR  HZ IP   0A   1 4 14.39                             131    0.8710 20.1 146 
 NAR  HE  IAML A   1 4 16.72       979.3 1.00                          20.1 146 
 NAR  HE ES   1A   1 4 16.72                             131   -0.49 7 20.1 146 
 GAZ  HZ IP   0A   1 4 16.67                             106   -0.3210 44.0 159 
 ANDN HZ EP   1A   1 4 18.92                              94   -0.76 7 60.8 274 
 ANDN HE  IAML A   1 4 28.40       178.9 1.00                          60.8 274 
 ANDN HE ES   2A   1 4 28.40                              94    0.52 5 60.8 274 
 NZIP HE ES   1A   1 4 32.76                              90   -0.29 7 79.5 134 
 NZIP HE  IAML A   1 4 32.76        63.6 1.00                          79.5 134 
 HASA HZ EP   2A   1 4 26.62                              90    0.64 4  100 209 
 HASA HE ES   3A   1 4 39.49                              90    0.71 2  100 209 
 HASA HE  IAML A   1 4 39.49       108.6 1.00                           100 209 
 MAYA HE  IAML A   1 4 50.16       118.4 1.00                           150  54 
 MAYA HE ES   2A   1 4 50.16                              52   -0.57 4  150  54 
                                                                                
