 2023  2 7 0013 59.6 L  37.850  37.904  1.8  TUR  9 0.5 2.2LTUR                1
 GAP=221        0.75       5.4     3.8 11.9 -0.9339E+01 -0.2777E+02  0.1912E+02E
 Action:ARG 23-03-27 17:02 OP:OBSP STATUS:               ID:20230207005601     I
 STAT SP IPHASW D HRMM SECON CODA AMPLIT PERI AZIMU VELO AIN AR TRES W  DIS CAZ7
 ATAB HZ EP   3A   014  9.25                              58   -0.14 3 54.5 141 
 ATAB HE  IAML A   014 16.26       479.7 1.00                          54.5 141 
 ATAB HE ES   1A   014 16.26                              58   -0.31 8 54.5 141 
 MGND HZ IP   0A   014  9.80                              58   -0.5910 59.9 226 
 MGND HE  IAML A   014 17.24        97.9 1.00                          59.9 226 
 MGND HE ES   3A   014 17.24                              58   -1.05 2 59.9 226 
 GZT  HZ EP   2A   014 10.51                              58   -0.37 5 62.7 209 
 NARI HZ EP   3A   014 13.37                              58    0.27 2 75.5  87 
 NARI HE  IAML A   014 23.08        85.6 1.00                          75.5  87 
 NARI HE IS   1A   014 23.08                              58    0.10 7 75.5  87 
 HANM HZ EP   2A   014 15.79                              58   -0.02 5 91.2 109 
 NZIP HZ IP   1A   014 16.72                              58    0.76 7 91.8 193 
 NZIP HE ES   3A   014 28.54                              58    0.62 2 91.8 193 
 NZIP HE  IAML A   014 28.54       109.9 1.00                          91.8 193 
 GAZ  HZ IP   0A   014 17.33                              58    0.44 9 97.1 219 
 GAZ  HE ES   2A   014 30.11                              58    0.58 5 97.1 219 
 GAZ  HE  IAML A   014 30.11        38.3 1.00                          97.1 219 
 KUZU HZ EP   1A   014 24.18                              58   -0.22 6  140 212 
 HASA HZ IP   0A   014 29.30                              38    0.10 7  175 226 
                                                                                
 2023  2 7 0014 31.5 L  37.467  37.016 10.1  TUR 16 0.6 2.5LTUR                1
 GAP= 97        1.06       3.1     2.2  3.3  0.1940E+01 -0.3464E+00  0.5227E+01E
 Action:ARG 23-03-27 17:02 OP:OBSP STATUS:               ID:20230207005719     I
 STAT SP IPHASW D HRMM SECON CODA AMPLIT PERI AZIMU VELO AIN AR TRES W  DIS CAZ7
 KAHM HZ IP   0A   014 33.93                             149    0.1810 6.08 335 
 KAHM HE IS   0A   014 35.51                             149    0.1210 6.08 335 
 KAHM HE  IAML A   014 35.51      4466.9 1.00                          6.08 335 
 KMRS HZ IP   0A   014 34.50                             132    0.1910 11.1 293 
 KMRS HE IS   0A   014 36.42                             132    0.0710 11.1 293 
 KMRS HE  IAML A   014 36.42       408.4 1.00                          11.1 293 
 NAR  HZ IP   1A   014 35.06                             123    0.19 7 15.0 124 
 NAR  HE ES   3A   014 37.98                             123    0.66 2 15.0 124 
 NAR  HE  IAML A   014 37.98      3244.2 1.00                          15.0 124 
 MGND HZ IP   0A   014 38.64                             103    0.3710 35.8  89 
 MGND HE IS   1A   014 43.24                             103    0.03 7 35.8  89 
 MGND HE  IAML A   014 43.24       188.1 1.00                          35.8  89 
 GAZ  HE IS   1A   014 43.23                             103   -0.30 7 36.9 152 
 GAZ  HE  IAML A   014 43.23        73.7 1.00                          36.9 152 
 GZT  HE  IAML A   014 46.98       520.4 1.00                          49.9 104 
 GZT  HE ES   1A   014 46.98                              98   -0.37 7 49.9 104 
 ANDN HZ IP   0A   014 42.21                              96   -0.3110 60.6 282 
 ANDN HE  IAML A   014 49.75       352.2 1.00                          60.6 282 
 ANDN HE IS   0A   014 49.75                              96   -0.8110 60.6 282 
 NZIP HE IS   1A   014 54.31                              94   -0.52 7 75.0 129 
 NZIP HE  IAML A   014 54.31        74.6 1.00                          75.0 129 
 KUZU HE  IAML A   014 54.92      1079.6 1.00                          77.1 176 
 KUZU HE IS   1A   014 54.92                              94   -0.50 7 77.1 176 
 HASA HE  IAML A   015  1.46       158.1 1.00                          92.4 211 
 HASA HE ES   2A   015  1.46                              93    1.52 5 92.4 211 
 ATAB HZ EP   2A   014 52.01                              72    0.51 4  113  89 
 ATAB HE ES   1A   015  5.01                              72   -1.08 6  113  89 
 ATAB HE  IAML A   015  5.01       625.5 1.00                           113  89 
 CEYT HE ES   2A   015  9.60                              72    0.71 4  123 246 
 CEYT HE  IAML A   015  9.60        27.1 1.00                           123 246 
 RHAN HZ IP   0A   014 56.51                              50    1.03 8  139 196 
 RHAN HE IS   1A   015 12.70                              50   -0.28 6  139 196 
 RHAN HE  IAML A   015 12.70       188.8 1.00                           139 196 
 NARI HE ES   3A   015 19.07                              47    1.08 2  161  73 
 NARI HE  IAML A   015 19.07        51.6 1.00                           161  73 
 HANM HE ES   2A   015 19.73                              47    0.82 4  165  85 
 HANM HE  IAML A   015 19.73        63.4 1.00                           165  85 
 SANL HE ES   3A   015 23.49                              47    1.81 2  178 100 
 SANL HE  IAML A   015 23.49       113.7 1.00                           178 100 
                                                                                
 2023  2 7 0015 19.7 L  37.301  36.794  0.0  TUR 22 0.5 3.4LTUR                1
 GAP= 57        0.74       1.3     1.6  4.8  0.1176E+00 -0.1419E+01 -0.2058E+01E
 Action:ARG 23-03-27 17:02 OP:OBSP STATUS:               ID:20230207005848     I
 STAT SP IPHASW D HRMM SECON CODA AMPLIT PERI AZIMU VELO AIN AR TRES W  DIS CAZ7
 KMRS HZ IP   0A   015 24.63                              58    0.1310 24.5  22 
 KMRS HE  IAML A   015 28.17      1640.4 1.00                          24.5  22 
 KMRS HE ES   1A   015 28.17                              58    0.18 7 24.5  22 
 KAHM HZ IP   0A   015 25.39                              58    0.0410 29.4  36 
 KAHM HE  IAML A   015 29.20      9614.6 1.00                          29.4  36 
 KAHM HE IS   0A   015 29.20                              58   -0.2710 29.4  36 
 NAR  HZ IP   1A   015 26.19                              58    0.07 7 33.7  73 
 NAR  HE  IAML A   015 30.72     16300.8 1.00                          33.7  73 
 NAR  HE ES   1A   015 30.72                              58   -0.07 7 33.7  73 
 GAZ  HZ EP   1A   015 27.08                              58   -0.10 7 39.6 111 
 GAZ  HE IS   1A   015 32.31                              58   -0.32 7 39.6 111 
 GAZ  HE  IAML A   015 32.31      1630.6 1.00                          39.6 111 
 ANDN HZ IP   0A   015 29.33                              58    0.2510 50.3 308 
 ANDN HE IS   0A   015 35.57                              58   -0.3410 50.3 308 
 ANDN HE  IAML A   015 35.57     11626.0 1.00                          50.3 308 
 MGND HZ EP   2A   015 30.47                              58   -0.04 5 58.6  71 
 KUZU HZ IP   0A   015 31.50                              58    0.1410 63.7 157 
 KUZU HE ES   2A   015 39.60                              58   -0.27 5 63.7 157 
 KUZU HE  IAML A   015 39.60     11344.4 1.00                          63.7 157 
 HASA HZ IP   0A   015 32.02                              58    0.1010 67.0 204 
 HASA HE ES   2A   015 41.33                              58    0.51 5 67.0 204 
 HASA HE  IAML A   015 41.33      1942.6 1.00                          67.0 204 
 GZT  HZ IP   1A   015 31.91                              58   -0.29 7 68.3  85 
 NZIP HZ IP   0A   015 34.46                              58   -0.36 9 83.3 110 
 SAIM HZ EP   2A   015 36.46                              58   -0.90 4 97.8 320 
 CEYT HZ IP   0A   015 37.50                              58    0.14 9 98.4 251 
 ELBS HZ EP   2A   015 41.75                              58    0.94 4  117  15 
 RHAN HZ IP   0A   015 40.63                              58    0.01 9  117 188 
 SARI HZ EP   2A   015 42.07                              58   -0.49 4  127 345 
 SARI HE  IAML A   015 58.99       497.3 1.00                           127 345 
 SARI HE ES   2A   015 58.99                              58   -0.24 4  127 345 
 ATAB HZ IP   1A   015 43.34                              58   -0.34 6  134  82 
 CUGURHZ IP   1A   015 47.96                              38   -0.33 6  163  15 
 URFA HZ IP   1A   015 51.32                              38    0.96 5  180  84 
 URFA HE ES   2A   016 14.45                              38    1.71 4  180  84 
 URFA HE  IAML A   016 14.45       480.8 1.00                           180  84 
 MAYA HE  IAML A   016 13.45       378.3 1.00                           183  51 
 MAYA HE ES   3A   016 13.45                              38    0.03 2  183  51 
 NARI HE  IAML A   016 14.06       214.6 1.00                           185  69 
 NARI HE ES   2A   016 14.06                              38    0.21 3  185  69 
 HANM HE  IAML A   016 14.19       434.7 1.00                           187  80 
 HANM HE ES   3A   016 14.19                              38    0.01 2  187  80 
 HEKM HZ EP   2A   015 54.89                              38    1.50 3  203  30 
 HEKM HE ES   3A   016 21.17                              38    3.20 2  203  30 
 HEKM HE  IAML A   016 21.17       945.4 1.00                           203  30 
                                                                                
 2023  2 7 0017 46.1 L  37.387  36.950  3.9  TUR 10 0.5 2.3LTUR                1
 GAP=162        0.99       2.0     4.1  8.6  0.8840E-01 -0.3893E+01  0.1164E+00E
 Action:ARG 23-03-27 17:02 OP:OBSP STATUS:               ID:20230207012715     I
 STAT SP IPHASW D HRMM SECON CODA AMPLIT PERI AZIMU VELO AIN AR TRES W  DIS CAZ7
 KAHM HZ IP   0A   017 48.58                             100   -0.3710 14.7  13 
 KAHM HE IS   0A   017 50.93                             100   -0.1310 14.7  13 
 KAHM HE  IAML A   017 50.93      2092.1 1.00                          14.7  13 
 NAR  HZ IP   0A   017 49.71                              97    0.1310 18.3  88 
 NAR  HE  IAML A   017 52.29      2557.0 1.00                          18.3  88 
 NAR  HE IS   1A   017 52.29                              97    0.14 7 18.3  88 
 GAZ  HZ IP   0A   017 52.45                              94    0.2610 33.1 136 
 GAZ  HE  IAML A   017 56.72        53.2 1.00                          33.1 136 
 GAZ  HE ES   1A   017 56.72                              94    0.05 7 33.1 136 
 MGND HE  IAML A   017 58.95        99.5 1.00                          42.7  77 
 MGND HE ES   3A   017 58.95                              93   -0.61 2 42.7  77 
 KUZU HE  IAML A   018  7.60       547.3 1.00                          69.0 171 
 KUZU HE ES   2A   018  7.60                              92    0.16 5 69.0 171 
 NZIP HE ES   1A   018  8.44                              92   -0.80 7 74.8 120 
 NZIP HE  IAML A   018  8.44        76.2 1.00                          74.8 120 
 HASA HZ EP   2A   018  0.87                              91    0.24 5 81.8 210 
 RHAN HZ IP   0A   018  9.47                              91    0.62 8  129 194 
 RHAN HE ES   1A   018 24.56                              91   -0.92 6  129 194 
 RHAN HE  IAML A   018 24.56       166.6 1.00                           129 194 
 URFA HE ES   2A   018 33.63                              47   -1.31 4  166  87 
 URFA HE  IAML A   018 33.63        59.2 1.00                           166  87 
 HANM HZ IP   0A   018 15.93                              47    0.87 7  172  82 
                                                                                
 2023  2 7 0017 56.0 L  38.126  36.582  0.0  TUR 19 1.0 3.2LTUR                1
 GAP=111        1.58       3.0     6.0 10.7  0.4226E+01 -0.2553E+02  0.9278E+00E
 Action:ARG 23-03-27 17:02 OP:OBSP STATUS:               ID:20230207012721     I
 STAT SP IPHASW D HRMM SECON CODA AMPLIT PERI AZIMU VELO AIN AR TRES W  DIS CAZ7
 SARI HZ IP   0A   018  2.95                              58    0.3310 34.4 335 
 SARI HE  IAML A   018  7.96      2584.5 1.00                          34.4 335 
 SARI HE IS   1A   018  7.96                              58    0.51 7 34.4 335 
 ELBS HZ IP   0A   018  5.35                              58   -0.4710 53.0  65 
 ELBS HE  IAML A   018 12.55      2596.7 1.00                          53.0  65 
 ELBS HE IS   0A   018 12.55                              58   -0.4510 53.0  65 
 ANDN HE ES   3A   018 16.24                              58   -0.11 2 64.1 199 
 ANDN HE  IAML A   018 16.24      2065.7 1.00                          64.1 199 
 KMRS HZ IP   1A   018  9.45                              58   -0.04 7 74.3 158 
 KMRS HE  IAML A   018 18.69       464.9 1.00                          74.3 158 
 KMRS HE IS   0A   018 18.69                              58   -0.65 9 74.3 158 
 KAHM HZ IP   0A   018  9.86                              58    0.01 9 76.4 152 
 KAHM HE IS   1A   018 19.37                              58   -0.60 7 76.4 152 
 KAHM HE  IAML A   018 19.37      1396.5 1.00                          76.4 152 
 CUGURHZ EP   2A   018 11.26                              58   -0.98 5 89.6  42 
 CUGURHE ES   2A   018 23.98                              58   -0.12 5 89.6  42 
 CUGURHE  IAML A   018 23.98      2206.6 1.00                          89.6  42 
 DARE HE ES   3A   018 23.94                              58   -1.12 2 92.9  58 
 DARE HE  IAML A   018 23.94       131.4 1.00                          92.9  58 
 NAR  HZ EP   1A   018 13.24                              58   -0.03 7 95.9 148 
 BNN  HZ IP   0A   018 13.96                              58   -0.63 9  103 322 
 GAZ  HZ EP   2A   018 17.13                              58   -0.29 4  119 152 
 GZT  HZ IP   1A   018 18.43                              58    0.65 6  121 134 
 CUAYAHZ EP   2A   018 18.64                              58   -0.21 4  127   6 
 CEYT HZ EP   2A   018 21.89                              58    0.26 4  144 211 
 HEKM HE ES   3A   018 39.94                              58   -1.41 2  146  55 
 HEKM HE  IAML A   018 39.94       794.9 1.00                           146  55 
 NZIP HZ EP   1A   018 23.76                              38    0.46 6  154 141 
 NZIP HE ES   2A   018 42.40                              38   -0.84 4  154 141 
 NZIP HE  IAML A   018 42.40       204.0 1.00                           154 141 
 KUZU HZ EP   2A   018 24.05                              38    0.50 4  156 164 
 ATAB HE  IAML A   018 45.84      1267.8 1.00                           167 115 
 ATAB HE ES   3A   018 45.84                              38   -0.25 2  167 115 
 URFA HE IS   0A   018 59.36                              38    3.49 6  211 110 
 URFA HE  IAML A   018 59.36       160.2 1.00                           211 110 
 SANL HE  IAML A   019  4.93       310.5 1.00                           237 116 
 SANL HE ES   2A   019  4.93                              38    3.53 3  237 116 
                                                                                
 2023  2 7 0019 21.8 L  37.493  37.142  3.1  TUR  7 0.5 2.3LTUR                1
 GAP= 93        0.68       4.7     2.4  7.3  0.7223E+01  0.7608E+01  0.2032E+02E
 Action:ARG 23-03-27 17:02 OP:OBSP STATUS:               ID:20230207012918     I
 STAT SP IPHASW D HRMM SECON CODA AMPLIT PERI AZIMU VELO AIN AR TRES W  DIS CAZ7
 KAHM HZ EP   3A   019 26.25                              96    1.68 2 14.0 281 
 KMRS HZ EP   2A   019 25.81                              93   -0.06 5 21.4 274 
 KMRS HE IS   0A   019 28.77                              93   -0.0510 21.4 274 
 KMRS HE  IAML A   019 28.77        60.2 1.00                          21.4 274 
 MGND HZ EP   1A   019 26.17                              93   -0.33 7 24.7  95 
 GZT  HE  IAML A   019 34.62      1553.0 1.00                          40.1 112 
 GZT  HE IS   0A   019 34.62                              92    0.0810 40.1 112 
 NZIP HZ EP   1A   019 33.64                              91   -0.52 7 68.7 136 
 NZIP HE  IAML A   019 43.59       178.9 1.00                          68.7 136 
 NZIP HE ES   1A   019 43.59                              91    0.42 7 68.7 136 
 DARE HZ EP   2A   019 44.33                              91    0.59 4  123  14 
 RHAN HE IS   1A   020  6.13                              49    0.04 6  145 200 
 RHAN HE  IAML A   020  6.13       126.7 1.00                           145 200 
                                                                                
 2023  2 7 0019 46.0 L  37.653  37.128  2.0  TUR  9 0.9 3.1LTUR                1
 GAP=114        1.25       6.6    10.6 31.0 -0.2321E+02 -0.2068E+03  0.1211E+03E
 Action:ARG 23-03-27 17:02 OP:OBSP STATUS:               ID:20230207012949     I
 STAT SP IPHASW D HRMM SECON CODA AMPLIT PERI AZIMU VELO AIN AR TRES W  DIS CAZ7
 NAR  HE ES   2A   019 54.96                              58    0.03 7 29.1 175 
 NAR  HE  IAML A   019 54.96       846.4 1.00                          29.1 175 
 SARI HZ IP   1A   020  4.01                              58   -0.43 9  104 324 
 ATAB HE ES   2A   020 16.37                              58   -1.51 6  105 101 
 ATAB HE  IAML A   020 16.37       983.5 1.00                           105 101 
 HASA HE  IAML A   020 20.37      3470.6 1.00                           115 210 
 HASA HE ES   2A   020 20.37                              58   -0.57 6  115 210 
 URFA HE ES   2A   020 31.74                              38    0.19 5  151  98 
 URFA HE  IAML A   020 31.74        97.2 1.00                           151  98 
 HEKM HZ IP   0A   020 12.59                              38   -0.2510  154  28 
 HANM HZ EP   2A   020 12.55                              38   -0.17 5  155  92 
 SANL HZ EP   1A   020 17.13                              38    2.09 7  173 107 
 CUAYAHZ EP   2A   020 17.12                              38    0.79 5  182 350 
                                                                                
