 2023  2 7 0035 23.3 L  37.439  37.370 12.1  TUR  6 0.6 2.4LTUR                1
 GAP=117        1.10       6.1    10.5 12.0  0.1320E+02 -0.1129E+03 -0.2810E+02E
 Action:ARG 23-03-27 17:02 OP:OBSP STATUS:               ID:20230207021157     I
 STAT SP IPHASW D HRMM SECON CODA AMPLIT PERI AZIMU VELO AIN AR TRES W  DIS CAZ7
 NAR  HZ IP   0A   035 28.14                             120    0.6110 19.6 255 
 NAR  HE ES   1A   035 30.12                             120   -0.48 7 19.6 255 
 NAR  HE  IAML A   035 30.12      1209.3 1.00                          19.6 255 
 KUZU HZ IP   0A   035 37.07                              81   -0.31 9 78.4 200 
 ELBS HZ EP   2A   035 39.49                              72   -1.72 4  100 348 
 SAIM HZ IP   0A   035 46.01                              72    0.25 8  128 298 
 HANM HE  IAML A   036  3.47        69.7 1.00                           134  83 
 HANM HE IS   0A   036  3.47                              50   -0.01 8  134  83 
 MAYA HZ IP   0A   035 46.87                              50    0.15 8  135  43 
                                                                                
 2023  2 7 0035 30.6 L  37.652  37.298 12.0  TUR  7 0.6 1.9LTUR                1
 GAP=124        0.76       9.1     3.7  8.8  0.1551E+02 -0.1441E+02 -0.6623E+02E
 Action:ARG 23-03-27 17:02 OP:OBSP STATUS:               ID:20230207021218     I
 STAT SP IPHASW D HRMM SECON CODA AMPLIT PERI AZIMU VELO AIN AR TRES W  DIS CAZ7
 MGND HZ IP   0A   035 35.74                             117    0.3710 22.8 152 
 MGND HE  IAML A   035 38.65       220.6 1.00                          22.8 152 
 MGND HE IS   1A   035 38.65                             117   -0.19 7 22.8 152 
 KAHM HZ EP   3A   035 37.08                             109    0.41 2 31.3 241 
 KMRS HZ EP   1A   035 38.35                             105    0.45 7 38.7 245 
 KMRS HE  IAML A   035 42.76        31.5 1.00                          38.7 245 
 KMRS HE IS   1A   035 42.76                             105   -0.45 7 38.7 245 
 GZT  HE  IAML A   035 43.20       207.4 1.00                          40.4 145 
 GZT  HE ES   2A   035 43.20                             104   -0.58 5 40.4 145 
 DARE HZ EP   3A   035 46.89                              72   -2.05 2  103   9 
 HASA HE  IAML A   036  8.33       110.0 1.00                           123 216 
 HASA HE ES   3A   036  8.33                              72    0.44 2  123 216 
 HANM HZ IP   0A   035 54.47                              50   -0.10 8  140  93 
                                                                                
 2023  2 7 0035 35.8 L  37.329  37.282  5.0  TUR  7 0.6 2.2LTUR                1
 GAP=136        0.62       4.7     4.2  6.5  0.1547E+02 -0.3677E+01 -0.6705E+00E
 Action:ARG 23-03-27 17:02 OP:OBSP STATUS:               ID:20230207021248     I
 STAT SP IPHASW D HRMM SECON CODA AMPLIT PERI AZIMU VELO AIN AR TRES W  DIS CAZ7
 NAR  HZ EP   3A   035 39.10                             108    0.63 3 13.1 302 
 NAR  HE ES   3A   035 40.38                             108   -0.03 3 13.1 302 
 NAR  HE  IAML A   035 40.38       674.9 1.00                          13.1 302 
 KAHM HE  IAML A   035 46.57      1159.1 1.00                          33.4 309 
 KAHM HE ES   1A   035 46.57                              96    0.12 9 33.4 309 
 NZIP HZ EP   3A   035 45.26                              94    0.86 3 47.1 132 
 NZIP HE IS   1A   035 50.64                              94   -0.02 9 47.1 132 
 NZIP HE  IAML A   035 50.64        60.8 1.00                          47.1 132 
 ANDN HE ES   3A   036  1.40                              92   -1.48 3 87.5 289 
 ANDN HE  IAML A   036  1.40       177.4 1.00                          87.5 289 
 URFA HZ IP   0A   035 59.75                              70   -0.2910  137  84 
 CEYT HZ EP   1A   036  0.48                              49   -0.11 7  141 256 
 SANL HZ EP   2A   036  3.24                              47    1.07 5  152  96 
                                                                                
 2023  2 7 0036 35.2 L  37.603  37.270  2.0  TUR  7 0.9 3.0LTUR                1
 GAP=146        1.86       6.8     9.9 17.9 -0.1122E+02  0.2298E+02 -0.1262E+02E
 Action:ARG 23-03-27 17:02 OP:OBSP STATUS:               ID:20230207021418     I
 STAT SP IPHASW D HRMM SECON CODA AMPLIT PERI AZIMU VELO AIN AR TRES W  DIS CAZ7
 KAHM HZ IP   0A   036 41.55                              58    1.3610 26.8 249 
 KMRS HZ IP   0A   036 41.11                              58   -0.4210 34.5 252 
 SARI HE IS   0A   037 10.79                              58   -0.36 9  116 320 
 SARI HE  IAML A   037 10.79       518.8 1.00                           116 320 
 HASA HZ EP   1A   036 54.11                              58   -1.92 6  117 217 
 MAYA HZ IP   0A   036 58.35                              58    0.18 8  129  51 
 RHAN HE ES   1A   037 23.28                              38    0.12 6  161 202 
 RHAN HE  IAML A   037 23.28       209.4 1.00                           161 202 
 ELZG HZ EP   2A   037  5.13                              38   -0.43 4  180  56 
                                                                                
 2023  2 7 0036 41.0 L  37.532  37.177 19.6  TUR 10 0.8 2.7LTUR                1
 GAP=183        1.27       7.8     9.1  8.8  0.2188E+02 -0.6288E+02 -0.2259E+02E
 Action:ARG 23-03-27 17:02 OP:OBSP STATUS:               ID:20230207021543     I
 STAT SP IPHASW D HRMM SECON CODA AMPLIT PERI AZIMU VELO AIN AR TRES W  DIS CAZ7
 NAR  HZ IP   0A   036 45.15                             139   -0.3210 15.7 186 
 KAHM HE IS   1A   036 50.09                             137    1.13 7 16.9 264 
 KAHM HE  IAML A   036 50.09      2494.3 1.00                          16.9 264 
 MGND HZ EP   1A   036 46.73                             128    0.38 7 22.6 107 
 MGND HE ES   3A   036 48.56                             128   -1.73 2 22.6 107 
 MGND HE  IAML A   036 48.56       368.5 1.00                          22.6 107 
 KMRS HE  IAML A   036 49.45      1632.3 1.00                          24.7 263 
 KMRS HE IS   1A   036 49.45                             125   -1.19 7 24.7 263 
 GAZ  HE  IAML A   036 54.67       564.8 1.00                          40.1 176 
 GAZ  HE IS   1A   036 54.67                             111    0.03 7 40.1 176 
 NZIP HZ EP   2A   036 54.26                              98    0.62 5 69.9 141 
 KUZU HZ EP   3A   036 55.66                              79   -0.34 2 84.7 186 
 ATAB HZ EP   3A   036 57.69                              79   -0.62 2 99.1  94 
 HANM HZ IP   0A   037  4.87                              51   -0.56 8  151  87 
 SANL HZ IP   1A   037  8.45                              51    1.13 6  165 103 
 SANL HE ES   2A   037 27.45                              51    0.89 4  165 103 
 SANL HE  IAML A   037 27.45       386.5 1.00                           165 103 
                                                                                
 2023  2 7 0036 44.8 L  37.458  37.311 21.8  TUR  7 0.5 2.8LTUR                1
 GAP=127        0.64       5.5     4.6  5.6  0.8954E+01 -0.1053E+02 -0.1152E+02E
 Action:ARG 23-03-27 17:02 OP:OBSP STATUS:               ID:20230207021610     I
 STAT SP IPHASW D HRMM SECON CODA AMPLIT PERI AZIMU VELO AIN AR TRES W  DIS CAZ7
 NAR  HE ES   3A   036 54.04                             142    1.04 2 15.5 242 
 NAR  HE  IAML A   036 54.04      2954.8 1.00                          15.5 242 
 GZT  HZ IP   0A   036 50.49                             128   -0.1810 24.9 117 
 KAHM HE ES   2A   036 56.29                             122    0.40 5 29.4 283 
 KAHM HE  IAML A   036 56.29      1477.8 1.00                          29.4 283 
 GAZ  HZ IP   0A   036 51.56                             119   -0.1910 33.0 196 
 NZIP HZ EP   1A   036 55.62                             102    0.35 7 56.2 145 
 SARI HZ EP   2A   037  6.04                              52   -0.70 4  131 324 
 URFA HZ EP   2A   037  7.57                              52    0.67 4  134  90 
 URFA HE ES   3A   037 23.61                              52    0.54 2  134  90 
 URFA HE  IAML A   037 23.61       138.8 1.00                           134  90 
                                                                                
 2023  2 7 0038 10.6 L  37.396  37.273  2.5  TUR  6 0.6 2.0LTUR                1
 GAP= 96        0.69       5.7     7.1 18.4  0.2752E+01 -0.8486E+02 -0.3413E+02E
 Action:ARG 23-03-27 17:02 OP:OBSP STATUS:               ID:20230207021853     I
 STAT SP IPHASW D HRMM SECON CODA AMPLIT PERI AZIMU VELO AIN AR TRES W  DIS CAZ7
 NAR  HE IS   1A   038 14.19                              95   -0.02 7 10.2 268 
 NAR  HE  IAML A   038 14.19       959.6 1.00                          10.2 268 
 KUZU HZ EP   2A   038 24.03                              90    0.66 5 71.2 194 
 HASA HZ EP   2A   038 27.66                              90   -0.72 4  100 225 
 DARE HZ EP   2A   038 33.58                              90   -0.41 4  132   8 
 CUGURHZ EP   2A   038 37.50                              49    0.75 4  147 360 
 SANL HZ EP   3A   038 36.27                              47   -1.23 2  154  99 
                                                                                
 2023  2 7 0040  7.9 L  38.136  36.621  1.5  TUR 17 0.7 3.4LTUR                1
 GAP=108        1.04       2.0     3.9  8.7  0.3279E+01  0.1437E+00 -0.1200E+01E
 Action:ARG 23-03-27 17:02 OP:OBSP STATUS:               ID:20230207022022     I
 STAT SP IPHASW D HRMM SECON CODA AMPLIT PERI AZIMU VELO AIN AR TRES W  DIS CAZ7
 SARI HZ IP   0A   040 14.78                              58    0.3610 34.9 330 
 SARI HE  IAML A   040 19.80      3604.4 1.00                          34.9 330 
 SARI HE IS   0A   040 19.80                              58    0.5910 34.9 330 
 ELBS HZ IP   0A   040 16.92                              58    0.0110 49.5  65 
 ELBS HE ES   2A   040 23.58                              58    0.05 5 49.5  65 
 ELBS HE  IAML A   040 23.58      6819.1 1.00                          49.5  65 
 ANDN HZ EP   1A   040 19.64                              58   -0.21 7 66.3 202 
 KMRS HZ IP   0A   040 21.29                              58    0.13 9 74.2 161 
 KMRS HE ES   1A   040 30.43                              58   -0.45 7 74.2 161 
 KMRS HE  IAML A   040 30.43      1186.6 1.00                          74.2 161 
 KAHM HZ IP   1A   040 21.63                              58    0.16 7 75.9 155 
 KAHM HE IS   1A   040 31.12                              58   -0.29 7 75.9 155 
 KAHM HE  IAML A   040 31.12      4749.3 1.00                          75.9 155 
 CUGURHZ IP   1A   040 22.86                              58   -0.55 7 86.5  41 
 CUGURHE ES   3A   040 34.96                              58    0.19 2 86.5  41 
 CUGURHE  IAML A   040 34.96      8644.8 1.00                          86.5  41 
 DARE HE  IAML A   040 35.10       383.1 1.00                          89.5  57 
 DARE HE ES   3A   040 35.10                              58   -0.52 2 89.5  57 
 NAR  HZ IP   1A   040 25.08                              58    0.24 7 95.2 150 
 NAR  HE ES   3A   040 36.99                              58   -0.25 2 95.2 150 
 NAR  HE  IAML A   040 36.99      1940.5 1.00                          95.2 150 
 BNN  HZ IP   0A   040 25.78                              58   -0.73 9  104 320 
 BNN  HE ES   2A   040 39.12                              58   -1.01 4  104 320 
 BNN  HE  IAML A   040 39.12       428.9 1.00                           104 320 
 GAZ  HZ EP   1A   040 28.91                              58   -0.12 6  119 154 
 GZT  HZ IP   1A   040 29.99                              58    0.78 6  120 136 
 CUAYAHZ EP   1A   040 29.58                              58   -0.72 6  126   5 
 CUAYAHE  IAML A   040 46.16      1834.7 1.00                           126   5 
 CUAYAHE ES   2A   040 46.16                              58   -0.52 4  126   5 
 CEYT HZ EP   1A   040 34.36                              58    0.56 6  147 212 
 CUKANHZ EP   2A   040 34.23                              40   -0.30 4  150  29 
 NZIP HZ EP   3A   040 33.98                              38   -0.79 2  153 142 
 NZIP HE ES   3A   040 53.82                              38   -0.61 2  153 142 
 NZIP HE  IAML A   040 53.82       586.4 1.00                           153 142 
 HASA HZ IP   0A   040 34.41                              38   -0.47 8  154 184 
 SANL HZ IP   1A   040 47.85                              38    2.74 4  235 116 
                                                                                
 2023  2 7 0041 23.3 L  37.434  37.130  8.1  TUR 11 0.4 2.7LTUR                1
 GAP=100        0.72       2.0     2.1  3.8  0.1488E+01 -0.8395E+00 -0.1270E+01E
 Action:ARG 23-03-27 17:02 OP:OBSP STATUS:               ID:20230207022059     I
 STAT SP IPHASW D HRMM SECON CODA AMPLIT PERI AZIMU VELO AIN AR TRES W  DIS CAZ7
 NAR  HZ IP   0A   041 25.17                             147    0.0110 5.26 152 
 NAR  HE  IAML A   041 26.68     39572.9 1.00                          5.26 152 
 NAR  HE ES   1A   041 26.68                             147    0.15 7 5.26 152 
 KAHM HZ IP   0A   041 26.52                             115   -0.0310 15.6 306 
 KAHM HE IS   1A   041 28.93                             115   -0.00 7 15.6 306 
 KAHM HE  IAML A   041 28.93      1976.3 1.00                          15.6 306 
 MGND HZ IP   0A   041 28.43                             104    0.1110 26.0  81 
 MGND HE IS   1A   041 31.72                             104   -0.27 7 26.0  81 
 MGND HE  IAML A   041 31.72       501.6 1.00                          26.0  81 
 GAZ  HZ IP   0A   041 29.15                             101    0.1910 29.9 166 
 GAZ  HE  IAML A   041 33.02       206.3 1.00                          29.9 166 
 GAZ  HE ES   1A   041 33.02                             101   -0.08 7 29.9 166 
 GZT  HE  IAML A   041 35.18       951.7 1.00                          39.2 103 
 GZT  HE ES   1A   041 35.18                              97   -0.68 7 39.2 103 
 ANDN HZ EP   3A   041 37.22                              90    1.10 2 71.2 283 
 ANDN HE  IAML A   041 44.90       301.1 1.00                          71.2 283 
 ANDN HE ES   2A   041 44.90                              90   -0.59 5 71.2 283 
 KUZU HE ES   2A   041 46.00                              90   -0.06 5 73.4 184 
 KUZU HE  IAML A   041 46.00      1043.4 1.00                          73.4 184 
 ELBS HZ EP   2A   041 41.74                              90    0.83 4 98.8   0 
 ATAB HZ EP   1A   041 42.32                              90    0.74 7  103  87 
 SAIM HZ EP   1A   041 42.30                              90   -0.57 6  110 303 
 DARE HZ EP   3A   041 47.32                              72    1.11 2  130  14 
                                                                                
 2023  2 7 0044  9.2 L  37.524  37.461 26.7  TUR  8 0.5 2.8LTUR                1
 GAP=112        0.83      10.0     5.4  6.2  0.3768E+02 -0.2419E+02 -0.4991E+02E
 Action:ARG 23-03-27 17:02 OP:OBSP STATUS:               ID:20230207023525     I
 STAT SP IPHASW D HRMM SECON CODA AMPLIT PERI AZIMU VELO AIN AR TRES W  DIS CAZ7
 MGND HZ IP   0A   044 13.86                             165   -0.2710 6.90 212 
 GZT  HZ IP   0A   044 15.35                             140    0.1910 20.7 155 
 KAHM HZ IP   0A   044 17.63                             117   -0.1410 41.9 269 
 KAHM HE  IAML A   044 25.13       326.8 1.00                          41.9 269 
 KAHM HE ES   2A   044 25.13                             117    1.11 5 41.9 269 
 KMRS HZ IP   0A   044 18.92                             112    0.0310 49.7 268 
 ELBS HE  IAML A   044 38.15       660.6 1.00                          93.4 342 
 ELBS HE ES   2A   044 38.15                              56    0.49 5 93.4 342 
 ANDN HZ EP   2A   044 25.92                              56   -0.44 4 98.8 274 
 URFA HZ EP   1A   044 28.56                              56   -0.65 6  121  94 
 URFA HE ES   1A   044 44.48                              56    0.66 6  121  94 
 URFA HE  IAML A   044 44.48       212.1 1.00                           121  94 
 SARI HZ EP   2A   044 30.42                              53   -0.64 4  134 317 
                                                                                
 2023  2 7 0044 40.3 L  37.443  37.202  5.1  TUR 10 0.7 2.5LTUR                1
 GAP=119        1.12       3.3     2.6  6.9 -0.8215E+00 -0.4533E+01 -0.4294E+01E
 Action:ARG 23-03-27 17:02 OP:OBSP STATUS:               ID:20230207023724     I
 STAT SP IPHASW D HRMM SECON CODA AMPLIT PERI AZIMU VELO AIN AR TRES W  DIS CAZ7
 NAR  HZ IP   0A   044 42.12                             125    0.0810 6.96 215 
 NAR  HE IS   1A   044 43.98                             125    0.70 7 6.96 215 
 NAR  HE  IAML A   044 43.98      5479.5 1.00                          6.96 215 
 MGND HZ IP   0A   044 44.07                             102   -0.0710 19.5  81 
 MGND HE  IAML A   044 46.74       890.9 1.00                          19.5  81 
 MGND HE IS   0A   044 46.74                             102   -0.1810 19.5  81 
 KAHM HZ IP   0A   044 44.19                             101   -0.1010 20.7 293 
 KAHM HE IS   1A   044 46.93                             101   -0.25 7 20.7 293 
 KAHM HE  IAML A   044 46.93      1069.6 1.00                          20.7 293 
 GAZ  HZ IP   0A   044 46.13                              97    0.1710 30.1 179 
 GAZ  HE ES   1A   044 49.87                              97   -0.19 7 30.1 179 
 GAZ  HE  IAML A   044 49.87       133.8 1.00                          30.1 179 
 GZT  HZ IP   0A   044 46.44                              96   -0.0710 33.2 107 
 GZT  HE  IAML A   044 50.34       767.7 1.00                          33.2 107 
 GZT  HE ES   1A   044 50.34                              96   -0.68 7 33.2 107 
 ATAB HE ES   1A   045 10.92                              92    0.84 7 96.7  88 
 ATAB HE  IAML A   045 10.92      1015.1 1.00                          96.7  88 
 HASA HZ IP   0A   044 57.69                              92   -0.37 9 99.8 220 
 RHAN HZ EP   3A   045  3.02                              49   -2.23 2  142 202 
 HANM HE  IAML A   045 25.37       151.2 1.00                           149  84 
 HANM HE ES   2A   045 25.37                              47    0.18 4  149  84 
 ELZG HZ EP   2A   045 15.52                              47    3.28 3  195  53 
                                                                                
