 2023  2 7 0105 33.8 L  37.362  37.183 23.8  TUR  6 0.7 2.2LTUR                1
 GAP=129        0.81       9.3    12.1  5.9  0.1200E+02 -0.3873E+02 -0.2018E+02E
 Action:ARG 23-03-27 17:02 OP:OBSP STATUS:               ID:20230207054614     I
 STAT SP IPHASW D HRMM SECON CODA AMPLIT PERI AZIMU VELO AIN AR TRES W  DIS CAZ7
 NAR  HZ EP   2A   1 5 38.32                             170    0.18 6 4.01 325 
 NAR  HE ES   2A   1 5 41.88                             170    0.60 6 4.01 325 
 NAR  HE  IAML A   1 5 41.88      1150.5 1.00                          4.01 325 
 GAZ  HZ EP   2A   1 5 39.63                             136    0.12 6 21.2 174 
 MGND HE  IAML A   1 5 42.67       193.6 1.00                          24.2  60 
 MGND HE ES   3A   1 5 42.67                             132   -1.60 3 24.2  60 
 KMRS HZ EP   2A   1 5 39.63                             125   -0.85 6 29.7 302 
 NZIP HZ EP   3A   1 5 42.94                             106   -1.48 3 56.2 129 
 MAYA HZ IP   0A   1 5 58.55                              52    0.3010  153  45 
                                                                                
 2023  2 7 0107  8.2 L  38.043  37.159  0.6  TUR 10 0.6 2.4LTUR                1
 GAP= 98        0.73       4.4     4.9  9.9 -0.1063E+02  0.1558E+02 -0.1578E+02E
 Action:ARG 23-03-27 17:02 OP:OBSP STATUS:               ID:20230207054637     I
 STAT SP IPHASW D HRMM SECON CODA AMPLIT PERI AZIMU VELO AIN AR TRES W  DIS CAZ7
 KAHM HE IS   1A   1 7 27.14                              58   -0.05 8 60.3 195 
 KAHM HE  IAML A   1 7 27.14       325.5 1.00                          60.3 195 
 KMRS HZ IP   0A   1 7 20.19                              58    0.3910 63.8 201 
 SARI HE  IAML A   1 7 31.50       156.7 1.00                          76.5 302 
 SARI HE ES   3A   1 7 31.50                              58   -0.79 2 76.5 302 
 GZT  HZ EP   1A   1 7 22.85                              58   -0.54 7 84.1 155 
 ANDN HE ES   1A   1 7 35.47                              58   -0.25 7 88.2 235 
 ANDN HE  IAML A   1 7 35.47       186.6 1.00                          88.2 235 
 ATAB HZ EP   3A   1 7 27.97                              58   -1.39 2  119 122 
 NZIP HZ EP   3A   1 7 30.40                              58    0.77 2  120 158 
 URFA HZ EP   1A   1 7 36.03                              38   -0.27 6  161 114 
 ELZG HZ EP   2A   1 7 38.35                              38    1.21 4  168  72 
 KEMA HE ES   2A   1 8  1.00                              38    0.21 4  179  40 
 KEMA HE  IAML A   1 8  1.00        42.0 1.00                           179  40 
                                                                                
 2023  2 7 0108 26.2 L  38.035  37.315  4.9  TUR 22 0.7 2.8LTUR                1
 GAP= 94        1.08       2.0     4.2  5.5 -0.3515E+00 -0.6679E+01  0.2519E+01E
 Action:ARG 23-03-27 17:02 OP:OBSP STATUS:               ID:20230207054702     I
 STAT SP IPHASW D HRMM SECON CODA AMPLIT PERI AZIMU VELO AIN AR TRES W  DIS CAZ7
 ELBS HZ IP   0A   1 8 32.89                              95    0.0710 35.9 334 
 ELBS HE  IAML A   1 8 38.67      2656.3 1.00                          35.9 334 
 ELBS HE IS   1A   1 8 38.67                              95    0.99 7 35.9 334 
 DARE HZ IP   1A   1 8 36.36                              93   -0.87 7 61.3  14 
 DARE HE IS   1A   1 8 45.33                              93    0.01 7 61.3  14 
 DARE HE  IAML A   1 8 45.33       183.4 1.00                          61.3  14 
 MGND HE  IAML A   1 8 45.78       320.9 1.00                          63.2 172 
 MGND HE ES   3A   1 8 45.78                              93   -0.09 2 63.2 172 
 KAHM HE  IAML A   1 8 45.46       423.7 1.00                          64.3 207 
 KAHM HE ES   2A   1 8 45.46                              93   -0.67 5 64.3 207 
 KMRS HE  IAML A   1 8 46.96       136.7 1.00                          69.2 212 
 KMRS HE ES   2A   1 8 46.96                              93   -0.64 5 69.2 212 
 NAR  HZ EP   3A   1 8 39.10                              92   -0.06 2 72.7 191 
 CUGURHZ EP   1A   1 8 39.62                              92   -0.31 7 76.6 357 
 CUGURHE ES   2A   1 8 50.74                              92    0.76 5 76.6 357 
 CUGURHE  IAML A   1 8 50.74      2861.4 1.00                          76.6 357 
 GZT  HZ EP   1A   1 8 40.03                              92   -0.18 7 78.4 164 
 GZT  HE ES   2A   1 8 49.63                              92   -0.84 5 78.4 164 
 GZT  HE  IAML A   1 8 49.63       625.1 1.00                          78.4 164 
 GAZ  HZ IP   1A   1 8 44.73                              92    1.43 7 96.2 186 
 ANDN HZ EP   2A   1 8 43.51                              92   -0.34 4 99.2 240 
 ANDN HE  IAML A   1 8 56.06       566.8 1.00                          99.2 240 
 ANDN HE ES   2A   1 8 56.06                              92   -0.71 4 99.2 240 
 ATAB HZ IP   0A   1 8 45.87                              92    0.77 9  107 126 
 HEKM HZ EP   2A   1 8 44.33                              92   -1.36 4  109  31 
 HEKM HE  IAML A   1 8 59.02       939.3 1.00                           109  31 
 HEKM HE ES   2A   1 8 59.02                              92   -0.94 4  109  31 
 NZIP HZ EP   2A   1 8 47.07                              92    0.57 4  115 164 
 NARI HE  IAML A   1 9  4.91       118.7 1.00                           128  97 
 NARI HE ES   2A   1 9  4.91                              91   -0.56 4  128  97 
 KUZU HZ IP   0A   1 8 50.74                              49   -0.39 8  142 189 
 CUKANHE ES   2A   1 9  9.16                              49   -0.73 4  143   5 
 CUKANHE  IAML A   1 9  9.16       237.5 1.00                           143   5 
 HANM HZ EP   1A   1 8 50.99                              49   -0.81 6  147 110 
 URFA HE ES   1A   1 9 11.74                              49    0.80 6  148 116 
 URFA HE  IAML A   1 9 11.74        89.1 1.00                           148 116 
 ELZG HE ES   2A   1 9 12.99                              47    0.56 4  155  70 
 ELZG HE  IAML A   1 9 12.99       349.5 1.00                           155  70 
 HASA HZ EP   2A   1 8 53.11                              47   -0.40 4  160 207 
 HASA HE ES   2A   1 9 14.09                              47    0.61 4  160 207 
 HASA HE  IAML A   1 9 14.09       231.2 1.00                           160 207 
 KEMA HZ EP   3A   1 8 55.36                              47    0.38 2  171  36 
 CEYT HZ EP   3A   1 8 57.29                              47    1.43 2  179 231 
                                                                                
 2023  2 7 0110 36.9 L  37.287  36.992  5.6  TUR  9 0.3 2.3LTUR                1
 GAP=142        0.51       1.3     2.2 27.8  0.3825E+00  0.1688E+02  0.1010E+02E
 Action:ARG 23-03-27 17:02 OP:OBSP STATUS:               ID:20230207062913     I
 STAT SP IPHASW D HRMM SECON CODA AMPLIT PERI AZIMU VELO AIN AR TRES W  DIS CAZ7
 NAR  HZ EP   1A   110 40.64                             103    0.13 7 18.7  51 
 NAR  HE ES   1A   110 43.07                             103   -0.09 7 18.7  51 
 NAR  HE  IAML A   110 43.07      1320.9 1.00                          18.7  51 
 GAZ  HZ IP   0A   110 41.25                             101   -0.0510 23.1 123 
 GAZ  HE IS   1A   110 44.44                             101   -0.09 7 23.1 123 
 GAZ  HE  IAML A   110 44.44        84.0 1.00                          23.1 123 
 KAHM HZ IP   0A   110 41.40                              99   -0.2710 25.5 359 
 KAHM HE  IAML A   110 45.29       787.3 1.00                          25.5 359 
 KAHM HE IS   1A   110 45.29                              99    0.12 7 25.5 359 
 MGND HE IS   0A   110 50.88                              95    0.3410 43.1  61 
 MGND HE  IAML A   110 50.88        91.9 1.00                          43.1  61 
 GZT  HE  IAML A   110 52.45       163.0 1.00                          51.0  81 
 GZT  HE ES   2A   110 52.45                              94   -0.46 5 51.0  81 
 KUZU HE ES   3A   110 54.85                              94    0.06 2 57.4 173 
 KUZU HE  IAML A   110 54.85       350.0 1.00                          57.4 173 
 HASA HZ EP   2A   110 50.42                              93    0.22 5 74.6 217 
 ATAB HZ EP   2A   110 57.94                              92    0.30 4  117  80 
 ATAB HE  IAML A   111 12.16       222.9 1.00                           117  80 
 ATAB HE ES   2A   111 12.16                              92   -0.64 4  117  80 
 RHAN HE ES   2A   111 13.73                              92    0.36 4  119 197 
 RHAN HE  IAML A   111 13.73       153.4 1.00                           119 197 
                                                                                
 2023  2 7 0111  0.4 L  37.487  37.044 11.5  TUR  6 0.6 2.4LTUR                1
 GAP=143        0.90      11.6    11.5  5.0  0.1199E+03 -0.2311E+02 -0.1782E+02E
 Action:ARG 23-03-27 17:02 OP:OBSP STATUS:               ID:20230207063109     I
 STAT SP IPHASW D HRMM SECON CODA AMPLIT PERI AZIMU VELO AIN AR TRES W  DIS CAZ7
 KAHM HZ IP   0A   111  3.03                             152    0.1710 6.03 303 
 KAHM HE IS   0A   111  4.54                             152   -0.1010 6.03 303 
 KAHM HE  IAML A   111  4.54       981.9 1.00                          6.03 303 
 KMRS HZ IP   0A   111  3.39                             131   -0.2210 12.9 279 
 NAR  HZ EP   1A   111  4.02                             127    0.18 7 14.5 136 
 NAR  HE  IAML A   111  6.45       770.1 1.00                          14.5 136 
 NAR  HE IS   1A   111  6.45                             127    0.11 7 14.5 136 
 URFA HZ EP   2A   111 25.08                              47   -1.62 4  157  91 
 SANL HE ES   3A   111 49.67                              47   -0.19 2  176 101 
 SANL HE  IAML A   111 49.67       124.7 1.00                           176 101 
 BNN  HZ EP   2A   111 32.01                              47    1.80 4  184 326 
                                                                                
 2023  2 7 0111 17.4 L  37.645  37.291  6.4  TUR  6 0.6 2.2LTUR                1
 GAP= 94        0.82       3.7     3.6  9.2 -0.2103E+01 -0.1287E+02 -0.1223E+02E
 Action:ARG 23-03-27 17:02 OP:OBSP STATUS:               ID:20230207063137     I
 STAT SP IPHASW D HRMM SECON CODA AMPLIT PERI AZIMU VELO AIN AR TRES W  DIS CAZ7
 MGND HZ IP   1A   111 21.24                             104   -0.48 7 22.4 149 
 MGND HE ES   3A   111 23.87                             104   -1.03 2 22.4 149 
 MGND HE  IAML A   111 23.87       252.3 1.00                          22.4 149 
 KAHM HZ EP   2A   111 23.12                              99    0.09 5 30.3 242 
 KMRS HZ IP   0A   111 24.74                              97    0.4210 37.8 246 
 KMRS HE ES   2A   111 29.34                              97   -0.05 5 37.8 246 
 KMRS HE  IAML A   111 29.34        38.5 1.00                          37.8 246 
 SARI HZ EP   2A   111 37.92                              82    0.17 4  114 318 
 SARI HE ES   2A   111 51.03                              82   -1.59 4  114 318 
 SARI HE  IAML A   111 51.03       208.9 1.00                           114 318 
 MAYA HE IS   0A   111 56.06                              82    0.28 8  125  52 
 MAYA HE  IAML A   111 56.06       131.8 1.00                           125  52 
 SANL HZ EP   2A   111 44.33                              47   -0.12 4  159 109 
 SANL HE ES   2A   112  4.17                              47   -0.03 4  159 109 
 SANL HE  IAML A   112  4.17       105.6 1.00                           159 109 
                                                                                
 2023  2 7 0111 40.8 L  37.679  37.216  3.1  TUR  8 0.7 2.5LTUR                1
 GAP=145        1.13       3.8     5.9 25.2 -0.1030E+02 -0.4438E+01 -0.1186E+02E
 Action:ARG 23-03-27 17:02 OP:OBSP STATUS:               ID:20230207063145     I
 STAT SP IPHASW D HRMM SECON CODA AMPLIT PERI AZIMU VELO AIN AR TRES W  DIS CAZ7
 KAHM HZ IP   0A   111 46.15                              93    0.3510 27.1 228 
 NZIP HZ EP   2A   111 56.24                              91    0.90 5 81.4 150 
 ATAB HZ IP   0A   111 57.71                              91   -0.50 9 98.1 103 
 DARE HE  IAML A   112 12.04        41.1 1.00                           102  13 
 DARE HE IS   0A   112 12.04                              91   -0.10 9  102  13 
 HASA HE  IAML A   112 16.07       193.5 1.00                           122 212 
 HASA HE ES   2A   112 16.07                              91   -1.99 4  122 212 
 MAYA HE ES   1A   112 20.04                              91   -0.09 6  128  56 
 MAYA HE  IAML A   112 20.04       175.2 1.00                           128  56 
 URFA HZ EP   1A   112  7.19                              90    0.86 6  144 100 
 HEKM HZ EP   2A   112  7.12                              49    0.09 4  148  26 
                                                                                
 2023  2 7 0111 42.3 L  37.645  37.409  0.0  TUR  9 0.5 2.5LTUR                1
 GAP= 91        0.96       2.7     4.4 12.2  0.8176E+00 -0.3045E+02 -0.1651E+01E
 Action:ARG 23-03-27 17:02 OP:OBSP STATUS:               ID:20230207063419     I
 STAT SP IPHASW D HRMM SECON CODA AMPLIT PERI AZIMU VELO AIN AR TRES W  DIS CAZ7
 MGND HZ IP   0A   111 46.52                              58    0.2910 19.3 177 
 MGND HE  IAML A   111 49.49       251.7 1.00                          19.3 177 
 MGND HE IS   1A   111 49.49                              58    0.39 7 19.3 177 
 GZT  HZ IP   1A   111 49.02                              58    0.08 7 34.9 157 
 GZT  HE IS   0A   111 53.61                              58   -0.1810 34.9 157 
 GZT  HE  IAML A   111 53.61       589.2 1.00                          34.9 157 
 NAR  HZ IP   1A   111 49.55                              58    0.47 7 35.9 218 
 KAHM HZ EP   3A   111 51.08                              58    1.30 2 39.9 249 
 KMRS HZ IP   0A   111 50.38                              58   -0.7410 47.6 251 
 ATAB HE  IAML A   112  6.52       294.1 1.00                          80.6 104 
 ATAB HE ES   3A   112  6.52                              58   -1.02 2 80.6 104 
 NARI HE  IAML A   112 19.55        48.6 1.00                           122  77 
 NARI HE ES   1A   112 19.55                              58   -0.57 6  122  77 
 SAIM HE ES   2A   112 20.54                              58    0.24 4  123 288 
 SAIM HE  IAML A   112 20.54       492.6 1.00                           123 288 
 HEKM HE ES   1A   112 28.07                              58    0.77 6  145  19 
 HEKM HE  IAML A   112 28.07       181.6 1.00                           145  19 
                                                                                
 2023  2 7 0115 15.0 L  37.581  37.010  1.8  TUR  6 0.8 3.4LTUR                1
 GAP=137        1.06       5.6    16.5 35.4  0.2071E+02  0.3597E+03 -0.6789E+02E
 Action:ARG 23-03-27 17:02 OP:OBSP STATUS:               ID:20230207063808     I
 STAT SP IPHASW D HRMM SECON CODA AMPLIT PERI AZIMU VELO AIN AR TRES W  DIS CAZ7
 NAR  HZ EP   1A   115 19.26                              58   -0.34 7 24.7 148 
 ELBS HZ IP   1A   115 30.59                              58    0.69 7 83.2   7 
 HASA HZ EP   2A   115 33.94                              58    0.62 4  103 207 
 SARI HE IS   1A   115 47.20                              58   -0.39 7  105 331 
 SARI HE  IAML A   115 47.20      1284.7 1.00                           105 331 
 CUGURHZ EP   2A   115 36.30                              58   -1.60 4  129  10 
 CUKANHZ EP   1A   115 48.22                              38    0.69 5  197  12 
                                                                                
 2023  2 7 0115 39.3 L  37.289  37.408  0.0  TUR  6 1.1 2.5LTUR                1
 GAP=152        1.51      14.0    13.9 63.6  0.1957E+02 -0.6662E+03 -0.2134E+03E
 Action:ARG 23-03-27 17:02 OP:OBSP STATUS:               ID:20230207063910     I
 STAT SP IPHASW D HRMM SECON CODA AMPLIT PERI AZIMU VELO AIN AR TRES W  DIS CAZ7
 KAHM HZ IP   1A   115 47.57                              58   -0.07 7 45.0 304 
 ANDN HZ EP   1A   115 56.12                              58   -1.10 7 99.4 289 
 HASA HZ IP   1A   115 58.02                              58    0.53 7  101 234 
 URFA HE ES   2A   116 17.69                              58   -0.73 4  126  82 
 URFA HE  IAML A   116 17.69       103.8 1.00                           126  82 
 HANM HZ EP   2A   116  2.63                              58   -0.62 4  134  76 
 CUKANHZ IP   1A   116 18.20                              38    2.49 5  225   1 
                                                                                
 2023  2 7 0116 39.2 L  38.055  37.710 12.0  TUR  8 0.7 2.6LTUR                1
 GAP=103        0.91       4.0     4.0 41.6  0.7765E+01 -0.6050E+02  0.2703E+02E
 Action:ARG 23-03-27 17:02 OP:OBSP STATUS:               ID:20230207064420     I
 STAT SP IPHASW D HRMM SECON CODA AMPLIT PERI AZIMU VELO AIN AR TRES W  DIS CAZ7
 ELBS HZ IP   1A   116 49.81                              99   -0.18 8 58.7 301 
 ELBS HE  IAML A   116 57.94      1252.8 1.00                          58.7 301 
 ELBS HE ES   1A   116 57.94                              99    0.10 8 58.7 301 
 DARE HZ EP   1A   116 50.22                              81   -0.08 7 60.6 341 
 DARE HE  IAML A   116 58.74       124.3 1.00                          60.6 341 
 DARE HE IS   0A   116 58.74                              81    0.3710 60.6 341 
 MAYA HZ EP   1A   116 51.36                              81   -0.46 7 69.5  64 
 MAYA HE ES   2A   117  0.41                              81   -0.59 5 69.5  64 
 MAYA HE  IAML A   117  0.41       472.4 1.00                          69.5  64 
 KAHM HE ES   3A   117  4.31                              81   -1.86 2 87.3 227 
 KAHM HE  IAML A   117  4.31       616.0 1.00                          87.3 227 
 NARI HZ EP   3A   116 55.85                              81   -0.19 2 94.3 101 
 HANM HZ EP   1A   116 59.29                              72   -0.28 7  116 117 
 HANM HE ES   2A   117 15.69                              72    1.29 4  116 117 
 HANM HE  IAML A   117 15.69       176.0 1.00                           116 117 
 URFA HE ES   2A   117 16.98                              72    1.49 4  119 124 
 URFA HE  IAML A   117 16.98        74.5 1.00                           119 124 
 ELZG HZ IP   1A   117  0.19                              72   -0.43 6  122  66 
                                                                                
